{"type":"FeatureCollection","name":"begegnungen","crs":{"type":"name","properties":{"name":"urn:ogc:def:crs:OGC:1.3:CRS84"}},"features":[{"type":"Feature","properties":{"art":"siedlung","name":"Brașov · Răcadău","hinweis":"Müllcontainer am Waldrand"},"geometry":{"type":"Point","coordinates":[25.575,45.635]}},{"type":"Feature","properties":{"art":"siedlung","name":"Băile Tușnad","hinweis":"Bären im Kurort"},"geometry":{"type":"Point","coordinates":[25.87,46.145]}},{"type":"Feature","properties":{"art":"fuetterung","name":"Transfăgărășan (DN 7C)","hinweis":"Fütterung aus dem Auto"},"geometry":{"type":"Point","coordinates":[24.62,45.6]}},{"type":"Feature","properties":{"art":"fuetterung","name":"Sinaia · Bușteni (DN 1)","hinweis":"Bären an der Resortstraße"},"geometry":{"type":"Point","coordinates":[25.53,45.34]}},{"type":"Feature","properties":{"art":"huette","name":"Vama Buzăului","hinweis":"Beobachtungshütte"},"geometry":{"type":"Point","coordinates":[26.07,45.62]}},{"type":"Feature","properties":{"art":"vorfall","name":"Jepii Mici · Bucegi","hinweis":"07/2024: Wanderin getötet"},"geometry":{"type":"Point","coordinates":[25.44,45.395]}}]}