{"type":"FeatureCollection","name":"kreise_schwerpunkte","crs":{"type":"name","properties":{"name":"urn:ogc:def:crs:OGC:1.3:CRS84"}},"features":[{"type":"Feature","properties":{"gruppe":"Harghita","bestand":1727,"dichte":27.4,"signaturen":17,"status":"modelliert","kreise":1},"geometry":{"type":"Point","coordinates":[25.5561,46.5501]}},{"type":"Feature","properties":{"gruppe":"Brașov","bestand":1329,"dichte":29.9,"signaturen":13,"status":"modelliert","kreise":1},"geometry":{"type":"Point","coordinates":[25.3011,45.7649]}},{"type":"Feature","properties":{"gruppe":"Bistrița-Năsăud + Maramureș","bestand":1153,"dichte":11.8,"signaturen":12,"status":"modelliert","kreise":2},"geometry":{"type":"Point","coordinates":[24.2277,47.472]}},{"type":"Feature","properties":{"gruppe":"Mureș","bestand":873,"dichte":17.4,"signaturen":9,"status":"modelliert","kreise":1},"geometry":{"type":"Point","coordinates":[24.6953,46.6085]}},{"type":"Feature","properties":{"gruppe":"Argeș","bestand":771,"dichte":15.7,"signaturen":8,"status":"modelliert","kreise":1},"geometry":{"type":"Point","coordinates":[24.8861,45.0429]}},{"type":"Feature","properties":{"gruppe":"Sibiu","bestand":683,"dichte":14.2,"signaturen":7,"status":"modelliert","kreise":1},"geometry":{"type":"Point","coordinates":[24.2438,45.8585]}},{"type":"Feature","properties":{"gruppe":"Buzău","bestand":606,"dichte":18,"signaturen":6,"status":"modelliert","kreise":1},"geometry":{"type":"Point","coordinates":[26.7486,45.2449]}},{"type":"Feature","properties":{"gruppe":"Covasna","bestand":552,"dichte":17.1,"signaturen":6,"status":"modelliert","kreise":1},"geometry":{"type":"Point","coordinates":[25.9897,45.9378]}},{"type":"Feature","properties":{"gruppe":"Hunedoara","bestand":526,"dichte":9.5,"signaturen":5,"status":"modelliert","kreise":1},"geometry":{"type":"Point","coordinates":[22.9379,45.7527]}},{"type":"Feature","properties":{"gruppe":"Prahova","bestand":493,"dichte":15.2,"signaturen":5,"status":"modelliert","kreise":1},"geometry":{"type":"Point","coordinates":[26.0137,45.1141]}},{"type":"Feature","properties":{"gruppe":"Vâlcea","bestand":459,"dichte":12.5,"signaturen":5,"status":"modelliert","kreise":1},"geometry":{"type":"Point","coordinates":[24.1088,45.0963]}},{"type":"Feature","properties":{"gruppe":"Bacău","bestand":411,"dichte":13.7,"signaturen":4,"status":"modelliert","kreise":1},"geometry":{"type":"Point","coordinates":[26.7724,46.4217]}},{"type":"Feature","properties":{"gruppe":"Vrancea","bestand":363,"dichte":17.5,"signaturen":4,"status":"modelliert","kreise":1},"geometry":{"type":"Point","coordinates":[26.9783,45.7877]}},{"type":"Feature","properties":{"gruppe":"Caraș-Severin + Gorj + Timiș","bestand":253,"dichte":4.3,"signaturen":3,"status":"modelliert","kreise":3},"geometry":{"type":"Point","coordinates":[22.0961,45.3426]}},{"type":"Feature","properties":{"gruppe":"Neamț","bestand":173,"dichte":4.3,"signaturen":2,"status":"modelliert","kreise":1},"geometry":{"type":"Point","coordinates":[26.3728,46.9696]}},{"type":"Feature","properties":{"gruppe":"Suceava","bestand":169,"dichte":2.5,"signaturen":2,"status":"modelliert","kreise":1},"geometry":{"type":"Point","coordinates":[25.7469,47.5531]}},{"type":"Feature","properties":{"gruppe":"Dâmbovița","bestand":153,"dichte":8,"signaturen":2,"status":"modelliert","kreise":1},"geometry":{"type":"Point","coordinates":[25.4948,44.8644]}},{"type":"Feature","properties":{"gruppe":"Alba","bestand":109,"dichte":5,"signaturen":1,"status":"modelliert","kreise":1},"geometry":{"type":"Point","coordinates":[23.4853,46.1729]}},{"type":"Feature","properties":{"gruppe":"Cluj","bestand":7,"dichte":null,"signaturen":0,"status":"einzelnachweis","kreise":1},"geometry":{"type":"Point","coordinates":[23.5351,46.8125]}},{"type":"Feature","properties":{"gruppe":"Bihor","bestand":5,"dichte":null,"signaturen":0,"status":"einzelnachweis","kreise":1},"geometry":{"type":"Point","coordinates":[22.2094,46.9423]}}]}