{"type":"FeatureCollection","name":"kreise_baeren","crs":{"type":"name","properties":{"name":"urn:ogc:def:crs:OGC:1.3:CRS84"}},"features":[{"type":"Feature","properties":{"name":"Covasna","nuts_id":"RO123","gruppe":"Covasna","bestand":552,"dichte":17.1,"signatur":1,"status":"modelliert"},"geometry":{"type":"MultiPolygon","coordinates":[[[[26.3921,45.8024],[26.3815,45.7382],[26.3568,45.7203],[26.3328,45.6749],[26.3272,45.6308],[26.3098,45.6068],[26.2793,45.5891],[26.2556,45.6016],[26.2468,45.6233],[26.2131,45.62],[26.1876,45.6063],[26.1728,45.5669],[26.1455,45.5804],[26.0933,45.5163],[26.0997,45.5498],[26.0912,45.5688],[26.0618,45.5911],[26.0559,45.6112],[26.0215,45.6201],[26.0107,45.6416],[25.9658,45.6517],[25.9633,45.6882],[25.9151,45.7069],[25.8656,45.7105],[25.8292,45.7283],[25.8204,45.7481],[25.7891,45.7604],[25.7067,45.7699],[25.6752,45.7549],[25.6602,45.7899],[25.6134,45.8236],[25.5739,45.8367],[25.5629,45.8706],[25.5894,45.8773],[25.5975,45.8874],[25.5535,45.8967],[25.5568,45.9162],[25.5441,45.9365],[25.5407,45.9665],[25.5753,46.0279],[25.5542,46.0503],[25.5067,46.048],[25.4658,46.0657],[25.4538,46.0778],[25.4512,46.1041],[25.4673,46.1097],[25.4814,46.1438],[25.5051,46.1586],[25.5118,46.1885],[25.5765,46.216],[25.601,46.2383],[25.6953,46.275],[25.7271,46.2706],[25.7287,46.2521],[25.7848,46.1978],[25.7931,46.1781],[25.8589,46.1211],[25.9736,46.1336],[26.0142,46.1294],[26.0584,46.1589],[26.1325,46.1698],[26.1678,46.1634],[26.183,46.1811],[26.2076,46.1829],[26.2223,46.205],[26.255,46.2145],[26.2555,46.2374],[26.2634,46.2463],[26.3057,46.2396],[26.3296,46.225],[26.3391,46.2083],[26.3342,46.1822],[26.3458,46.1409],[26.3832,46.1432],[26.3856,46.1291],[26.3711,46.1129],[26.4042,46.1011],[26.4262,46.0798],[26.44,46.0389],[26.4342,45.9894],[26.3927,45.9582],[26.3915,45.9237],[26.377,45.9049],[26.3859,45.8769],[26.3736,45.8488],[26.3762,45.8226],[26.3921,45.8024]],[[25.6259,45.8964],[25.63,45.8899],[25.6482,45.8966],[25.6435,45.9063],[25.6259,45.8964]]]]}},{"type":"Feature","properties":{"name":"Harghita","nuts_id":"RO124","gruppe":"Harghita","bestand":1727,"dichte":27.4,"signatur":1,"status":"modelliert"},"geometry":{"type":"MultiPolygon","coordinates":[[[[25.1733,46.1655],[25.1312,46.1897],[25.1025,46.228],[25.0783,46.2387],[24.9435,46.2494],[24.9256,46.2723],[24.8706,46.3043],[24.8716,46.3257],[24.8602,46.3476],[24.8959,46.3839],[24.9434,46.3784],[24.9711,46.3846],[24.9637,46.398],[24.941,46.41],[24.9397,46.4221],[24.9531,46.442],[25.0163,46.4696],[25.0156,46.4847],[24.9942,46.5006],[25.024,46.5384],[25.0999,46.5786],[25.1521,46.5829],[25.1938,46.622],[25.2261,46.6347],[25.2435,46.6682],[25.2829,46.6778],[25.2878,46.6982],[25.263,46.7263],[25.2629,46.7453],[25.3041,46.7613],[25.3147,46.7769],[25.2855,46.8012],[25.2838,46.8316],[25.2537,46.8452],[25.2731,46.8917],[25.2645,46.915],[25.2891,46.9848],[25.2881,46.9932],[25.2775,46.999],[25.2664,47.0103],[25.2697,47.0181],[25.2695,47.0306],[25.2475,47.0466],[25.2333,47.0589],[25.2307,47.065],[25.2309,47.0756],[25.236,47.0872],[25.2467,47.0979],[25.2925,47.1141],[25.2906,47.1376],[25.3051,47.163],[25.3594,47.1777],[25.4184,47.1814],[25.452,47.1505],[25.5248,47.1132],[25.5405,47.0833],[25.6001,47.0792],[25.627,47.0934],[25.6616,47.0916],[25.7366,47.0703],[25.7687,47.0335],[25.7983,46.976],[25.8295,46.9685],[25.8476,46.9343],[25.8439,46.9234],[25.8031,46.9224],[25.7715,46.8851],[25.7764,46.8644],[25.7696,46.843],[25.7958,46.8415],[25.7839,46.8242],[25.8049,46.7946],[25.8034,46.7122],[25.8771,46.6518],[25.9023,46.6572],[25.8898,46.6848],[25.8985,46.699],[25.9752,46.6973],[25.977,46.6813],[26.0023,46.6623],[26.0152,46.638],[25.9956,46.6204],[25.9962,46.6071],[26.0272,46.5791],[26.0413,46.5395],[26.0729,46.5232],[26.0801,46.5084],[26.0727,46.4884],[26.0431,46.4931],[26.0122,46.4852],[26.0147,46.464],[25.9916,46.4379],[25.9999,46.4246],[25.9972,46.4101],[26.0477,46.4146],[26.0642,46.4027],[26.1279,46.397],[26.1597,46.3856],[26.1651,46.3551],[26.1518,46.3281],[26.1633,46.3141],[26.2094,46.313],[26.2469,46.3393],[26.2859,46.3375],[26.2751,46.293],[26.2551,46.2734],[26.2634,46.2463],[26.2555,46.2374],[26.255,46.2145],[26.2223,46.205],[26.2076,46.1829],[26.183,46.1811],[26.1678,46.1634],[26.1325,46.1698],[26.0584,46.1589],[26.0142,46.1294],[25.9736,46.1336],[25.8589,46.1211],[25.7931,46.1781],[25.7848,46.1978],[25.7287,46.2521],[25.7271,46.2706],[25.6953,46.275],[25.601,46.2383],[25.5765,46.216],[25.5118,46.1885],[25.5051,46.1586],[25.4814,46.1438],[25.4673,46.1097],[25.4512,46.1041],[25.4474,46.1215],[25.3722,46.1375],[25.3299,46.1759],[25.2751,46.1729],[25.2602,46.1873],[25.2551,46.1789],[25.2618,46.1626],[25.2457,46.1433],[25.1915,46.1684],[25.1733,46.1655]]]]}},{"type":"Feature","properties":{"name":"Bihor","nuts_id":"RO111","gruppe":"Bihor","bestand":5,"dichte":null,"signatur":1,"status":"einzelnachweis"},"geometry":{"type":"MultiPolygon","coordinates":[[[[22.7256,46.7314],[22.7741,46.656],[22.8041,46.6286],[22.812,46.5689],[22.7607,46.5724],[22.752,46.5551],[22.7256,46.5414],[22.6787,46.517],[22.676,46.479],[22.708,46.4287],[22.6766,46.4058],[22.6369,46.3905],[22.582,46.3973],[22.4596,46.3857],[22.4302,46.3923],[22.3527,46.4454],[22.3268,46.4835],[22.3229,46.5127],[22.2728,46.5027],[22.2426,46.5051],[22.2171,46.5176],[22.1992,46.5151],[22.1776,46.5374],[22.1719,46.5551],[22.1664,46.5722],[22.1693,46.6004],[22.1176,46.6046],[22.0913,46.6198],[22.0818,46.6354],[22.0544,46.6354],[22.0236,46.6502],[21.9975,46.625],[21.9504,46.6183],[21.8866,46.6325],[21.9052,46.663],[21.878,46.678],[21.8236,46.6627],[21.7968,46.6552],[21.6489,46.6636],[21.6171,46.6465],[21.5707,46.6468],[21.561,46.6015],[21.5486,46.6047],[21.5364,46.6291],[21.5009,46.6566],[21.4651,46.66],[21.4414,46.6515],[21.4518,46.6642],[21.4327,46.6783],[21.433,46.6922],[21.4913,46.6891],[21.5265,46.7219],[21.523,46.7389],[21.4864,46.7656],[21.516,46.7979],[21.5219,46.8345],[21.598,46.8645],[21.6118,46.8898],[21.6012,46.9274],[21.6374,46.9348],[21.6764,46.9609],[21.6711,46.9759],[21.6845,47.0034],[21.6756,47.017],[21.659,47.0221],[21.6526,47.0385],[21.6976,47.06],[21.7265,47.0973],[21.7905,47.1095],[21.8153,47.1682],[21.8236,47.1723],[21.8555,47.1878],[21.8533,47.2396],[21.867,47.2538],[21.8833,47.2706],[21.8814,47.2861],[21.8942,47.3103],[21.9434,47.3713],[22.0175,47.3873],[22.0322,47.4208],[22.0281,47.4489],[22.0108,47.4796],[22.0156,47.5032],[22.0398,47.5315],[22.061,47.5356],[22.0642,47.5497],[22.1161,47.5789],[22.1283,47.5981],[22.1384,47.5979],[22.1476,47.5945],[22.1713,47.5918],[22.1808,47.6001],[22.2012,47.5972],[22.2384,47.5677],[22.2555,47.564],[22.2611,47.5402],[22.2885,47.5371],[22.2925,47.5067],[22.337,47.4921],[22.3431,47.4534],[22.357,47.4316],[22.4126,47.4326],[22.4322,47.4248],[22.457,47.4298],[22.5233,47.4193],[22.5335,47.4018],[22.5613,47.3935],[22.5652,47.3761],[22.6127,47.3347],[22.5884,47.3227],[22.5814,47.3103],[22.5776,47.3036],[22.5534,47.2995],[22.5495,47.2765],[22.5559,47.2538],[22.517,47.227],[22.5001,47.1862],[22.508,47.171],[22.5363,47.1604],[22.559,47.1267],[22.5317,47.1049],[22.5977,47.0646],[22.6817,47.0486],[22.7047,47.0178],[22.7256,47.0086],[22.7256,47.0055],[22.6858,46.9747],[22.6795,46.9528],[22.7256,46.9298],[22.7643,46.9105],[22.7712,46.8932],[22.7256,46.8232],[22.6629,46.7942],[22.7049,46.7621],[22.7256,46.7314]]]]}},{"type":"Feature","properties":{"name":"Bistriţa-Năsăud","nuts_id":"RO112","gruppe":"Bistrița-Năsăud + Maramureș","bestand":1153,"dichte":11.8,"signatur":1,"status":"modelliert"},"geometry":{"type":"MultiPolygon","coordinates":[[[[24.1796,46.8047],[24.1924,46.8114],[24.1925,46.8298],[24.2068,46.8397],[24.2035,46.8547],[24.2238,46.89],[24.1907,46.9307],[24.1637,46.9364],[24.1722,46.9609],[24.1176,46.9625],[24.1024,46.9875],[24.1142,47.0153],[24.1076,47.0295],[24.1365,47.0923],[24.1033,47.123],[24.0786,47.1176],[24.0206,47.1445],[24.0165,47.1543],[24.0253,47.1649],[24.0166,47.1755],[23.9605,47.1648],[23.9388,47.1966],[23.9256,47.2355],[23.9219,47.2465],[23.9235,47.2538],[23.9345,47.3036],[23.9816,47.3185],[24.0058,47.3079],[24.0232,47.3186],[24.0227,47.3619],[24.062,47.3814],[24.0771,47.4096],[24.119,47.4385],[24.1254,47.4935],[24.1424,47.4904],[24.1809,47.5063],[24.2368,47.5013],[24.2721,47.5237],[24.3054,47.5752],[24.3456,47.5674],[24.3872,47.6059],[24.5664,47.5637],[24.6328,47.5738],[24.665,47.5576],[24.7043,47.5684],[24.724,47.5737],[24.8064,47.5691],[24.8296,47.5955],[24.9129,47.5996],[24.9608,47.5969],[25.0485,47.5577],[25.0905,47.5123],[25.0513,47.4768],[25.0797,47.4422],[25.0518,47.4245],[25.0205,47.431],[24.9988,47.4181],[25.0626,47.3719],[25.0732,47.3158],[25.0353,47.2876],[25.0743,47.2538],[25.0606,47.2355],[25.0477,47.2183],[25.0636,47.1715],[25.0634,47.1365],[25.0151,47.1125],[24.9558,47.1176],[24.9333,47.0986],[24.9129,47.1016],[24.8673,47.1028],[24.7905,47.0454],[24.7721,47.0072],[24.7445,46.9852],[24.7373,46.951],[24.7256,46.9356],[24.7487,46.9153],[24.7459,46.9086],[24.7111,46.9032],[24.7043,46.9042],[24.6585,46.9108],[24.6293,46.9475],[24.5973,46.9449],[24.5802,46.9158],[24.5361,46.905],[24.5275,46.8582],[24.4613,46.8206],[24.4536,46.7909],[24.4689,46.7825],[24.4538,46.7683],[24.4126,46.7712],[24.3981,46.7516],[24.3725,46.7476],[24.2975,46.7552],[24.2246,46.7795],[24.1796,46.8047]]]]}},{"type":"Feature","properties":{"name":"Ialomiţa","nuts_id":"RO315","gruppe":null,"bestand":null,"dichte":null,"signatur":0,"status":"kein_bestand"},"geometry":{"type":"MultiPolygon","coordinates":[[[[26.3018,44.7689],[26.3375,44.7878],[26.3741,44.7642],[26.3868,44.7649],[26.4528,44.8086],[26.4977,44.7933],[26.5338,44.8294],[26.6056,44.857],[26.6319,44.8165],[26.6485,44.8201],[26.6786,44.8102],[26.7092,44.8171],[26.7267,44.8104],[26.7729,44.8139],[26.8077,44.7985],[26.8803,44.8178],[26.9705,44.7902],[27.0106,44.8219],[27.1051,44.7825],[27.1008,44.7464],[27.1288,44.7373],[27.179,44.7383],[27.1835,44.7499],[27.153,44.7682],[27.1547,44.7806],[27.1642,44.7879],[27.2035,44.7871],[27.2556,44.7523],[27.287,44.7824],[27.311,44.7775],[27.3425,44.8002],[27.3807,44.7774],[27.4094,44.776],[27.4379,44.7965],[27.4765,44.7776],[27.5202,44.775],[27.5275,44.7866],[27.7138,44.7679],[27.7413,44.7821],[27.7291,44.7954],[27.7332,44.8025],[27.8164,44.8195],[27.8236,44.8164],[27.8282,44.7831],[27.8706,44.7734],[27.881,44.7631],[27.873,44.7333],[27.8808,44.7107],[27.9328,44.681],[27.9598,44.6769],[28.028,44.6285],[28.0315,44.6104],[28.016,44.5854],[28.0167,44.5685],[28.0535,44.5105],[28.0872,44.4887],[28.1076,44.4402],[28.1035,44.4292],[28.0411,44.3815],[28.0174,44.3402],[27.8588,44.3785],[27.8159,44.3371],[27.7882,44.3516],[27.7649,44.3481],[27.7536,44.3579],[27.7489,44.3787],[27.7595,44.3964],[27.7218,44.4188],[27.6575,44.4223],[27.6571,44.4447],[27.6407,44.4691],[27.573,44.4705],[27.5712,44.5522],[27.5587,44.559],[27.526,44.5394],[27.5187,44.5036],[27.5095,44.4957],[27.3945,44.4968],[27.3588,44.5166],[27.339,44.487],[27.2936,44.4894],[27.2871,44.5026],[27.2747,44.5052],[27.2583,44.4904],[27.2328,44.4935],[27.2254,44.5046],[27.2007,44.4857],[27.1451,44.4994],[27.1313,44.484],[27.0998,44.4849],[27.088,44.5075],[27.0089,44.5092],[26.9945,44.5289],[26.8991,44.5173],[26.8874,44.5253],[26.8503,44.5177],[26.8345,44.5254],[26.8225,44.5157],[26.7905,44.513],[26.775,44.5185],[26.7808,44.5426],[26.7625,44.5468],[26.7499,44.5305],[26.7301,44.536],[26.721,44.558],[26.6806,44.5656],[26.68,44.5888],[26.6701,44.5932],[26.6373,44.536],[26.6207,44.5394],[26.6051,44.5233],[26.5623,44.5281],[26.4833,44.5742],[26.4476,44.5617],[26.4428,44.5517],[26.4573,44.5417],[26.4161,44.5217],[26.3939,44.5362],[26.3666,44.5302],[26.3467,44.5478],[26.399,44.6151],[26.3761,44.6247],[26.3348,44.6786],[26.3636,44.6933],[26.3706,44.7204],[26.3018,44.7689]]]]}},{"type":"Feature","properties":{"name":"Olt","nuts_id":"RO414","gruppe":null,"bestand":null,"dichte":null,"signatur":0,"status":"kein_bestand"},"geometry":{"type":"MultiPolygon","coordinates":[[[[24.884,44.3826],[24.8776,44.3697],[24.821,44.3597],[24.8411,44.3164],[24.8233,44.2904],[24.8232,44.2381],[24.832,44.2249],[24.7962,44.1911],[24.8099,44.1565],[24.8445,44.1296],[24.8541,44.0927],[24.7331,44.0633],[24.718,44.0596],[24.7163,44.0384],[24.7043,44.0357],[24.6227,44.0171],[24.6083,43.9963],[24.6052,43.9644],[24.63,43.9588],[24.6366,43.9414],[24.6311,43.9287],[24.6741,43.8955],[24.6675,43.8718],[24.6915,43.8678],[24.7043,43.8504],[24.7213,43.8275],[24.7443,43.8171],[24.7424,43.7922],[24.7043,43.7833],[24.699,43.782],[24.6821,43.7596],[24.655,43.751],[24.6616,43.739],[24.6548,43.7236],[24.5803,43.754],[24.4946,43.7612],[24.4079,43.7202],[24.3235,43.6977],[24.1909,43.684],[24.112,43.6999],[24.1279,43.7667],[24.153,43.807],[24.1855,43.8121],[24.1912,43.813],[24.1989,43.854],[24.2257,43.8569],[24.2452,43.9278],[24.2269,43.9475],[24.2334,43.9581],[24.2508,43.9615],[24.2612,43.9909],[24.2566,43.9988],[24.1764,44.0105],[24.1804,44.0633],[24.2155,44.0713],[24.2241,44.0829],[24.2219,44.2255],[24.1591,44.2456],[24.1172,44.2699],[24.1067,44.2946],[24.0526,44.3418],[24.0275,44.3788],[23.9828,44.3773],[23.9643,44.3863],[23.9565,44.4126],[23.8891,44.421],[23.8907,44.4559],[23.8994,44.4696],[23.8907,44.4821],[23.8978,44.511],[23.9282,44.5302],[23.9869,44.537],[24.0166,44.5313],[24.0748,44.4923],[24.0927,44.5161],[24.1469,44.5558],[24.186,44.5484],[24.2494,44.553],[24.2653,44.599],[24.2821,44.5966],[24.2897,44.5678],[24.3224,44.5628],[24.3239,44.612],[24.3028,44.6431],[24.2985,44.6742],[24.2803,44.7089],[24.2773,44.7664],[24.3186,44.79],[24.3231,44.8395],[24.338,44.8534],[24.3368,44.8676],[24.3678,44.8733],[24.3898,44.8987],[24.421,44.8892],[24.4194,44.8559],[24.4381,44.8454],[24.4259,44.8296],[24.4294,44.8216],[24.4496,44.8129],[24.4742,44.8205],[24.5064,44.8472],[24.5213,44.8889],[24.5361,44.8897],[24.5572,44.8318],[24.5859,44.7946],[24.5935,44.7572],[24.6321,44.7323],[24.679,44.7372],[24.7043,44.7258],[24.715,44.721],[24.7172,44.7135],[24.7043,44.7064],[24.6903,44.6987],[24.7043,44.656],[24.7138,44.627],[24.7109,44.5873],[24.74,44.5404],[24.7291,44.5011],[24.735,44.4695],[24.7559,44.4608],[24.7489,44.3958],[24.8737,44.3931],[24.884,44.3826]],[[24.6884,43.8272],[24.6922,43.8214],[24.7072,43.8238],[24.7071,43.8311],[24.6957,43.8357],[24.6884,43.8272]]]]}},{"type":"Feature","properties":{"name":"Constanţa","nuts_id":"RO223","gruppe":null,"bestand":null,"dichte":null,"signatur":0,"status":"kein_bestand"},"geometry":{"type":"MultiPolygon","coordinates":[[[[28.9941,44.6796],[28.9402,44.6243],[28.8319,44.486],[28.7174,44.3824],[28.6928,44.3477],[28.6398,44.3208],[28.6292,44.3031],[28.6245,44.2468],[28.6539,44.2035],[28.66,44.1759],[28.6509,44.1578],[28.6541,44.1325],[28.6416,44.1098],[28.6458,44.0966],[28.6609,44.1046],[28.6657,44.0936],[28.6406,44.0746],[28.6438,44.0633],[28.6649,43.9886],[28.6396,43.9503],[28.6321,43.92],[28.6101,43.8862],[28.6066,43.855],[28.5922,43.8361],[28.5798,43.798],[28.5789,43.7387],[28.4461,43.7342],[28.3489,43.7519],[28.236,43.7591],[28.0021,43.8405],[27.955,43.9398],[27.9438,43.9829],[27.9179,44.0056],[27.8431,43.9672],[27.7401,43.9546],[27.7113,43.9606],[27.6954,43.9873],[27.6734,44.0283],[27.6455,44.0453],[27.6076,44.0131],[27.4716,44.0219],[27.3992,44.0149],[27.3546,44.0576],[27.3362,44.0633],[27.294,44.0764],[27.2713,44.1263],[27.3097,44.14],[27.4521,44.1259],[27.5327,44.1717],[27.6013,44.1982],[27.6418,44.2054],[27.72,44.1972],[27.803,44.2404],[27.9305,44.2502],[27.9646,44.272],[28.0072,44.3173],[28.0174,44.3402],[28.0411,44.3815],[28.1035,44.4292],[28.1076,44.4402],[28.0872,44.4887],[28.0535,44.5105],[28.0167,44.5685],[28.016,44.5854],[28.0315,44.6104],[28.028,44.6285],[27.9598,44.6769],[27.9328,44.681],[27.8808,44.7107],[27.873,44.7333],[27.881,44.7631],[27.948,44.7792],[28.0011,44.7595],[28.0332,44.7627],[28.0623,44.7833],[28.0741,44.8039],[28.1098,44.7949],[28.1515,44.7995],[28.1781,44.7861],[28.191,44.7568],[28.2314,44.7637],[28.2576,44.7546],[28.2728,44.7003],[28.3142,44.71],[28.322,44.7067],[28.3201,44.6957],[28.376,44.6832],[28.3857,44.6461],[28.4246,44.6173],[28.4448,44.6396],[28.4307,44.6575],[28.4357,44.6706],[28.4753,44.6474],[28.5181,44.6356],[28.5384,44.6605],[28.5907,44.6558],[28.6749,44.6674],[28.7018,44.6536],[28.7356,44.6489],[28.774,44.6541],[28.7906,44.6378],[28.8173,44.6331],[28.9211,44.6957],[28.9546,44.694],[28.9941,44.6796]]]]}},{"type":"Feature","properties":{"name":"Cluj","nuts_id":"RO113","gruppe":"Cluj","bestand":7,"dichte":null,"signatur":1,"status":"einzelnachweis"},"geometry":{"type":"MultiPolygon","coordinates":[[[[22.7256,46.7314],[22.7049,46.7621],[22.6629,46.7942],[22.7256,46.8232],[22.7712,46.8932],[22.7643,46.9105],[22.7256,46.9298],[22.6795,46.9528],[22.6858,46.9747],[22.7256,47.0055],[22.7256,47.0086],[22.7953,46.9806],[22.8342,46.991],[22.8602,46.9856],[22.8908,46.9716],[22.9028,46.9396],[22.9294,46.9225],[23.0397,46.8883],[23.0743,46.8981],[23.0862,46.889],[23.0895,46.8663],[23.104,46.8581],[23.1665,46.8757],[23.1945,46.8752],[23.2119,46.891],[23.2099,46.9226],[23.2324,46.9538],[23.2828,46.903],[23.346,46.9159],[23.3798,46.9449],[23.3879,46.9738],[23.4555,47.0018],[23.4782,47.0264],[23.4785,47.0359],[23.4373,47.0862],[23.4816,47.0946],[23.4984,47.1219],[23.504,47.1533],[23.5633,47.1768],[23.6152,47.1727],[23.6507,47.2267],[23.6657,47.2355],[23.7202,47.2509],[23.7486,47.2446],[23.7522,47.2538],[23.7624,47.2797],[23.8078,47.2556],[23.8031,47.2821],[23.8414,47.34],[23.8365,47.3495],[23.8464,47.3686],[23.8697,47.3743],[23.914,47.3543],[23.9715,47.3642],[24.0227,47.3619],[24.0232,47.3186],[24.0058,47.3079],[23.9816,47.3185],[23.9345,47.3036],[23.9235,47.2538],[23.9219,47.2465],[23.9256,47.2355],[23.9388,47.1966],[23.9605,47.1648],[24.0166,47.1755],[24.0253,47.1649],[24.0165,47.1543],[24.0206,47.1445],[24.0786,47.1176],[24.1033,47.123],[24.1365,47.0923],[24.1076,47.0295],[24.1142,47.0153],[24.1024,46.9875],[24.1176,46.9625],[24.1722,46.9609],[24.1637,46.9364],[24.1907,46.9307],[24.2238,46.89],[24.2035,46.8547],[24.2068,46.8397],[24.1925,46.8298],[24.1924,46.8114],[24.1796,46.8047],[24.1837,46.7934],[24.1719,46.7847],[24.1198,46.7716],[24.1204,46.7467],[24.0901,46.7507],[24.07,46.7379],[24.0844,46.7159],[24.1199,46.6981],[24.1,46.6615],[24.0397,46.6458],[24.0234,46.627],[24.0288,46.6162],[24.0655,46.6031],[24.0447,46.5551],[24.0401,46.5446],[24.0221,46.5328],[23.9894,46.5408],[23.9631,46.5169],[23.9684,46.4673],[24,46.4419],[23.9853,46.4309],[23.9042,46.4616],[23.8706,46.4521],[23.8288,46.4658],[23.7107,46.4567],[23.6789,46.447],[23.6588,46.4255],[23.6736,46.4094],[23.6494,46.4014],[23.6034,46.4216],[23.5939,46.4463],[23.6069,46.4777],[23.5998,46.487],[23.5442,46.4995],[23.5114,46.4924],[23.4702,46.5045],[23.4472,46.5252],[23.3947,46.5369],[23.3205,46.5163],[23.235,46.4925],[23.1559,46.5052],[23.1102,46.4894],[23.0897,46.4711],[23.0636,46.4693],[23.0541,46.4726],[23.0477,46.4923],[23.0129,46.5079],[22.9887,46.5511],[22.9319,46.5533],[22.8788,46.5383],[22.8205,46.5551],[22.812,46.5689],[22.8041,46.6286],[22.7741,46.656],[22.7256,46.7314]]]]}},{"type":"Feature","properties":{"name":"Maramureş","nuts_id":"RO114","gruppe":"Bistrița-Năsăud + Maramureș","bestand":1153,"dichte":11.8,"signatur":0,"status":"modelliert"},"geometry":{"type":"MultiPolygon","coordinates":[[[[23.4936,47.9678],[23.5306,48.0165],[23.567,48.0039],[23.593,48.0051],[23.6162,48.0062],[23.6671,47.9855],[23.7614,47.9954],[23.8142,47.9813],[23.8606,47.9346],[23.9356,47.9485],[23.9577,47.9633],[24.0073,47.9653],[24.0329,47.9514],[24.0657,47.9506],[24.0998,47.9267],[24.1145,47.9164],[24.1931,47.9151],[24.2262,47.8987],[24.3215,47.923],[24.3457,47.9163],[24.3678,47.9224],[24.3716,47.9267],[24.3937,47.9518],[24.4327,47.9676],[24.5066,47.9532],[24.5723,47.9667],[24.6,47.9486],[24.6262,47.9462],[24.6368,47.9267],[24.667,47.8998],[24.6701,47.873],[24.6853,47.8564],[24.7043,47.8462],[24.7136,47.8413],[24.7711,47.8355],[24.82,47.8191],[24.8394,47.7823],[24.8734,47.7537],[24.8888,47.7278],[24.9471,47.7291],[24.9476,47.7188],[24.953,47.7124],[24.953,47.7062],[24.9604,47.7051],[24.9767,47.6979],[25.007,47.6773],[25.0169,47.6741],[25.0224,47.6669],[25.0373,47.664],[25.043,47.66],[25.0518,47.6583],[25.0556,47.6483],[25.0514,47.6411],[25.0329,47.6376],[25.0251,47.6342],[25.0112,47.6332],[24.9942,47.6256],[24.9915,47.621],[24.984,47.6198],[24.9761,47.6145],[24.9588,47.6148],[24.9608,47.5969],[24.9129,47.5996],[24.8296,47.5955],[24.8064,47.5691],[24.724,47.5737],[24.7043,47.5684],[24.665,47.5576],[24.6328,47.5738],[24.5664,47.5637],[24.3872,47.6059],[24.3456,47.5674],[24.3054,47.5752],[24.2721,47.5237],[24.2368,47.5013],[24.1809,47.5063],[24.1424,47.4904],[24.1254,47.4935],[24.119,47.4385],[24.0771,47.4096],[24.062,47.3814],[24.0227,47.3619],[23.9715,47.3642],[23.914,47.3543],[23.8697,47.3743],[23.8464,47.3686],[23.8365,47.3495],[23.8414,47.34],[23.7696,47.3362],[23.7328,47.3217],[23.6385,47.393],[23.6197,47.3906],[23.593,47.3744],[23.5745,47.3633],[23.5065,47.3641],[23.4765,47.377],[23.3777,47.39],[23.356,47.4136],[23.3205,47.4193],[23.2178,47.436],[23.1831,47.4558],[23.1541,47.4426],[23.1061,47.4424],[23.0596,47.4393],[23.0308,47.4195],[23.0168,47.4302],[22.9679,47.4404],[22.9666,47.4518],[22.9813,47.465],[22.9639,47.4818],[23,47.4923],[23.0422,47.4899],[23.0587,47.5619],[23.1389,47.6216],[23.2254,47.5561],[23.255,47.5528],[23.2615,47.5768],[23.2865,47.5867],[23.2825,47.6117],[23.2892,47.6267],[23.3205,47.6381],[23.3351,47.6433],[23.3546,47.6685],[23.3829,47.683],[23.3395,47.7116],[23.3205,47.7122],[23.2443,47.7285],[23.2308,47.7634],[23.2431,47.7808],[23.2737,47.7947],[23.3205,47.7765],[23.3893,47.7791],[23.454,47.7638],[23.4778,47.78],[23.5568,47.8049],[23.5779,47.8352],[23.593,47.8421],[23.635,47.8611],[23.6292,47.8816],[23.593,47.9009],[23.5723,47.9267],[23.5616,47.94],[23.4936,47.9678]]]]}},{"type":"Feature","properties":{"name":"Satu Mare","nuts_id":"RO115","gruppe":null,"bestand":null,"dichte":null,"signatur":0,"status":"ohne_genotypen"},"geometry":{"type":"MultiPolygon","coordinates":[[[[22.7256,47.3953],[22.7202,47.3928],[22.6504,47.3744],[22.6288,47.3385],[22.6127,47.3347],[22.5652,47.3761],[22.5613,47.3935],[22.5335,47.4018],[22.5233,47.4193],[22.457,47.4298],[22.4322,47.4248],[22.4126,47.4326],[22.357,47.4316],[22.3431,47.4534],[22.337,47.4921],[22.2925,47.5067],[22.2885,47.5371],[22.2611,47.5402],[22.2555,47.564],[22.2384,47.5677],[22.2012,47.5972],[22.1808,47.6001],[22.2275,47.6873],[22.2568,47.6997],[22.2664,47.729],[22.3149,47.744],[22.3211,47.7646],[22.3549,47.7511],[22.4254,47.7421],[22.445,47.7971],[22.4785,47.8089],[22.5559,47.7728],[22.606,47.7726],[22.6699,47.7862],[22.6852,47.7943],[22.716,47.8349],[22.7256,47.8364],[22.7728,47.8437],[22.7622,47.8924],[22.7957,47.8937],[22.8489,47.9112],[22.866,47.9267],[22.8963,47.9541],[22.9433,47.9674],[22.9367,47.994],[22.9235,48.0075],[22.9289,48.0167],[23.014,47.992],[23.0894,48.0079],[23.1055,48.0343],[23.1024,48.0445],[23.1195,48.0877],[23.1708,48.1181],[23.198,48.0971],[23.2371,48.0927],[23.2647,48.0989],[23.2877,48.0738],[23.2798,48.0577],[23.289,48.0474],[23.3205,48.0389],[23.3304,48.0363],[23.3365,48.022],[23.4111,47.9901],[23.4936,47.9678],[23.5616,47.94],[23.5723,47.9267],[23.593,47.9009],[23.6292,47.8816],[23.635,47.8611],[23.593,47.8421],[23.5779,47.8352],[23.5568,47.8049],[23.4778,47.78],[23.454,47.7638],[23.3893,47.7791],[23.3205,47.7765],[23.2737,47.7947],[23.2431,47.7808],[23.2308,47.7634],[23.2443,47.7285],[23.3205,47.7122],[23.3395,47.7116],[23.3829,47.683],[23.3546,47.6685],[23.3351,47.6433],[23.3205,47.6381],[23.2892,47.6267],[23.2825,47.6117],[23.2865,47.5867],[23.2615,47.5768],[23.255,47.5528],[23.2254,47.5561],[23.1389,47.6216],[23.0587,47.5619],[23.0422,47.4899],[23,47.4923],[22.9639,47.4818],[22.9813,47.465],[22.9666,47.4518],[22.9679,47.4404],[23.0168,47.4302],[23.0308,47.4195],[23.0596,47.4393],[23.1061,47.4424],[23.1165,47.4253],[23.1173,47.3995],[23.0951,47.3874],[23.0968,47.3704],[23.0546,47.3533],[23.0043,47.3671],[22.9782,47.3543],[22.9652,47.3569],[22.938,47.3766],[22.9096,47.413],[22.8445,47.4206],[22.8116,47.4036],[22.7741,47.4178],[22.7256,47.3953]]]]}},{"type":"Feature","properties":{"name":"Sălaj","nuts_id":"RO116","gruppe":null,"bestand":null,"dichte":null,"signatur":0,"status":"kein_bestand"},"geometry":{"type":"MultiPolygon","coordinates":[[[[23.6657,47.2355],[23.6507,47.2267],[23.6152,47.1727],[23.5633,47.1768],[23.504,47.1533],[23.4984,47.1219],[23.4816,47.0946],[23.4373,47.0862],[23.4785,47.0359],[23.4782,47.0264],[23.4555,47.0018],[23.3879,46.9738],[23.3798,46.9449],[23.346,46.9159],[23.2828,46.903],[23.2324,46.9538],[23.2099,46.9226],[23.2119,46.891],[23.1945,46.8752],[23.1665,46.8757],[23.104,46.8581],[23.0895,46.8663],[23.0862,46.889],[23.0743,46.8981],[23.0397,46.8883],[22.9294,46.9225],[22.9028,46.9396],[22.8908,46.9716],[22.8602,46.9856],[22.8342,46.991],[22.7953,46.9806],[22.7256,47.0086],[22.7047,47.0178],[22.6817,47.0486],[22.5977,47.0646],[22.5317,47.1049],[22.559,47.1267],[22.5363,47.1604],[22.508,47.171],[22.5001,47.1862],[22.517,47.227],[22.5559,47.2538],[22.5495,47.2765],[22.5534,47.2995],[22.5776,47.3036],[22.5814,47.3103],[22.5884,47.3227],[22.6127,47.3347],[22.6288,47.3385],[22.6504,47.3744],[22.7202,47.3928],[22.7256,47.3953],[22.7741,47.4178],[22.8116,47.4036],[22.8445,47.4206],[22.9096,47.413],[22.938,47.3766],[22.9652,47.3569],[22.9782,47.3543],[23.0043,47.3671],[23.0546,47.3533],[23.0968,47.3704],[23.0951,47.3874],[23.1173,47.3995],[23.1165,47.4253],[23.1061,47.4424],[23.1541,47.4426],[23.1831,47.4558],[23.2178,47.436],[23.3205,47.4193],[23.356,47.4136],[23.3777,47.39],[23.4765,47.377],[23.5065,47.3641],[23.5745,47.3633],[23.593,47.3744],[23.6197,47.3906],[23.6385,47.393],[23.7328,47.3217],[23.7696,47.3362],[23.8414,47.34],[23.8031,47.2821],[23.8078,47.2556],[23.7624,47.2797],[23.7522,47.2538],[23.7486,47.2446],[23.7202,47.2509],[23.6657,47.2355]]]]}},{"type":"Feature","properties":{"name":"Braşov","nuts_id":"RO122","gruppe":"Brașov","bestand":1329,"dichte":29.9,"signatur":1,"status":"modelliert"},"geometry":{"type":"MultiPolygon","coordinates":[[[[26.0933,45.5163],[26.0727,45.5058],[26.062,45.4863],[26.043,45.48],[26.017,45.4903],[25.996,45.5116],[25.9211,45.5182],[25.8948,45.4894],[25.8882,45.4485],[25.8637,45.425],[25.8275,45.4323],[25.8119,45.4629],[25.7915,45.4762],[25.7298,45.4669],[25.6783,45.4988],[25.6323,45.4934],[25.5967,45.4632],[25.5328,45.4606],[25.5088,45.4684],[25.4525,45.4413],[25.437,45.4371],[25.4278,45.4368],[25.4122,45.4286],[25.41,45.4228],[25.408,45.3916],[25.402,45.3876],[25.3919,45.3895],[25.3629,45.391],[25.3216,45.3811],[25.3008,45.4174],[25.272,45.4106],[25.2591,45.4231],[25.2707,45.4437],[25.2412,45.4749],[25.2394,45.5001],[25.2283,45.5158],[25.1889,45.5244],[25.1079,45.582],[25.0348,45.591],[24.9608,45.591],[24.9383,45.5837],[24.9129,45.5936],[24.8416,45.5934],[24.8136,45.6087],[24.7043,45.6048],[24.6849,45.6041],[24.6714,45.6342],[24.6803,45.6695],[24.6775,45.7029],[24.6463,45.7652],[24.6452,45.7982],[24.6851,45.8293],[24.7124,45.8221],[24.7272,45.8367],[24.7639,45.8416],[24.7717,45.8504],[24.7641,45.8687],[24.7178,45.8983],[24.7071,45.9372],[24.7469,45.9406],[24.7754,45.9726],[24.8294,45.9798],[24.8288,46.0068],[24.8606,46.0118],[24.8868,46.0351],[24.955,46.0593],[24.9465,46.0791],[24.9586,46.1109],[25.0133,46.1429],[25.0466,46.1352],[25.0844,46.1485],[25.1217,46.143],[25.1733,46.1655],[25.1915,46.1684],[25.2457,46.1433],[25.2618,46.1626],[25.2551,46.1789],[25.2602,46.1873],[25.2751,46.1729],[25.3299,46.1759],[25.3722,46.1375],[25.4474,46.1215],[25.4512,46.1041],[25.4538,46.0778],[25.4658,46.0657],[25.5067,46.048],[25.5542,46.0503],[25.5753,46.0279],[25.5407,45.9665],[25.5441,45.9365],[25.5568,45.9162],[25.5535,45.8967],[25.5975,45.8874],[25.5894,45.8773],[25.5629,45.8706],[25.5739,45.8367],[25.6134,45.8236],[25.6602,45.7899],[25.6752,45.7549],[25.7067,45.7699],[25.7891,45.7604],[25.8204,45.7481],[25.8292,45.7283],[25.8656,45.7105],[25.9151,45.7069],[25.9633,45.6882],[25.9658,45.6517],[26.0107,45.6416],[26.0215,45.6201],[26.0559,45.6112],[26.0618,45.5911],[26.0912,45.5688],[26.0997,45.5498],[26.0933,45.5163]]],[[[25.6259,45.8964],[25.6435,45.9063],[25.6482,45.8966],[25.63,45.8899],[25.6259,45.8964]]]]}},{"type":"Feature","properties":{"name":"Alba","nuts_id":"RO121","gruppe":"Alba","bestand":109,"dichte":5,"signatur":1,"status":"modelliert"},"geometry":{"type":"MultiPolygon","coordinates":[[[[23.9853,46.4309],[24.0015,46.4316],[24.0278,46.4568],[24.0318,46.4083],[23.9944,46.3827],[23.9963,46.3738],[24.0601,46.3415],[24.1386,46.3327],[24.1477,46.3214],[24.1455,46.3011],[24.1644,46.2744],[24.1917,46.281],[24.2313,46.2596],[24.2401,46.2386],[24.1947,46.2149],[24.1931,46.1887],[24.2105,46.1684],[24.208,46.1562],[24.1218,46.1339],[24.0712,46.0943],[24.0469,46.0871],[24.0041,46.0052],[23.9746,46.0345],[23.9384,46.0435],[23.8762,46.0322],[23.8553,46.0098],[23.8665,45.9545],[23.8443,45.9528],[23.8117,45.9264],[23.7401,45.9139],[23.7373,45.8966],[23.765,45.8783],[23.7277,45.8327],[23.7018,45.8243],[23.6853,45.8059],[23.6238,45.8014],[23.6265,45.7848],[23.6521,45.7584],[23.6197,45.7424],[23.5931,45.7035],[23.6037,45.6883],[23.6003,45.6716],[23.6406,45.6365],[23.6454,45.5979],[23.6225,45.5813],[23.6167,45.5623],[23.6619,45.5014],[23.7036,45.4968],[23.6807,45.4726],[23.6466,45.4578],[23.6207,45.4575],[23.5973,45.4735],[23.593,45.4913],[23.5632,45.5271],[23.4969,45.575],[23.4296,45.5885],[23.4167,45.6271],[23.3742,45.6307],[23.3748,45.6419],[23.4165,45.6777],[23.3675,45.7131],[23.3741,45.7631],[23.331,45.8269],[23.3274,45.8758],[23.3205,45.8833],[23.3105,45.8943],[23.3205,45.9058],[23.3266,45.9127],[23.3205,45.9154],[23.262,45.9412],[23.2371,45.9886],[23.238,46.0357],[23.2256,46.0357],[23.1834,46.0293],[23.1567,46.0357],[23.1045,46.048],[23.0838,46.0824],[23.0861,46.0996],[23.0667,46.1084],[23.0577,46.1356],[23.0776,46.1467],[23.1001,46.1436],[23.0924,46.1819],[23.0623,46.2095],[22.9932,46.2148],[22.9646,46.2359],[22.9513,46.2661],[22.9619,46.2852],[22.9298,46.3274],[22.8724,46.3367],[22.8153,46.3278],[22.7735,46.3485],[22.7487,46.3512],[22.7425,46.3565],[22.7256,46.363],[22.7136,46.3625],[22.7,46.3659],[22.6983,46.3784],[22.6807,46.3877],[22.6759,46.3955],[22.6766,46.4058],[22.708,46.4287],[22.676,46.479],[22.6787,46.517],[22.7256,46.5414],[22.752,46.5551],[22.7607,46.5724],[22.812,46.5689],[22.8205,46.5551],[22.8788,46.5383],[22.9319,46.5533],[22.9887,46.5511],[23.0129,46.5079],[23.0477,46.4923],[23.0541,46.4726],[23.0636,46.4693],[23.0897,46.4711],[23.1102,46.4894],[23.1559,46.5052],[23.235,46.4925],[23.3205,46.5163],[23.3947,46.5369],[23.4472,46.5252],[23.4702,46.5045],[23.5114,46.4924],[23.5442,46.4995],[23.5998,46.487],[23.6069,46.4777],[23.5939,46.4463],[23.6034,46.4216],[23.6494,46.4014],[23.6736,46.4094],[23.6588,46.4255],[23.6789,46.447],[23.7107,46.4567],[23.8288,46.4658],[23.8706,46.4521],[23.9042,46.4616],[23.9853,46.4309]]]]}},{"type":"Feature","properties":{"name":"Mureş","nuts_id":"RO125","gruppe":"Mureș","bestand":873,"dichte":17.4,"signatur":1,"status":"modelliert"},"geometry":{"type":"MultiPolygon","coordinates":[[[[24.9465,46.0791],[24.9182,46.0801],[24.9129,46.0836],[24.8957,46.1061],[24.8681,46.1103],[24.8121,46.0941],[24.7782,46.0992],[24.7665,46.087],[24.715,46.079],[24.7043,46.0826],[24.6978,46.0848],[24.6744,46.1079],[24.6824,46.1955],[24.6742,46.2166],[24.6546,46.2313],[24.6687,46.2352],[24.6742,46.2469],[24.6638,46.2791],[24.6456,46.277],[24.6195,46.2534],[24.5733,46.2712],[24.5601,46.2597],[24.5008,46.2456],[24.4821,46.2591],[24.421,46.2632],[24.3758,46.2455],[24.3097,46.2535],[24.2866,46.2814],[24.2578,46.2528],[24.2313,46.2596],[24.1917,46.281],[24.1644,46.2744],[24.1455,46.3011],[24.1477,46.3214],[24.1386,46.3327],[24.0601,46.3415],[23.9963,46.3738],[23.9944,46.3827],[24.0318,46.4083],[24.0278,46.4568],[24.0015,46.4316],[23.9853,46.4309],[24,46.4419],[23.9684,46.4673],[23.9631,46.5169],[23.9894,46.5408],[24.0221,46.5328],[24.0401,46.5446],[24.0447,46.5551],[24.0655,46.6031],[24.0288,46.6162],[24.0234,46.627],[24.0397,46.6458],[24.1,46.6615],[24.1199,46.6981],[24.0844,46.7159],[24.07,46.7379],[24.0901,46.7507],[24.1204,46.7467],[24.1198,46.7716],[24.1719,46.7847],[24.1837,46.7934],[24.1796,46.8047],[24.2246,46.7795],[24.2975,46.7552],[24.3725,46.7476],[24.3981,46.7516],[24.4126,46.7712],[24.4538,46.7683],[24.4689,46.7825],[24.4536,46.7909],[24.4613,46.8206],[24.5275,46.8582],[24.5361,46.905],[24.5802,46.9158],[24.5973,46.9449],[24.6293,46.9475],[24.6585,46.9108],[24.7043,46.9042],[24.7111,46.9032],[24.7459,46.9086],[24.7487,46.9153],[24.7256,46.9356],[24.7373,46.951],[24.7445,46.9852],[24.7721,47.0072],[24.7905,47.0454],[24.8673,47.1028],[24.9129,47.1016],[24.9333,47.0986],[24.9558,47.1176],[25.0151,47.1125],[25.0634,47.1365],[25.0712,47.1339],[25.0783,47.1271],[25.0945,47.1207],[25.1086,47.1198],[25.1235,47.1226],[25.1301,47.1169],[25.1378,47.1163],[25.1444,47.1133],[25.164,47.129],[25.1734,47.1305],[25.1832,47.1269],[25.1993,47.1141],[25.2262,47.1079],[25.2343,47.0982],[25.2467,47.0979],[25.236,47.0872],[25.2309,47.0756],[25.2307,47.065],[25.2333,47.0589],[25.2475,47.0466],[25.2695,47.0306],[25.2697,47.0181],[25.2664,47.0103],[25.2775,46.999],[25.2881,46.9932],[25.2891,46.9848],[25.2645,46.915],[25.2731,46.8917],[25.2537,46.8452],[25.2838,46.8316],[25.2855,46.8012],[25.3147,46.7769],[25.3041,46.7613],[25.2629,46.7453],[25.263,46.7263],[25.2878,46.6982],[25.2829,46.6778],[25.2435,46.6682],[25.2261,46.6347],[25.1938,46.622],[25.1521,46.5829],[25.0999,46.5786],[25.024,46.5384],[24.9942,46.5006],[25.0156,46.4847],[25.0163,46.4696],[24.9531,46.442],[24.9397,46.4221],[24.941,46.41],[24.9637,46.398],[24.9711,46.3846],[24.9434,46.3784],[24.8959,46.3839],[24.8602,46.3476],[24.8716,46.3257],[24.8706,46.3043],[24.9256,46.2723],[24.9435,46.2494],[25.0783,46.2387],[25.1025,46.228],[25.1312,46.1897],[25.1733,46.1655],[25.1217,46.143],[25.0844,46.1485],[25.0466,46.1352],[25.0133,46.1429],[24.9586,46.1109],[24.9465,46.0791]]]]}},{"type":"Feature","properties":{"name":"Sibiu","nuts_id":"RO126","gruppe":"Sibiu","bestand":683,"dichte":14.2,"signatur":1,"status":"modelliert"},"geometry":{"type":"MultiPolygon","coordinates":[[[[24.9465,46.0791],[24.955,46.0593],[24.8868,46.0351],[24.8606,46.0118],[24.8288,46.0068],[24.8294,45.9798],[24.7754,45.9726],[24.7469,45.9406],[24.7071,45.9372],[24.7178,45.8983],[24.7641,45.8687],[24.7717,45.8504],[24.7639,45.8416],[24.7272,45.8367],[24.7124,45.8221],[24.6851,45.8293],[24.6452,45.7982],[24.6463,45.7652],[24.6775,45.7029],[24.6803,45.6695],[24.6714,45.6342],[24.6849,45.6041],[24.6696,45.5971],[24.6292,45.6028],[24.57,45.5815],[24.5231,45.5806],[24.4847,45.576],[24.4473,45.588],[24.3296,45.5777],[24.1684,45.5157],[24.0898,45.5125],[24.0205,45.5294],[23.924,45.5348],[23.8757,45.5252],[23.8505,45.5336],[23.7988,45.5297],[23.7673,45.5107],[23.7036,45.4968],[23.6619,45.5014],[23.6167,45.5623],[23.6225,45.5813],[23.6454,45.5979],[23.6406,45.6365],[23.6003,45.6716],[23.6037,45.6883],[23.5931,45.7035],[23.6197,45.7424],[23.6521,45.7584],[23.6265,45.7848],[23.6238,45.8014],[23.6853,45.8059],[23.7018,45.8243],[23.7277,45.8327],[23.765,45.8783],[23.7373,45.8966],[23.7401,45.9139],[23.8117,45.9264],[23.8443,45.9528],[23.8665,45.9545],[23.8553,46.0098],[23.8762,46.0322],[23.9384,46.0435],[23.9746,46.0345],[24.0041,46.0052],[24.0469,46.0871],[24.0712,46.0943],[24.1218,46.1339],[24.208,46.1562],[24.2105,46.1684],[24.1931,46.1887],[24.1947,46.2149],[24.2401,46.2386],[24.2313,46.2596],[24.2578,46.2528],[24.2866,46.2814],[24.3097,46.2535],[24.3758,46.2455],[24.421,46.2632],[24.4821,46.2591],[24.5008,46.2456],[24.5601,46.2597],[24.5733,46.2712],[24.6195,46.2534],[24.6456,46.277],[24.6638,46.2791],[24.6742,46.2469],[24.6687,46.2352],[24.6546,46.2313],[24.6742,46.2166],[24.6824,46.1955],[24.6744,46.1079],[24.6978,46.0848],[24.7043,46.0826],[24.715,46.079],[24.7665,46.087],[24.7782,46.0992],[24.8121,46.0941],[24.8681,46.1103],[24.8957,46.1061],[24.9129,46.0836],[24.9182,46.0801],[24.9465,46.0791]]]]}},{"type":"Feature","properties":{"name":"Bacău","nuts_id":"RO211","gruppe":"Bacău","bestand":411,"dichte":13.7,"signatur":1,"status":"modelliert"},"geometry":{"type":"MultiPolygon","coordinates":[[[[27.2062,46.7698],[27.2467,46.7324],[27.3207,46.6982],[27.3,46.678],[27.3119,46.6527],[27.2831,46.6235],[27.3249,46.5872],[27.3771,46.5232],[27.3892,46.49],[27.4621,46.3704],[27.4759,46.3303],[27.4628,46.3121],[27.4746,46.286],[27.4749,46.237],[27.5068,46.2076],[27.5033,46.1655],[27.4928,46.1592],[27.4613,46.1597],[27.4446,46.1833],[27.3979,46.1937],[27.3796,46.1867],[27.3747,46.1604],[27.354,46.1551],[27.3177,46.1851],[27.3127,46.2029],[27.2762,46.2018],[27.2662,46.199],[27.2604,46.1814],[27.2231,46.1896],[27.1708,46.178],[27.1283,46.148],[27.1341,46.1225],[27.1229,46.1075],[27.1059,46.1062],[27.1018,46.0917],[27.0696,46.0897],[26.9763,46.111],[26.9532,46.1036],[26.9487,46.0851],[26.9277,46.0669],[26.8679,46.0832],[26.808,46.0684],[26.7766,46.0912],[26.704,46.0919],[26.6481,46.0756],[26.6273,46.055],[26.5901,46.0407],[26.5726,46.0191],[26.5158,46.0287],[26.49,46.043],[26.44,46.0389],[26.4262,46.0798],[26.4042,46.1011],[26.3711,46.1129],[26.3856,46.1291],[26.3832,46.1432],[26.3458,46.1409],[26.3342,46.1822],[26.3391,46.2083],[26.3296,46.225],[26.3057,46.2396],[26.2634,46.2463],[26.2551,46.2734],[26.2751,46.293],[26.2859,46.3375],[26.2469,46.3393],[26.2094,46.313],[26.1633,46.3141],[26.1518,46.3281],[26.1651,46.3551],[26.1597,46.3856],[26.1279,46.397],[26.0642,46.4027],[26.0477,46.4146],[25.9972,46.4101],[25.9999,46.4246],[25.9916,46.4379],[26.0147,46.464],[26.0122,46.4852],[26.0431,46.4931],[26.0727,46.4884],[26.0801,46.5084],[26.0729,46.5232],[26.0413,46.5395],[26.0272,46.5791],[25.9962,46.6071],[25.9956,46.6204],[26.0152,46.638],[26.0023,46.6623],[25.977,46.6813],[25.9752,46.6973],[26.0613,46.711],[26.0722,46.7006],[26.0872,46.6571],[26.1003,46.6505],[26.1368,46.6561],[26.1656,46.6453],[26.2039,46.6537],[26.2256,46.6813],[26.2588,46.6973],[26.3028,46.6572],[26.3817,46.6515],[26.432,46.6835],[26.476,46.679],[26.5127,46.6908],[26.5711,46.6819],[26.6154,46.7147],[26.6682,46.7365],[26.687,46.7664],[26.7356,46.7647],[26.7611,46.7351],[26.7948,46.7235],[26.8326,46.7489],[26.8295,46.7727],[26.8453,46.7836],[26.8543,46.8037],[26.8912,46.8265],[26.9087,46.8195],[26.9131,46.7881],[26.9367,46.7794],[26.9581,46.7579],[27.0227,46.7695],[27.0624,46.7604],[27.0934,46.7664],[27.1576,46.7399],[27.2062,46.7698]]]]}},{"type":"Feature","properties":{"name":"Botoşani","nuts_id":"RO212","gruppe":null,"bestand":null,"dichte":null,"signatur":0,"status":"kein_bestand"},"geometry":{"type":"MultiPolygon","coordinates":[[[[26.6306,48.2597],[26.8133,48.2467],[26.907,48.1896],[26.9367,48.1891],[26.9465,48.1665],[26.9673,48.1537],[26.9694,48.1358],[27.0228,48.1277],[27.0397,48.0828],[27.095,48.0339],[27.0992,48.0147],[27.1527,47.989],[27.151,47.9656],[27.1692,47.9439],[27.1626,47.9267],[27.1594,47.9203],[27.1976,47.8979],[27.2119,47.8509],[27.24,47.8339],[27.2266,47.8222],[27.2367,47.7994],[27.284,47.7489],[27.2871,47.7287],[27.2585,47.7218],[27.2795,47.6878],[27.3244,47.6365],[27.3912,47.5894],[27.3387,47.5744],[27.264,47.5675],[27.2523,47.5559],[27.2517,47.5297],[27.2234,47.5178],[27.1774,47.5234],[27.135,47.5421],[27.1001,47.5435],[27.0764,47.5118],[27.0783,47.4693],[27.0537,47.4615],[27.0403,47.4449],[27.0043,47.4803],[26.9531,47.4955],[26.8833,47.4927],[26.7176,47.5129],[26.7026,47.5009],[26.7163,47.477],[26.7006,47.4717],[26.593,47.466],[26.5836,47.4908],[26.5622,47.5065],[26.5984,47.5284],[26.548,47.5823],[26.5373,47.6439],[26.5076,47.6576],[26.46,47.7201],[26.4316,47.741],[26.3989,47.7463],[26.4003,47.7786],[26.3713,47.7775],[26.338,47.798],[26.3029,47.8497],[26.2565,47.8847],[26.2286,47.896],[26.1916,47.8931],[26.1784,47.9175],[26.1539,47.9267],[26.1308,47.9353],[26.1167,47.9673],[26.0988,47.9788],[26.1911,47.9998],[26.2155,48.0516],[26.2717,48.0828],[26.2959,48.1288],[26.3288,48.1584],[26.3385,48.1842],[26.4265,48.1957],[26.4715,48.2167],[26.5409,48.2139],[26.5662,48.2222],[26.5842,48.2418],[26.615,48.2429],[26.6306,48.2597]]]]}},{"type":"Feature","properties":{"name":"Suceava","nuts_id":"RO215","gruppe":"Suceava","bestand":169,"dichte":2.5,"signatur":1,"status":"modelliert"},"geometry":{"type":"MultiPolygon","coordinates":[[[[25.7779,47.2355],[25.733,47.2176],[25.7185,47.1955],[25.7183,47.177],[25.6997,47.1671],[25.6935,47.1423],[25.6662,47.1186],[25.6616,47.0916],[25.627,47.0934],[25.6001,47.0792],[25.5405,47.0833],[25.5248,47.1132],[25.452,47.1505],[25.4184,47.1814],[25.3594,47.1777],[25.3051,47.163],[25.2906,47.1376],[25.2925,47.1141],[25.2467,47.0979],[25.2343,47.0982],[25.2262,47.1079],[25.1993,47.1141],[25.1832,47.1269],[25.1734,47.1305],[25.164,47.129],[25.1444,47.1133],[25.1378,47.1163],[25.1301,47.1169],[25.1235,47.1226],[25.1086,47.1198],[25.0945,47.1207],[25.0783,47.1271],[25.0712,47.1339],[25.0634,47.1365],[25.0636,47.1715],[25.0477,47.2183],[25.0606,47.2355],[25.0743,47.2538],[25.0353,47.2876],[25.0732,47.3158],[25.0626,47.3719],[24.9988,47.4181],[25.0205,47.431],[25.0518,47.4245],[25.0797,47.4422],[25.0513,47.4768],[25.0905,47.5123],[25.0485,47.5577],[24.9608,47.5969],[24.9588,47.6148],[24.9761,47.6145],[24.984,47.6198],[24.9915,47.621],[24.9942,47.6256],[25.0112,47.6332],[25.0251,47.6342],[25.0329,47.6376],[25.0514,47.6411],[25.0556,47.6483],[25.0518,47.6583],[25.043,47.66],[25.0373,47.664],[25.0224,47.6669],[25.0169,47.6741],[25.007,47.6773],[24.9767,47.6979],[24.9604,47.7051],[24.953,47.7062],[24.953,47.7124],[24.9476,47.7188],[24.9471,47.7291],[25.0367,47.7277],[25.0547,47.7417],[25.1101,47.7543],[25.1273,47.7756],[25.1673,47.7967],[25.1826,47.8255],[25.2193,47.8598],[25.2304,47.891],[25.2716,47.8944],[25.3118,47.9135],[25.4323,47.9267],[25.6305,47.9484],[25.7736,47.9401],[25.8333,47.9648],[25.8962,47.9627],[25.921,47.9767],[25.9557,47.972],[26.0586,47.987],[26.0988,47.9788],[26.1167,47.9673],[26.1308,47.9353],[26.1539,47.9267],[26.1784,47.9175],[26.1916,47.8931],[26.2286,47.896],[26.2565,47.8847],[26.3029,47.8497],[26.338,47.798],[26.3713,47.7775],[26.4003,47.7786],[26.3989,47.7463],[26.4316,47.741],[26.46,47.7201],[26.5076,47.6576],[26.5373,47.6439],[26.548,47.5823],[26.5984,47.5284],[26.5622,47.5065],[26.5836,47.4908],[26.593,47.466],[26.7006,47.4717],[26.6808,47.4489],[26.7003,47.407],[26.6817,47.4116],[26.6484,47.3978],[26.6733,47.3795],[26.6667,47.3595],[26.6108,47.3569],[26.5661,47.3882],[26.5371,47.3909],[26.5255,47.4022],[26.4975,47.3922],[26.506,47.3687],[26.5022,47.3454],[26.5704,47.3059],[26.5623,47.296],[26.5425,47.2969],[26.5078,47.2717],[26.4338,47.3276],[26.406,47.3386],[26.2893,47.2991],[26.2618,47.2817],[26.1859,47.305],[26.0589,47.2762],[26.0242,47.2873],[25.9793,47.2874],[25.9368,47.2768],[25.9181,47.2603],[25.8961,47.2655],[25.8736,47.2898],[25.8367,47.3094],[25.7762,47.3193],[25.7718,47.3136],[25.8057,47.2756],[25.8091,47.2588],[25.8035,47.2538],[25.7869,47.2391],[25.7779,47.2355]]]]}},{"type":"Feature","properties":{"name":"Tulcea","nuts_id":"RO225","gruppe":null,"bestand":null,"dichte":null,"signatur":0,"status":"kein_bestand"},"geometry":{"type":"MultiPolygon","coordinates":[[[[29.6796,45.2118],[29.6336,45.2068],[29.6488,45.1658],[29.7023,45.1611],[29.6699,45.1275],[29.6539,45.0956],[29.6227,44.8915],[29.6136,44.8594],[29.5948,44.8342],[29.2545,44.7979],[29.1788,44.7828],[29.0861,44.7493],[28.9941,44.6796],[28.9546,44.694],[28.9211,44.6957],[28.8173,44.6331],[28.7906,44.6378],[28.774,44.6541],[28.7356,44.6489],[28.7018,44.6536],[28.6749,44.6674],[28.5907,44.6558],[28.5384,44.6605],[28.5181,44.6356],[28.4753,44.6474],[28.4357,44.6706],[28.4307,44.6575],[28.4448,44.6396],[28.4246,44.6173],[28.3857,44.6461],[28.376,44.6832],[28.3201,44.6957],[28.322,44.7067],[28.3142,44.71],[28.2728,44.7003],[28.2576,44.7546],[28.2314,44.7637],[28.191,44.7568],[28.1781,44.7861],[28.1515,44.7995],[28.1098,44.7949],[28.0741,44.8039],[28.1031,44.8634],[28.1386,44.8894],[28.1261,44.9232],[28.1479,44.9712],[28.1304,45.014],[28.1494,45.0386],[28.1364,45.0969],[28.1718,45.1036],[28.174,45.1232],[28.1935,45.1379],[28.0964,45.1897],[28.1264,45.2325],[28.1157,45.2539],[28.0528,45.2563],[27.9975,45.2865],[28.0245,45.359],[28.0305,45.4043],[28.0678,45.431],[28.1001,45.4406],[28.1871,45.4152],[28.1947,45.4567],[28.2114,45.4673],[28.2601,45.4554],[28.2794,45.4433],[28.2851,45.4312],[28.2869,45.3972],[28.3339,45.3329],[28.3475,45.3214],[28.4367,45.2914],[28.4813,45.2803],[28.561,45.2496],[28.634,45.2445],[28.6974,45.2261],[28.7145,45.2246],[28.7468,45.2334],[28.7803,45.237],[28.7909,45.2423],[28.793,45.2479],[28.7901,45.2556],[28.7649,45.2642],[28.7516,45.2828],[28.7583,45.2897],[28.7914,45.2938],[28.8014,45.3026],[28.8032,45.3122],[28.7804,45.324],[28.7836,45.3294],[28.7946,45.3343],[28.8174,45.335],[28.8432,45.3187],[28.8743,45.3155],[28.9141,45.2875],[28.9317,45.2814],[28.943,45.2817],[28.9539,45.2887],[28.9507,45.3119],[28.9661,45.3302],[28.992,45.3349],[29.0403,45.3587],[29.0621,45.3625],[29.0846,45.3735],[29.1073,45.3758],[29.1675,45.3945],[29.1782,45.4001],[29.1896,45.4127],[29.2152,45.4193],[29.2416,45.4337],[29.2499,45.4352],[29.2805,45.4276],[29.2904,45.4282],[29.303,45.4332],[29.3175,45.4447],[29.3291,45.4477],[29.3553,45.437],[29.3951,45.4366],[29.4283,45.4415],[29.4427,45.4328],[29.4742,45.423],[29.5543,45.4061],[29.5969,45.3837],[29.6528,45.3375],[29.6688,45.308],[29.6771,45.2739],[29.6755,45.2674],[29.6638,45.2587],[29.6606,45.2466],[29.6702,45.2227],[29.6796,45.2118]]],[[[29.5152,44.7777],[29.5238,44.7877],[29.5394,44.7892],[29.5396,44.7839],[29.519,44.775],[29.5152,44.7777]]],[[[29.4821,44.7745],[29.4861,44.7791],[29.51,44.7776],[29.5081,44.7714],[29.4883,44.7707],[29.4821,44.7745]]]]}},{"type":"Feature","properties":{"name":"Vrancea","nuts_id":"RO226","gruppe":"Vrancea","bestand":363,"dichte":17.5,"signatur":1,"status":"modelliert"},"geometry":{"type":"MultiPolygon","coordinates":[[[[27.4347,45.3947],[27.406,45.3804],[27.3469,45.3721],[27.3316,45.3837],[27.277,45.3902],[27.2669,45.4154],[27.279,45.4338],[27.2733,45.4513],[27.2303,45.4293],[27.1973,45.4516],[27.1695,45.4259],[27.121,45.4101],[27.1085,45.4267],[27.111,45.439],[27.1459,45.4551],[27.1494,45.4682],[27.1083,45.4718],[27.0871,45.4474],[27.0487,45.453],[27.0034,45.4864],[26.9699,45.5319],[26.9487,45.5246],[26.9153,45.5339],[26.8881,45.5185],[26.8333,45.5199],[26.7993,45.5488],[26.746,45.5519],[26.7401,45.5667],[26.718,45.5748],[26.6788,45.608],[26.6474,45.611],[26.6158,45.6262],[26.5943,45.6224],[26.5514,45.6321],[26.4968,45.6749],[26.4634,45.7195],[26.4401,45.7368],[26.4381,45.7776],[26.3921,45.8024],[26.3762,45.8226],[26.3736,45.8488],[26.3859,45.8769],[26.377,45.9049],[26.3915,45.9237],[26.3927,45.9582],[26.4342,45.9894],[26.44,46.0389],[26.49,46.043],[26.5158,46.0287],[26.5726,46.0191],[26.5901,46.0407],[26.6273,46.055],[26.6481,46.0756],[26.704,46.0919],[26.7766,46.0912],[26.808,46.0684],[26.8679,46.0832],[26.9277,46.0669],[26.9487,46.0851],[26.9532,46.1036],[26.9763,46.111],[27.0696,46.0897],[27.1018,46.0917],[27.1059,46.1062],[27.1229,46.1075],[27.1341,46.1225],[27.1283,46.148],[27.1708,46.178],[27.2231,46.1896],[27.2604,46.1814],[27.2662,46.199],[27.2762,46.2018],[27.3127,46.2029],[27.3177,46.1851],[27.354,46.1551],[27.3747,46.1604],[27.3796,46.1867],[27.3979,46.1937],[27.4446,46.1833],[27.4613,46.1597],[27.4928,46.1592],[27.4885,46.1466],[27.5031,46.1396],[27.4708,46.1276],[27.427,46.1335],[27.4246,46.0975],[27.4157,46.089],[27.2938,46.0802],[27.2715,46.0496],[27.2392,46.0408],[27.2302,46.0074],[27.2419,45.9514],[27.2764,45.8916],[27.2631,45.8749],[27.2983,45.8485],[27.3654,45.7274],[27.3971,45.6909],[27.4257,45.6736],[27.442,45.6749],[27.4625,45.645],[27.5068,45.6204],[27.5287,45.5842],[27.5109,45.5663],[27.5244,45.5453],[27.5348,45.5009],[27.5585,45.4884],[27.4386,45.4128],[27.4347,45.3947]]]]}},{"type":"Feature","properties":{"name":"Argeş","nuts_id":"RO311","gruppe":"Argeș","bestand":771,"dichte":15.7,"signatur":1,"status":"modelliert"},"geometry":{"type":"MultiPolygon","coordinates":[[[[24.5231,45.5806],[24.57,45.5815],[24.6292,45.6028],[24.6696,45.5971],[24.6849,45.6041],[24.7043,45.6048],[24.8136,45.6087],[24.8416,45.5934],[24.9129,45.5936],[24.9383,45.5837],[24.9608,45.591],[25.0348,45.591],[25.1079,45.582],[25.1889,45.5244],[25.2283,45.5158],[25.2394,45.5001],[25.2412,45.4749],[25.2707,45.4437],[25.2591,45.4231],[25.272,45.4106],[25.3008,45.4174],[25.3216,45.3811],[25.3243,45.3513],[25.3134,45.3358],[25.3131,45.3178],[25.2824,45.267],[25.2909,45.2277],[25.2508,45.2095],[25.251,45.1828],[25.2093,45.1616],[25.1646,45.2114],[25.1474,45.21],[25.1495,45.1322],[25.1779,45.0932],[25.166,45.0803],[25.1439,45.0832],[25.1281,45.0697],[25.1492,45.0403],[25.1869,45.0302],[25.1959,45.0165],[25.1962,44.9946],[25.1714,44.9769],[25.1644,44.9252],[25.1947,44.9026],[25.2007,44.8555],[25.1899,44.8281],[25.2113,44.7749],[25.1966,44.7414],[25.1846,44.7406],[25.1797,44.7311],[25.1833,44.7151],[25.2337,44.6947],[25.1719,44.6591],[25.1994,44.6341],[25.1987,44.6124],[25.2184,44.6102],[25.2496,44.5668],[25.2897,44.5504],[25.2612,44.5117],[25.2772,44.4807],[25.2747,44.4433],[25.2347,44.4243],[25.1997,44.4543],[25.0697,44.4005],[25.013,44.4081],[24.9718,44.3821],[24.9129,44.3813],[24.884,44.3826],[24.8737,44.3931],[24.7489,44.3958],[24.7559,44.4608],[24.735,44.4695],[24.7291,44.5011],[24.74,44.5404],[24.7109,44.5873],[24.7138,44.627],[24.7043,44.656],[24.6903,44.6987],[24.7043,44.7064],[24.7172,44.7135],[24.715,44.721],[24.7043,44.7258],[24.679,44.7372],[24.6321,44.7323],[24.5935,44.7572],[24.5859,44.7946],[24.5572,44.8318],[24.5361,44.8897],[24.5213,44.8889],[24.5064,44.8472],[24.4742,44.8205],[24.4496,44.8129],[24.4294,44.8216],[24.4259,44.8296],[24.4381,44.8454],[24.4608,44.8624],[24.4765,44.8945],[24.4663,44.9158],[24.4953,44.945],[24.4761,44.9524],[24.4771,44.9657],[24.5021,44.9975],[24.4894,45.0161],[24.5182,45.046],[24.4844,45.0637],[24.5035,45.0853],[24.4919,45.1072],[24.5155,45.1188],[24.5173,45.1374],[24.5003,45.162],[24.5184,45.182],[24.4933,45.1937],[24.4968,45.2045],[24.4761,45.2127],[24.469,45.2289],[24.4903,45.2813],[24.4836,45.2981],[24.4899,45.3224],[24.4735,45.3342],[24.4719,45.3504],[24.4791,45.3595],[24.5036,45.3561],[24.5018,45.3863],[24.4844,45.4165],[24.4812,45.4481],[24.4866,45.4601],[24.513,45.4668],[24.5243,45.4791],[24.5257,45.4962],[24.5148,45.5176],[24.5376,45.5391],[24.5231,45.5806]]]]}},{"type":"Feature","properties":{"name":"Prahova","nuts_id":"RO316","gruppe":"Prahova","bestand":493,"dichte":15.2,"signatur":1,"status":"modelliert"},"geometry":{"type":"MultiPolygon","coordinates":[[[[26.0727,45.5058],[26.1428,45.4578],[26.161,45.3687],[26.227,45.318],[26.2258,45.3066],[26.1978,45.2804],[26.2238,45.2668],[26.2515,45.2061],[26.3469,45.2123],[26.3544,45.1715],[26.3693,45.1623],[26.4586,45.1904],[26.4661,45.1479],[26.4527,45.1245],[26.4503,45.0756],[26.4698,45.0571],[26.4944,45.0082],[26.53,45.0097],[26.5913,44.9622],[26.5403,44.9402],[26.5347,44.9256],[26.5401,44.9143],[26.5982,44.8797],[26.6056,44.857],[26.5338,44.8294],[26.4977,44.7933],[26.4528,44.8086],[26.3868,44.7649],[26.3741,44.7642],[26.3375,44.7878],[26.3018,44.7689],[26.2779,44.7673],[26.2481,44.7403],[26.1852,44.755],[26.1253,44.7518],[26.1005,44.7642],[26.0918,44.7422],[26.0717,44.7486],[26.0538,44.7396],[25.982,44.742],[25.9703,44.7339],[25.9707,44.7104],[25.951,44.7136],[25.9342,44.7016],[25.9231,44.7095],[25.9146,44.7312],[25.9344,44.758],[25.8743,44.8249],[25.8345,44.8133],[25.7797,44.8307],[25.8203,44.8993],[25.8163,44.9156],[25.7961,44.9357],[25.7102,44.943],[25.6873,44.9547],[25.678,45.0047],[25.697,45.0471],[25.674,45.0786],[25.6405,45.0949],[25.6101,45.1226],[25.5621,45.1841],[25.5356,45.1957],[25.5188,45.2273],[25.5481,45.2765],[25.5262,45.3037],[25.478,45.3287],[25.4717,45.3505],[25.4795,45.3973],[25.4525,45.4413],[25.5088,45.4684],[25.5328,45.4606],[25.5967,45.4632],[25.6323,45.4934],[25.6783,45.4988],[25.7298,45.4669],[25.7915,45.4762],[25.8119,45.4629],[25.8275,45.4323],[25.8637,45.425],[25.8882,45.4485],[25.8948,45.4894],[25.9211,45.5182],[25.996,45.5116],[26.017,45.4903],[26.043,45.48],[26.062,45.4863],[26.0727,45.5058]]]]}},{"type":"Feature","properties":{"name":"Teleorman","nuts_id":"RO317","gruppe":null,"bestand":null,"dichte":null,"signatur":0,"status":"kein_bestand"},"geometry":{"type":"MultiPolygon","coordinates":[[[[25.6722,43.6881],[25.5445,43.6428],[25.4897,43.6469],[25.413,43.6221],[25.3845,43.6207],[25.2964,43.6554],[25.2689,43.6721],[25.1824,43.6992],[25.1315,43.6855],[25.0815,43.6883],[24.9905,43.7274],[24.9129,43.7133],[24.8186,43.7107],[24.7346,43.6885],[24.7043,43.6953],[24.6963,43.6971],[24.6548,43.7236],[24.6616,43.739],[24.655,43.751],[24.6821,43.7596],[24.699,43.782],[24.7043,43.7833],[24.7424,43.7922],[24.7443,43.8171],[24.7213,43.8275],[24.7043,43.8504],[24.6915,43.8678],[24.6675,43.8718],[24.6741,43.8955],[24.6311,43.9287],[24.6366,43.9414],[24.63,43.9588],[24.6052,43.9644],[24.6083,43.9963],[24.6227,44.0171],[24.7043,44.0357],[24.7163,44.0384],[24.718,44.0596],[24.7331,44.0633],[24.8541,44.0927],[24.8445,44.1296],[24.8099,44.1565],[24.7962,44.1911],[24.832,44.2249],[24.8232,44.2381],[24.8233,44.2904],[24.8411,44.3164],[24.821,44.3597],[24.8776,44.3697],[24.884,44.3826],[24.9129,44.3813],[24.9718,44.3821],[25.013,44.4081],[25.0697,44.4005],[25.1997,44.4543],[25.2347,44.4243],[25.2534,44.4072],[25.2948,44.4215],[25.3395,44.4604],[25.3588,44.465],[25.3677,44.4942],[25.3964,44.5161],[25.4409,44.4999],[25.4462,44.4913],[25.4338,44.4731],[25.4805,44.452],[25.4319,44.4005],[25.4753,44.3704],[25.4752,44.3273],[25.5726,44.3105],[25.6162,44.3144],[25.6283,44.2867],[25.6455,44.2806],[25.6631,44.2909],[25.6726,44.2702],[25.698,44.2482],[25.6705,44.2137],[25.6596,44.1766],[25.6858,44.1621],[25.6806,44.1358],[25.7062,44.129],[25.7059,44.1123],[25.6856,44.1145],[25.6719,44.0969],[25.6518,44.1084],[25.6268,44.0842],[25.6237,44.0633],[25.622,44.0524],[25.6002,44.0311],[25.5958,43.994],[25.6158,43.9439],[25.5911,43.9348],[25.5859,43.9231],[25.5895,43.909],[25.612,43.8959],[25.6112,43.8484],[25.6264,43.8404],[25.6351,43.823],[25.6593,43.8111],[25.664,43.7743],[25.6563,43.7479],[25.678,43.7138],[25.6722,43.6881]]],[[[24.6884,43.8272],[24.6957,43.8357],[24.7071,43.8311],[24.7072,43.8238],[24.6922,43.8214],[24.6884,43.8272]]]]}},{"type":"Feature","properties":{"name":"Bucureşti","nuts_id":"RO321","gruppe":null,"bestand":null,"dichte":null,"signatur":0,"status":"kein_bestand"},"geometry":{"type":"MultiPolygon","coordinates":[[[[25.9648,44.4183],[25.9682,44.4407],[26.011,44.443],[26.0202,44.4474],[26.0138,44.4572],[25.978,44.4666],[25.9872,44.4917],[25.9838,44.4976],[26.0065,44.5004],[26.0092,44.5143],[26.022,44.5192],[26.0293,44.5277],[26.0356,44.5245],[26.0794,44.5376],[26.1045,44.5396],[26.1056,44.5184],[26.1033,44.5078],[26.1148,44.4874],[26.1751,44.4803],[26.1773,44.4767],[26.157,44.4558],[26.1764,44.4532],[26.1765,44.4449],[26.1961,44.4456],[26.2095,44.4338],[26.2256,44.4324],[26.2174,44.4077],[26.2088,44.4041],[26.2121,44.3956],[26.1825,44.3939],[26.1619,44.3983],[26.1436,44.3695],[26.1602,44.3471],[26.1655,44.3452],[26.1537,44.3348],[26.1292,44.3474],[26.1294,44.3511],[26.112,44.3608],[26.0954,44.3619],[26.0861,44.3693],[26.0577,44.3784],[26.0444,44.3764],[26.0115,44.4048],[25.9977,44.4034],[25.9954,44.4093],[25.9759,44.4064],[25.9648,44.4183]]]]}},{"type":"Feature","properties":{"name":"Ilfov","nuts_id":"RO322","gruppe":null,"bestand":null,"dichte":null,"signatur":0,"status":"kein_bestand"},"geometry":{"type":"MultiPolygon","coordinates":[[[[26.4161,44.5217],[26.3693,44.4837],[26.3976,44.4613],[26.4374,44.4579],[26.4454,44.446],[26.4094,44.437],[26.3925,44.4206],[26.3616,44.4143],[26.3274,44.3925],[26.3009,44.4108],[26.2856,44.4102],[26.3196,44.3685],[26.2611,44.3335],[26.2689,44.3154],[26.26,44.295],[26.203,44.266],[26.188,44.2444],[26.1429,44.2365],[26.0557,44.2708],[26.0039,44.2998],[25.9794,44.3231],[25.9565,44.3176],[25.9381,44.3326],[25.9109,44.3338],[25.891,44.3454],[25.8545,44.3852],[25.8296,44.3952],[25.8543,44.414],[25.8605,44.4429],[25.8514,44.4764],[25.8624,44.4787],[25.8732,44.4636],[25.8959,44.4551],[25.9095,44.4692],[25.8988,44.4869],[25.9173,44.5167],[25.8907,44.541],[25.8859,44.5545],[25.9332,44.5741],[25.9895,44.6131],[25.983,44.6266],[25.9421,44.647],[25.9772,44.6697],[25.9695,44.6819],[25.9866,44.6966],[25.9707,44.7104],[25.9703,44.7339],[25.982,44.742],[26.0538,44.7396],[26.0717,44.7486],[26.0918,44.7422],[26.1005,44.7642],[26.1253,44.7518],[26.1852,44.755],[26.2481,44.7403],[26.2779,44.7673],[26.3018,44.7689],[26.3706,44.7204],[26.3636,44.6933],[26.3348,44.6786],[26.3761,44.6247],[26.399,44.6151],[26.3467,44.5478],[26.3666,44.5302],[26.3939,44.5362],[26.4161,44.5217]],[[25.9648,44.4183],[25.9759,44.4064],[25.9954,44.4093],[25.9977,44.4034],[26.0115,44.4048],[26.0444,44.3764],[26.0577,44.3784],[26.0861,44.3693],[26.0954,44.3619],[26.112,44.3608],[26.1294,44.3511],[26.1292,44.3474],[26.1537,44.3348],[26.1655,44.3452],[26.1602,44.3471],[26.1436,44.3695],[26.1619,44.3983],[26.1825,44.3939],[26.2121,44.3956],[26.2088,44.4041],[26.2174,44.4077],[26.2256,44.4324],[26.2095,44.4338],[26.1961,44.4456],[26.1765,44.4449],[26.1764,44.4532],[26.157,44.4558],[26.1773,44.4767],[26.1751,44.4803],[26.1148,44.4874],[26.1033,44.5078],[26.1056,44.5184],[26.1045,44.5396],[26.0794,44.5376],[26.0356,44.5245],[26.0293,44.5277],[26.022,44.5192],[26.0092,44.5143],[26.0065,44.5004],[25.9838,44.4976],[25.9872,44.4917],[25.978,44.4666],[26.0138,44.4572],[26.0202,44.4474],[26.011,44.443],[25.9682,44.4407],[25.9648,44.4183]]]]}},{"type":"Feature","properties":{"name":"Dolj","nuts_id":"RO411","gruppe":null,"bestand":null,"dichte":null,"signatur":0,"status":"kein_bestand"},"geometry":{"type":"MultiPolygon","coordinates":[[[[22.9664,44.0983],[23.0134,44.1537],[23.1084,44.16],[23.113,44.1816],[23.1019,44.2049],[23.0978,44.2593],[23.1265,44.3065],[23.1713,44.3271],[23.1917,44.3622],[23.2103,44.3771],[23.2083,44.3884],[23.1808,44.414],[23.2051,44.4316],[23.2085,44.4658],[23.2737,44.5061],[23.2719,44.529],[23.3053,44.5367],[23.3205,44.5337],[23.3398,44.5299],[23.3735,44.5402],[23.4169,44.5331],[23.4434,44.5503],[23.455,44.5696],[23.4998,44.5813],[23.5207,44.6017],[23.5855,44.6134],[23.593,44.6086],[23.6199,44.5909],[23.6912,44.6004],[23.7088,44.5889],[23.7183,44.6287],[23.7113,44.6608],[23.7239,44.6866],[23.7179,44.7216],[23.7254,44.7269],[23.7805,44.714],[23.7901,44.6404],[23.8161,44.6447],[23.8591,44.6271],[23.8881,44.6269],[23.887,44.5975],[23.8972,44.5793],[23.918,44.5671],[23.9282,44.5302],[23.8978,44.511],[23.8907,44.4821],[23.8994,44.4696],[23.8907,44.4559],[23.8891,44.421],[23.9565,44.4126],[23.9643,44.3863],[23.9828,44.3773],[24.0275,44.3788],[24.0526,44.3418],[24.1067,44.2946],[24.1172,44.2699],[24.1591,44.2456],[24.2219,44.2255],[24.2241,44.0829],[24.2155,44.0713],[24.1804,44.0633],[24.1764,44.0105],[24.2566,43.9988],[24.2612,43.9909],[24.2508,43.9615],[24.2334,43.9581],[24.2269,43.9475],[24.2452,43.9278],[24.2257,43.8569],[24.1989,43.854],[24.1912,43.813],[24.1855,43.8121],[24.153,43.807],[24.1279,43.7667],[24.112,43.6999],[24.0812,43.7049],[23.9861,43.7463],[23.858,43.7556],[23.7777,43.7806],[23.7381,43.8036],[23.6988,43.8059],[23.6304,43.791],[23.593,43.7968],[23.5578,43.8023],[23.5443,43.8121],[23.512,43.8358],[23.4265,43.8527],[23.3205,43.8475],[23.2635,43.8447],[23.1554,43.8121],[23.1235,43.8025],[23.0537,43.7969],[22.9972,43.8079],[22.9785,43.8121],[22.8766,43.8354],[22.8525,43.8502],[22.8422,43.8743],[22.849,43.9071],[22.8887,43.987],[23.0084,44.0127],[23.0428,44.0529],[23.0443,44.0633],[23.0453,44.0708],[23.0313,44.0834],[22.9664,44.0983]]]]}},{"type":"Feature","properties":{"name":"Gorj","nuts_id":"RO412","gruppe":"Caraș-Severin + Gorj + Timiș","bestand":253,"dichte":4.3,"signatur":0,"status":"modelliert"},"geometry":{"type":"MultiPolygon","coordinates":[[[[23.7805,44.714],[23.7254,44.7269],[23.7179,44.7216],[23.7239,44.6866],[23.7113,44.6608],[23.7183,44.6287],[23.7088,44.5889],[23.6912,44.6004],[23.6199,44.5909],[23.593,44.6086],[23.5855,44.6134],[23.5207,44.6017],[23.4998,44.5813],[23.455,44.5696],[23.4118,44.5905],[23.4054,44.6112],[23.3895,44.625],[23.3318,44.6435],[23.2947,44.6709],[23.2021,44.6786],[23.182,44.6919],[23.111,44.6893],[23.0741,44.7073],[23.0569,44.7263],[23.0121,44.7435],[22.9803,44.7854],[22.9441,44.7867],[22.9375,44.8113],[22.9087,44.8272],[22.8942,44.8512],[22.8925,44.8903],[22.8731,44.9512],[22.8924,44.9698],[22.8934,44.9886],[22.8539,44.9945],[22.81,45.0362],[22.7256,45.0743],[22.7064,45.0703],[22.6865,45.1009],[22.6566,45.1082],[22.6477,45.126],[22.5835,45.1379],[22.5616,45.1613],[22.5958,45.2003],[22.6383,45.216],[22.6862,45.258],[22.7256,45.2546],[22.8278,45.2816],[22.8686,45.2657],[22.9298,45.2771],[22.9798,45.2571],[23.0154,45.2558],[23.0606,45.2668],[23.0972,45.2882],[23.2024,45.2805],[23.2469,45.3049],[23.3091,45.3032],[23.3417,45.3292],[23.3767,45.3354],[23.3971,45.3316],[23.414,45.3112],[23.4513,45.3008],[23.5906,45.3531],[23.6177,45.3388],[23.6491,45.3462],[23.6975,45.3298],[23.7965,45.3494],[23.8404,45.323],[23.8009,45.2551],[23.8513,45.1541],[23.818,45.1257],[23.8245,45.0787],[23.7886,45.0618],[23.791,45.0258],[23.7591,44.9957],[23.7699,44.9475],[23.76,44.8769],[23.7809,44.8525],[23.7915,44.8205],[23.773,44.7798],[23.7805,44.714]],[[22.9263,45.2426],[22.9448,45.2391],[22.9521,45.2593],[22.9437,45.2662],[22.9263,45.2426]]]]}},{"type":"Feature","properties":{"name":"Mehedinţi","nuts_id":"RO413","gruppe":null,"bestand":null,"dichte":null,"signatur":0,"status":"ohne_genotypen"},"geometry":{"type":"MultiPolygon","coordinates":[[[[23.455,44.5696],[23.4434,44.5503],[23.4169,44.5331],[23.3735,44.5402],[23.3398,44.5299],[23.3205,44.5337],[23.3053,44.5367],[23.2719,44.529],[23.2737,44.5061],[23.2085,44.4658],[23.2051,44.4316],[23.1808,44.414],[23.2083,44.3884],[23.2103,44.3771],[23.1917,44.3622],[23.1713,44.3271],[23.1265,44.3065],[23.0978,44.2593],[23.1019,44.2049],[23.113,44.1816],[23.1084,44.16],[23.0134,44.1537],[22.9664,44.0983],[22.9184,44.1021],[22.8684,44.1334],[22.7949,44.1622],[22.7574,44.1893],[22.7256,44.1995],[22.6752,44.2157],[22.6846,44.253],[22.6795,44.2762],[22.6553,44.29],[22.5584,44.3107],[22.5235,44.3434],[22.5035,44.3834],[22.4984,44.4176],[22.4714,44.4395],[22.4595,44.4683],[22.474,44.4792],[22.5197,44.4731],[22.5481,44.4826],[22.5633,44.5274],[22.5658,44.5345],[22.594,44.551],[22.6309,44.548],[22.6754,44.5274],[22.6954,44.5181],[22.7245,44.5274],[22.7256,44.5274],[22.7256,44.5278],[22.7578,44.538],[22.7556,44.5617],[22.7256,44.5867],[22.7103,44.5995],[22.6683,44.6173],[22.6138,44.6183],[22.5714,44.6374],[22.4804,44.709],[22.4335,44.7097],[22.3865,44.6786],[22.3341,44.6742],[22.3119,44.6602],[22.275,44.6233],[22.211,44.5274],[22.1826,44.4848],[22.1454,44.4712],[22.091,44.4963],[22.0687,44.5235],[22.0627,44.5274],[22.0375,44.5438],[22.0161,44.5992],[22.083,44.6201],[22.1148,44.5949],[22.1502,44.5913],[22.1759,44.6323],[22.1711,44.6458],[22.1414,44.6624],[22.155,44.7229],[22.1633,44.7396],[22.1839,44.7435],[22.2001,44.7591],[22.1974,44.7807],[22.2097,44.8152],[22.2408,44.8069],[22.2687,44.7837],[22.3367,44.775],[22.3579,44.7433],[22.381,44.7588],[22.415,44.7579],[22.4273,44.7802],[22.4268,44.801],[22.4861,44.8853],[22.4938,44.9247],[22.4896,44.9474],[22.5134,44.9582],[22.4963,44.976],[22.6566,45.1082],[22.6865,45.1009],[22.7064,45.0703],[22.7256,45.0743],[22.81,45.0362],[22.8539,44.9945],[22.8934,44.9886],[22.8924,44.9698],[22.8731,44.9512],[22.8925,44.8903],[22.8942,44.8512],[22.9087,44.8272],[22.9375,44.8113],[22.9441,44.7867],[22.9803,44.7854],[23.0121,44.7435],[23.0569,44.7263],[23.0741,44.7073],[23.111,44.6893],[23.182,44.6919],[23.2021,44.6786],[23.2947,44.6709],[23.3318,44.6435],[23.3895,44.625],[23.4054,44.6112],[23.4118,44.5905],[23.455,44.5696]]]]}},{"type":"Feature","properties":{"name":"Vaslui","nuts_id":"RO216","gruppe":null,"bestand":null,"dichte":null,"signatur":0,"status":"kein_bestand"},"geometry":{"type":"MultiPolygon","coordinates":[[[[28.1158,46.1078],[28.0812,46.1172],[28.0152,46.105],[27.9857,46.1137],[27.963,46.1391],[27.9419,46.1375],[27.9106,46.1515],[27.8783,46.1463],[27.8602,46.1616],[27.8483,46.1547],[27.8341,46.1162],[27.8164,46.1147],[27.8005,46.1003],[27.7569,46.1271],[27.6993,46.1349],[27.6067,46.134],[27.5974,46.1461],[27.5862,46.1446],[27.6063,46.073],[27.6236,46.062],[27.6015,46.0525],[27.598,46.0159],[27.5656,46.0047],[27.545,46.0171],[27.5196,46.0525],[27.5289,46.0676],[27.5203,46.0848],[27.5321,46.0987],[27.5031,46.1396],[27.4885,46.1466],[27.4928,46.1592],[27.5033,46.1655],[27.5068,46.2076],[27.4749,46.237],[27.4746,46.286],[27.4628,46.3121],[27.4759,46.3303],[27.4621,46.3704],[27.3892,46.49],[27.3771,46.5232],[27.3249,46.5872],[27.2831,46.6235],[27.3119,46.6527],[27.3,46.678],[27.3207,46.6982],[27.2467,46.7324],[27.2062,46.7698],[27.2309,46.7766],[27.2136,46.7967],[27.2237,46.8244],[27.2123,46.8388],[27.2146,46.8487],[27.1925,46.8714],[27.2024,46.8824],[27.2309,46.8714],[27.3159,46.8661],[27.3899,46.8903],[27.4263,46.8668],[27.4563,46.8671],[27.5222,46.8804],[27.5238,46.9067],[27.5357,46.9122],[27.5687,46.8865],[27.5963,46.8833],[27.6375,46.8994],[27.6096,46.958],[27.6151,46.9796],[27.6271,46.9861],[27.6654,46.9689],[27.7716,46.882],[27.7855,46.8909],[27.7748,46.9417],[27.8051,46.9314],[27.8113,46.8922],[27.8045,46.8613],[27.8624,46.8583],[27.8765,46.8341],[27.9015,46.815],[27.9365,46.8252],[27.9334,46.8619],[27.9713,46.8564],[28.0112,46.8368],[28.0703,46.8486],[28.1138,46.8384],[28.1306,46.8078],[28.1707,46.7823],[28.179,46.7416],[28.2053,46.7153],[28.2096,46.6982],[28.2121,46.6884],[28.2361,46.6727],[28.2495,46.6136],[28.2255,46.5747],[28.2312,46.5544],[28.2193,46.5388],[28.2269,46.5285],[28.2127,46.504],[28.2267,46.4956],[28.2296,46.4801],[28.2458,46.4726],[28.2444,46.4511],[28.2586,46.4348],[28.2527,46.4209],[28.2337,46.4118],[28.2378,46.3938],[28.2228,46.3889],[28.1917,46.3514],[28.1956,46.3397],[28.1886,46.3305],[28.2028,46.3206],[28.2013,46.3113],[28.1803,46.2908],[28.1397,46.2809],[28.1332,46.2622],[28.1395,46.2538],[28.1098,46.2368],[28.1213,46.1967],[28.1393,46.1875],[28.1386,46.1635],[28.1256,46.1472],[28.1299,46.129],[28.1158,46.1078]]]]}},{"type":"Feature","properties":{"name":"Brăila","nuts_id":"RO221","gruppe":null,"bestand":null,"dichte":null,"signatur":0,"status":"kein_bestand"},"geometry":{"type":"MultiPolygon","coordinates":[[[[28.0305,45.4043],[28.0245,45.359],[27.9975,45.2865],[28.0528,45.2563],[28.1157,45.2539],[28.1264,45.2325],[28.0964,45.1897],[28.1935,45.1379],[28.174,45.1232],[28.1718,45.1036],[28.1364,45.0969],[28.1494,45.0386],[28.1304,45.014],[28.1479,44.9712],[28.1261,44.9232],[28.1386,44.8894],[28.1031,44.8634],[28.0741,44.8039],[28.0623,44.7833],[28.0332,44.7627],[28.0011,44.7595],[27.948,44.7792],[27.881,44.7631],[27.8706,44.7734],[27.8282,44.7831],[27.8236,44.8164],[27.8164,44.8195],[27.7332,44.8025],[27.7291,44.7954],[27.7413,44.7821],[27.7138,44.7679],[27.5275,44.7866],[27.5202,44.775],[27.4765,44.7776],[27.4379,44.7965],[27.4094,44.776],[27.3807,44.7774],[27.3425,44.8002],[27.311,44.7775],[27.287,44.7824],[27.2556,44.7523],[27.2035,44.7871],[27.1956,44.808],[27.2149,44.8168],[27.2283,44.8548],[27.2171,44.8678],[27.2381,44.8778],[27.2761,44.99],[27.2522,44.9979],[27.2462,45.0249],[27.1999,45.0316],[27.2035,45.0876],[27.1799,45.093],[27.1481,45.1682],[27.1155,45.1566],[27.1106,45.1385],[27.0993,45.1334],[27.0699,45.1615],[27.1238,45.2143],[27.1727,45.2466],[27.2318,45.2141],[27.2478,45.2167],[27.2798,45.2033],[27.3384,45.2154],[27.3479,45.2294],[27.3323,45.2396],[27.3355,45.2521],[27.3233,45.2623],[27.3168,45.2899],[27.3637,45.2757],[27.3851,45.2868],[27.3828,45.328],[27.4063,45.342],[27.4034,45.3611],[27.4385,45.3761],[27.4347,45.3947],[27.4386,45.4128],[27.5585,45.4884],[27.5985,45.4844],[27.6314,45.4578],[27.6605,45.4885],[27.6648,45.4749],[27.6902,45.4758],[27.6804,45.4444],[27.7104,45.4354],[27.7407,45.4396],[27.744,45.4167],[27.7794,45.4205],[27.7908,45.4075],[27.8208,45.3984],[27.8624,45.398],[27.8735,45.4147],[27.8864,45.4184],[27.9799,45.3935],[28.0305,45.4043]]]]}},{"type":"Feature","properties":{"name":"Călăraşi","nuts_id":"RO312","gruppe":null,"bestand":null,"dichte":null,"signatur":0,"status":"kein_bestand"},"geometry":{"type":"MultiPolygon","coordinates":[[[[26.26,44.295],[26.2689,44.3154],[26.2611,44.3335],[26.3196,44.3685],[26.2856,44.4102],[26.3009,44.4108],[26.3274,44.3925],[26.3616,44.4143],[26.3925,44.4206],[26.4094,44.437],[26.4454,44.446],[26.4374,44.4579],[26.3976,44.4613],[26.3693,44.4837],[26.4161,44.5217],[26.4573,44.5417],[26.4428,44.5517],[26.4476,44.5617],[26.4833,44.5742],[26.5623,44.5281],[26.6051,44.5233],[26.6207,44.5394],[26.6373,44.536],[26.6701,44.5932],[26.68,44.5888],[26.6806,44.5656],[26.721,44.558],[26.7301,44.536],[26.7499,44.5305],[26.7625,44.5468],[26.7808,44.5426],[26.775,44.5185],[26.7905,44.513],[26.8225,44.5157],[26.8345,44.5254],[26.8503,44.5177],[26.8874,44.5253],[26.8991,44.5173],[26.9945,44.5289],[27.0089,44.5092],[27.088,44.5075],[27.0998,44.4849],[27.1313,44.484],[27.1451,44.4994],[27.2007,44.4857],[27.2254,44.5046],[27.2328,44.4935],[27.2583,44.4904],[27.2747,44.5052],[27.2871,44.5026],[27.2936,44.4894],[27.339,44.487],[27.3588,44.5166],[27.3945,44.4968],[27.5095,44.4957],[27.5187,44.5036],[27.526,44.5394],[27.5587,44.559],[27.5712,44.5522],[27.573,44.4705],[27.6407,44.4691],[27.6571,44.4447],[27.6575,44.4223],[27.7218,44.4188],[27.7595,44.3964],[27.7489,44.3787],[27.7536,44.3579],[27.7649,44.3481],[27.7882,44.3516],[27.8159,44.3371],[27.8588,44.3785],[28.0174,44.3402],[28.0072,44.3173],[27.9646,44.272],[27.9305,44.2502],[27.803,44.2404],[27.72,44.1972],[27.6418,44.2054],[27.6013,44.1982],[27.5327,44.1717],[27.4521,44.1259],[27.3097,44.14],[27.2713,44.1263],[27.222,44.1159],[27.1357,44.1399],[27.0788,44.1342],[27.0316,44.143],[26.9795,44.1324],[26.9209,44.1391],[26.7663,44.0788],[26.7026,44.0803],[26.6398,44.0633],[26.6076,44.0546],[26.5667,44.0572],[26.489,44.0432],[26.3818,44.0386],[26.3741,44.0633],[26.3609,44.1052],[26.4188,44.1295],[26.4269,44.1529],[26.4144,44.1847],[26.401,44.1912],[26.413,44.2024],[26.3968,44.2223],[26.3665,44.2243],[26.3566,44.2403],[26.3028,44.2586],[26.26,44.295]]]]}},{"type":"Feature","properties":{"name":"Dâmboviţa","nuts_id":"RO313","gruppe":"Dâmbovița","bestand":153,"dichte":8,"signatur":1,"status":"modelliert"},"geometry":{"type":"MultiPolygon","coordinates":[[[[25.4525,45.4413],[25.4795,45.3973],[25.4717,45.3505],[25.478,45.3287],[25.5262,45.3037],[25.5481,45.2765],[25.5188,45.2273],[25.5356,45.1957],[25.5621,45.1841],[25.6101,45.1226],[25.6405,45.0949],[25.674,45.0786],[25.697,45.0471],[25.678,45.0047],[25.6873,44.9547],[25.7102,44.943],[25.7961,44.9357],[25.8163,44.9156],[25.8203,44.8993],[25.7797,44.8307],[25.8345,44.8133],[25.8743,44.8249],[25.9344,44.758],[25.9146,44.7312],[25.9231,44.7095],[25.9342,44.7016],[25.951,44.7136],[25.9707,44.7104],[25.9866,44.6966],[25.9695,44.6819],[25.9772,44.6697],[25.9421,44.647],[25.983,44.6266],[25.9895,44.6131],[25.9332,44.5741],[25.8859,44.5545],[25.8907,44.541],[25.8439,44.5307],[25.8112,44.5464],[25.7821,44.5305],[25.7143,44.5441],[25.6824,44.5259],[25.6435,44.5512],[25.6187,44.5484],[25.5919,44.5286],[25.5406,44.5378],[25.4854,44.5033],[25.5077,44.4854],[25.4805,44.452],[25.4338,44.4731],[25.4462,44.4913],[25.4409,44.4999],[25.3964,44.5161],[25.3677,44.4942],[25.3588,44.465],[25.3395,44.4604],[25.2948,44.4215],[25.2534,44.4072],[25.2347,44.4243],[25.2747,44.4433],[25.2772,44.4807],[25.2612,44.5117],[25.2897,44.5504],[25.2496,44.5668],[25.2184,44.6102],[25.1987,44.6124],[25.1994,44.6341],[25.1719,44.6591],[25.2337,44.6947],[25.1833,44.7151],[25.1797,44.7311],[25.1846,44.7406],[25.1966,44.7414],[25.2113,44.7749],[25.1899,44.8281],[25.2007,44.8555],[25.1947,44.9026],[25.1644,44.9252],[25.1714,44.9769],[25.1962,44.9946],[25.1959,45.0165],[25.1869,45.0302],[25.1492,45.0403],[25.1281,45.0697],[25.1439,45.0832],[25.166,45.0803],[25.1779,45.0932],[25.1495,45.1322],[25.1474,45.21],[25.1646,45.2114],[25.2093,45.1616],[25.251,45.1828],[25.2508,45.2095],[25.2909,45.2277],[25.2824,45.267],[25.3131,45.3178],[25.3134,45.3358],[25.3243,45.3513],[25.3216,45.3811],[25.3629,45.391],[25.3919,45.3895],[25.402,45.3876],[25.408,45.3916],[25.41,45.4228],[25.4122,45.4286],[25.4278,45.4368],[25.437,45.4371],[25.4525,45.4413]]]]}},{"type":"Feature","properties":{"name":"Giurgiu","nuts_id":"RO314","gruppe":null,"bestand":null,"dichte":null,"signatur":0,"status":"kein_bestand"},"geometry":{"type":"MultiPolygon","coordinates":[[[[25.8907,44.541],[25.9173,44.5167],[25.8988,44.4869],[25.9095,44.4692],[25.8959,44.4551],[25.8732,44.4636],[25.8624,44.4787],[25.8514,44.4764],[25.8605,44.4429],[25.8543,44.414],[25.8296,44.3952],[25.8545,44.3852],[25.891,44.3454],[25.9109,44.3338],[25.9381,44.3326],[25.9565,44.3176],[25.9794,44.3231],[26.0039,44.2998],[26.0557,44.2708],[26.1429,44.2365],[26.188,44.2444],[26.203,44.266],[26.26,44.295],[26.3028,44.2586],[26.3566,44.2403],[26.3665,44.2243],[26.3968,44.2223],[26.413,44.2024],[26.401,44.1912],[26.4144,44.1847],[26.4269,44.1529],[26.4188,44.1295],[26.3609,44.1052],[26.3741,44.0633],[26.3818,44.0386],[26.3582,44.0372],[26.3038,44.0257],[26.2122,43.9895],[26.1535,43.9839],[26.1041,43.9679],[26.058,43.9078],[25.9543,43.8595],[25.8736,43.774],[25.8068,43.7411],[25.7777,43.7079],[25.7261,43.6881],[25.6722,43.6881],[25.678,43.7138],[25.6563,43.7479],[25.664,43.7743],[25.6593,43.8111],[25.6351,43.823],[25.6264,43.8404],[25.6112,43.8484],[25.612,43.8959],[25.5895,43.909],[25.5859,43.9231],[25.5911,43.9348],[25.6158,43.9439],[25.5958,43.994],[25.6002,44.0311],[25.622,44.0524],[25.6237,44.0633],[25.6268,44.0842],[25.6518,44.1084],[25.6719,44.0969],[25.6856,44.1145],[25.7059,44.1123],[25.7062,44.129],[25.6806,44.1358],[25.6858,44.1621],[25.6596,44.1766],[25.6705,44.2137],[25.698,44.2482],[25.6726,44.2702],[25.6631,44.2909],[25.6455,44.2806],[25.6283,44.2867],[25.6162,44.3144],[25.5726,44.3105],[25.4752,44.3273],[25.4753,44.3704],[25.4319,44.4005],[25.4805,44.452],[25.5077,44.4854],[25.4854,44.5033],[25.5406,44.5378],[25.5919,44.5286],[25.6187,44.5484],[25.6435,44.5512],[25.6824,44.5259],[25.7143,44.5441],[25.7821,44.5305],[25.8112,44.5464],[25.8439,44.5307],[25.8907,44.541]]]]}},{"type":"Feature","properties":{"name":"Iaşi","nuts_id":"RO213","gruppe":null,"bestand":null,"dichte":null,"signatur":0,"status":"kein_bestand"},"geometry":{"type":"MultiPolygon","coordinates":[[[[28.1138,46.8384],[28.0703,46.8486],[28.0112,46.8368],[27.9713,46.8564],[27.9334,46.8619],[27.9365,46.8252],[27.9015,46.815],[27.8765,46.8341],[27.8624,46.8583],[27.8045,46.8613],[27.8113,46.8922],[27.8051,46.9314],[27.7748,46.9417],[27.7855,46.8909],[27.7716,46.882],[27.6654,46.9689],[27.6271,46.9861],[27.6151,46.9796],[27.6096,46.958],[27.6375,46.8994],[27.5963,46.8833],[27.5687,46.8865],[27.5357,46.9122],[27.5238,46.9067],[27.5222,46.8804],[27.4563,46.8671],[27.4263,46.8668],[27.3899,46.8903],[27.3159,46.8661],[27.2309,46.8714],[27.2024,46.8824],[27.1791,46.9172],[27.1293,46.9515],[27.1797,46.9857],[27.2248,46.9769],[27.2382,47.0025],[27.1878,47.0332],[27.1787,47.0621],[27.1565,47.0794],[27.1042,47.09],[27.0708,47.0851],[27.0186,47.0374],[27.0002,47.0459],[26.9773,47.0736],[26.9531,47.046],[26.9076,47.0313],[26.8737,47.0534],[26.8261,47.0437],[26.8081,47.0665],[26.7619,47.0934],[26.7218,47.0892],[26.6808,47.1085],[26.6353,47.0969],[26.6195,47.1094],[26.6058,47.1532],[26.6061,47.1953],[26.5544,47.2355],[26.5308,47.2538],[26.5078,47.2717],[26.5425,47.2969],[26.5623,47.296],[26.5704,47.3059],[26.5022,47.3454],[26.506,47.3687],[26.4975,47.3922],[26.5255,47.4022],[26.5371,47.3909],[26.5661,47.3882],[26.6108,47.3569],[26.6667,47.3595],[26.6733,47.3795],[26.6484,47.3978],[26.6817,47.4116],[26.7003,47.407],[26.6808,47.4489],[26.7006,47.4717],[26.7163,47.477],[26.7026,47.5009],[26.7176,47.5129],[26.8833,47.4927],[26.9531,47.4955],[27.0043,47.4803],[27.0403,47.4449],[27.0537,47.4615],[27.0783,47.4693],[27.0764,47.5118],[27.1001,47.5435],[27.135,47.5421],[27.1774,47.5234],[27.2234,47.5178],[27.2517,47.5297],[27.2523,47.5559],[27.264,47.5675],[27.3387,47.5744],[27.3912,47.5894],[27.421,47.5745],[27.4748,47.4946],[27.5353,47.4807],[27.5585,47.4651],[27.5769,47.381],[27.5995,47.35],[27.6007,47.3212],[27.687,47.2914],[27.7289,47.2864],[27.7485,47.2639],[27.7589,47.2355],[27.7938,47.1953],[27.8069,47.1416],[27.8381,47.1316],[27.8457,47.1159],[27.8728,47.1038],[27.8984,47.0791],[27.9677,47.043],[28.0504,47.0235],[28.0437,47.0081],[28.0853,46.9774],[28.1031,46.9237],[28.094,46.9007],[28.1112,46.8812],[28.1138,46.8384]]]]}},{"type":"Feature","properties":{"name":"Neamţ","nuts_id":"RO214","gruppe":"Neamț","bestand":173,"dichte":4.3,"signatur":1,"status":"modelliert"},"geometry":{"type":"MultiPolygon","coordinates":[[[[26.5544,47.2355],[26.6061,47.1953],[26.6058,47.1532],[26.6195,47.1094],[26.6353,47.0969],[26.6808,47.1085],[26.7218,47.0892],[26.7619,47.0934],[26.8081,47.0665],[26.8261,47.0437],[26.8737,47.0534],[26.9076,47.0313],[26.9531,47.046],[26.9773,47.0736],[27.0002,47.0459],[27.0186,47.0374],[27.0708,47.0851],[27.1042,47.09],[27.1565,47.0794],[27.1787,47.0621],[27.1878,47.0332],[27.2382,47.0025],[27.2248,46.9769],[27.1797,46.9857],[27.1293,46.9515],[27.1791,46.9172],[27.2024,46.8824],[27.1925,46.8714],[27.2146,46.8487],[27.2123,46.8388],[27.2237,46.8244],[27.2136,46.7967],[27.2309,46.7766],[27.2062,46.7698],[27.1576,46.7399],[27.0934,46.7664],[27.0624,46.7604],[27.0227,46.7695],[26.9581,46.7579],[26.9367,46.7794],[26.9131,46.7881],[26.9087,46.8195],[26.8912,46.8265],[26.8543,46.8037],[26.8453,46.7836],[26.8295,46.7727],[26.8326,46.7489],[26.7948,46.7235],[26.7611,46.7351],[26.7356,46.7647],[26.687,46.7664],[26.6682,46.7365],[26.6154,46.7147],[26.5711,46.6819],[26.5127,46.6908],[26.476,46.679],[26.432,46.6835],[26.3817,46.6515],[26.3028,46.6572],[26.2588,46.6973],[26.2256,46.6813],[26.2039,46.6537],[26.1656,46.6453],[26.1368,46.6561],[26.1003,46.6505],[26.0872,46.6571],[26.0722,46.7006],[26.0613,46.711],[25.9752,46.6973],[25.8985,46.699],[25.8898,46.6848],[25.9023,46.6572],[25.8771,46.6518],[25.8034,46.7122],[25.8049,46.7946],[25.7839,46.8242],[25.7958,46.8415],[25.7696,46.843],[25.7764,46.8644],[25.7715,46.8851],[25.8031,46.9224],[25.8439,46.9234],[25.8476,46.9343],[25.8295,46.9685],[25.7983,46.976],[25.7687,47.0335],[25.7366,47.0703],[25.6616,47.0916],[25.6662,47.1186],[25.6935,47.1423],[25.6997,47.1671],[25.7183,47.177],[25.7185,47.1955],[25.733,47.2176],[25.7779,47.2355],[25.7869,47.2391],[25.8035,47.2538],[25.8091,47.2588],[25.8057,47.2756],[25.7718,47.3136],[25.7762,47.3193],[25.8367,47.3094],[25.8736,47.2898],[25.8961,47.2655],[25.9181,47.2603],[25.9368,47.2768],[25.9793,47.2874],[26.0242,47.2873],[26.0589,47.2762],[26.1859,47.305],[26.2618,47.2817],[26.2893,47.2991],[26.406,47.3386],[26.4338,47.3276],[26.5078,47.2717],[26.5308,47.2538],[26.5544,47.2355]]]]}},{"type":"Feature","properties":{"name":"Galaţi","nuts_id":"RO224","gruppe":null,"bestand":null,"dichte":null,"signatur":0,"status":"kein_bestand"},"geometry":{"type":"MultiPolygon","coordinates":[[[[28.2114,45.4673],[28.1947,45.4567],[28.1871,45.4152],[28.1001,45.4406],[28.0678,45.431],[28.0305,45.4043],[27.9799,45.3935],[27.8864,45.4184],[27.8735,45.4147],[27.8624,45.398],[27.8208,45.3984],[27.7908,45.4075],[27.7794,45.4205],[27.744,45.4167],[27.7407,45.4396],[27.7104,45.4354],[27.6804,45.4444],[27.6902,45.4758],[27.6648,45.4749],[27.6605,45.4885],[27.6314,45.4578],[27.5985,45.4844],[27.5585,45.4884],[27.5348,45.5009],[27.5244,45.5453],[27.5109,45.5663],[27.5287,45.5842],[27.5068,45.6204],[27.4625,45.645],[27.442,45.6749],[27.4257,45.6736],[27.3971,45.6909],[27.3654,45.7274],[27.2983,45.8485],[27.2631,45.8749],[27.2764,45.8916],[27.2419,45.9514],[27.2302,46.0074],[27.2392,46.0408],[27.2715,46.0496],[27.2938,46.0802],[27.4157,46.089],[27.4246,46.0975],[27.427,46.1335],[27.4708,46.1276],[27.5031,46.1396],[27.5321,46.0987],[27.5203,46.0848],[27.5289,46.0676],[27.5196,46.0525],[27.545,46.0171],[27.5656,46.0047],[27.598,46.0159],[27.6015,46.0525],[27.6236,46.062],[27.6063,46.073],[27.5862,46.1446],[27.5974,46.1461],[27.6067,46.134],[27.6993,46.1349],[27.7569,46.1271],[27.8005,46.1003],[27.8164,46.1147],[27.8341,46.1162],[27.8483,46.1547],[27.8602,46.1616],[27.8783,46.1463],[27.9106,46.1515],[27.9419,46.1375],[27.963,46.1391],[27.9857,46.1137],[28.0152,46.105],[28.0812,46.1172],[28.1158,46.1078],[28.1073,46.0825],[28.0926,46.0728],[28.1025,46.0499],[28.0899,46.0251],[28.0901,46.0053],[28.122,45.9236],[28.1154,45.8941],[28.1298,45.8759],[28.1098,45.8577],[28.1102,45.8197],[28.123,45.7874],[28.1527,45.7777],[28.1467,45.7607],[28.1636,45.7349],[28.1683,45.6749],[28.1677,45.6409],[28.1433,45.6242],[28.1119,45.6223],[28.092,45.605],[28.1214,45.5758],[28.1522,45.5651],[28.1645,45.5394],[28.1613,45.5054],[28.1877,45.4758],[28.2114,45.4673]]]]}},{"type":"Feature","properties":{"name":"Buzău","nuts_id":"RO222","gruppe":"Buzău","bestand":606,"dichte":18,"signatur":1,"status":"modelliert"},"geometry":{"type":"MultiPolygon","coordinates":[[[[26.3921,45.8024],[26.4381,45.7776],[26.4401,45.7368],[26.4634,45.7195],[26.4968,45.6749],[26.5514,45.6321],[26.5943,45.6224],[26.6158,45.6262],[26.6474,45.611],[26.6788,45.608],[26.718,45.5748],[26.7401,45.5667],[26.746,45.5519],[26.7993,45.5488],[26.8333,45.5199],[26.8881,45.5185],[26.9153,45.5339],[26.9487,45.5246],[26.9699,45.5319],[27.0034,45.4864],[27.0487,45.453],[27.0871,45.4474],[27.1083,45.4718],[27.1494,45.4682],[27.1459,45.4551],[27.111,45.439],[27.1085,45.4267],[27.121,45.4101],[27.1695,45.4259],[27.1973,45.4516],[27.2303,45.4293],[27.2733,45.4513],[27.279,45.4338],[27.2669,45.4154],[27.277,45.3902],[27.3316,45.3837],[27.3469,45.3721],[27.406,45.3804],[27.4347,45.3947],[27.4385,45.3761],[27.4034,45.3611],[27.4063,45.342],[27.3828,45.328],[27.3851,45.2868],[27.3637,45.2757],[27.3168,45.2899],[27.3233,45.2623],[27.3355,45.2521],[27.3323,45.2396],[27.3479,45.2294],[27.3384,45.2154],[27.2798,45.2033],[27.2478,45.2167],[27.2318,45.2141],[27.1727,45.2466],[27.1238,45.2143],[27.0699,45.1615],[27.0993,45.1334],[27.1106,45.1385],[27.1155,45.1566],[27.1481,45.1682],[27.1799,45.093],[27.2035,45.0876],[27.1999,45.0316],[27.2462,45.0249],[27.2522,44.9979],[27.2761,44.99],[27.2381,44.8778],[27.2171,44.8678],[27.2283,44.8548],[27.2149,44.8168],[27.1956,44.808],[27.2035,44.7871],[27.1642,44.7879],[27.1547,44.7806],[27.153,44.7682],[27.1835,44.7499],[27.179,44.7383],[27.1288,44.7373],[27.1008,44.7464],[27.1051,44.7825],[27.0106,44.8219],[26.9705,44.7902],[26.8803,44.8178],[26.8077,44.7985],[26.7729,44.8139],[26.7267,44.8104],[26.7092,44.8171],[26.6786,44.8102],[26.6485,44.8201],[26.6319,44.8165],[26.6056,44.857],[26.5982,44.8797],[26.5401,44.9143],[26.5347,44.9256],[26.5403,44.9402],[26.5913,44.9622],[26.53,45.0097],[26.4944,45.0082],[26.4698,45.0571],[26.4503,45.0756],[26.4527,45.1245],[26.4661,45.1479],[26.4586,45.1904],[26.3693,45.1623],[26.3544,45.1715],[26.3469,45.2123],[26.2515,45.2061],[26.2238,45.2668],[26.1978,45.2804],[26.2258,45.3066],[26.227,45.318],[26.161,45.3687],[26.1428,45.4578],[26.0727,45.5058],[26.0933,45.5163],[26.1455,45.5804],[26.1728,45.5669],[26.1876,45.6063],[26.2131,45.62],[26.2468,45.6233],[26.2556,45.6016],[26.2793,45.5891],[26.3098,45.6068],[26.3272,45.6308],[26.3328,45.6749],[26.3568,45.7203],[26.3815,45.7382],[26.3921,45.8024]]]]}},{"type":"Feature","properties":{"name":"Vâlcea","nuts_id":"RO415","gruppe":"Vâlcea","bestand":459,"dichte":12.5,"signatur":1,"status":"modelliert"},"geometry":{"type":"MultiPolygon","coordinates":[[[[23.5973,45.4735],[23.6207,45.4575],[23.6466,45.4578],[23.6807,45.4726],[23.7036,45.4968],[23.7673,45.5107],[23.7988,45.5297],[23.8505,45.5336],[23.8757,45.5252],[23.924,45.5348],[24.0205,45.5294],[24.0898,45.5125],[24.1684,45.5157],[24.3296,45.5777],[24.4473,45.588],[24.4847,45.576],[24.5231,45.5806],[24.5376,45.5391],[24.5148,45.5176],[24.5257,45.4962],[24.5243,45.4791],[24.513,45.4668],[24.4866,45.4601],[24.4812,45.4481],[24.4844,45.4165],[24.5018,45.3863],[24.5036,45.3561],[24.4791,45.3595],[24.4719,45.3504],[24.4735,45.3342],[24.4899,45.3224],[24.4836,45.2981],[24.4903,45.2813],[24.469,45.2289],[24.4761,45.2127],[24.4968,45.2045],[24.4933,45.1937],[24.5184,45.182],[24.5003,45.162],[24.5173,45.1374],[24.5155,45.1188],[24.4919,45.1072],[24.5035,45.0853],[24.4844,45.0637],[24.5182,45.046],[24.4894,45.0161],[24.5021,44.9975],[24.4771,44.9657],[24.4761,44.9524],[24.4953,44.945],[24.4663,44.9158],[24.4765,44.8945],[24.4608,44.8624],[24.4381,44.8454],[24.4194,44.8559],[24.421,44.8892],[24.3898,44.8987],[24.3678,44.8733],[24.3368,44.8676],[24.338,44.8534],[24.3231,44.8395],[24.3186,44.79],[24.2773,44.7664],[24.2803,44.7089],[24.2985,44.6742],[24.3028,44.6431],[24.3239,44.612],[24.3224,44.5628],[24.2897,44.5678],[24.2821,44.5966],[24.2653,44.599],[24.2494,44.553],[24.186,44.5484],[24.1469,44.5558],[24.0927,44.5161],[24.0748,44.4923],[24.0166,44.5313],[23.9869,44.537],[23.9282,44.5302],[23.918,44.5671],[23.8972,44.5793],[23.887,44.5975],[23.8881,44.6269],[23.8591,44.6271],[23.8161,44.6447],[23.7901,44.6404],[23.7805,44.714],[23.773,44.7798],[23.7915,44.8205],[23.7809,44.8525],[23.76,44.8769],[23.7699,44.9475],[23.7591,44.9957],[23.791,45.0258],[23.7886,45.0618],[23.8245,45.0787],[23.818,45.1257],[23.8513,45.1541],[23.8009,45.2551],[23.8404,45.323],[23.7965,45.3494],[23.6975,45.3298],[23.6491,45.3462],[23.6177,45.3388],[23.5906,45.3531],[23.5882,45.368],[23.593,45.3753],[23.5995,45.3852],[23.593,45.3998],[23.5798,45.4293],[23.593,45.4627],[23.5973,45.4735]]]]}},{"type":"Feature","properties":{"name":"Arad","nuts_id":"RO421","gruppe":null,"bestand":null,"dichte":null,"signatur":0,"status":"kein_bestand"},"geometry":{"type":"MultiPolygon","coordinates":[[[[22.6766,46.4058],[22.6759,46.3955],[22.6807,46.3877],[22.6983,46.3784],[22.7,46.3659],[22.7136,46.3625],[22.7256,46.363],[22.7425,46.3565],[22.7487,46.3512],[22.7256,46.3404],[22.6812,46.3197],[22.6762,46.2933],[22.6578,46.2632],[22.6583,46.2412],[22.6477,46.2305],[22.6075,46.2216],[22.5756,46.2322],[22.5168,46.2259],[22.493,46.2402],[22.444,46.2121],[22.4637,46.1446],[22.4459,46.1187],[22.4136,46.1061],[22.4079,46.0958],[22.4283,46.0735],[22.434,46.0357],[22.4369,46.0168],[22.3801,45.9974],[22.3422,45.9958],[22.3396,45.9838],[22.3528,45.9727],[22.3196,45.9691],[22.3057,45.9356],[22.2576,45.9314],[22.245,45.9068],[22.2289,45.9039],[22.2006,45.9212],[22.1371,45.9252],[22.0699,45.958],[21.9983,45.9704],[21.9698,45.9929],[21.9295,45.9842],[21.9151,45.9638],[21.8943,45.9547],[21.8529,45.9483],[21.8236,45.9621],[21.8085,45.9494],[21.7975,45.9232],[21.7784,45.9197],[21.7679,45.9526],[21.7344,45.9824],[21.6911,45.9207],[21.6719,45.912],[21.6569,45.9368],[21.635,45.9473],[21.6338,45.9722],[21.5328,46.0107],[21.5293,46.038],[21.5006,46.0645],[21.4424,46.0508],[21.4385,46.0258],[21.3644,45.9871],[21.3354,46.0058],[21.2887,46.0164],[21.2347,45.9756],[21.1707,45.9947],[21.1102,45.9819],[21.0886,45.9964],[21.0643,46.0344],[20.947,46.0407],[20.9114,46.072],[20.8355,46.0926],[20.7727,46.14],[20.7053,46.1609],[20.7146,46.1677],[20.7224,46.1866],[20.7331,46.1924],[20.7263,46.1971],[20.7274,46.2074],[20.7612,46.2053],[20.7494,46.2504],[20.7756,46.2759],[20.8708,46.286],[20.9139,46.2644],[20.9426,46.2778],[20.9587,46.2643],[21.0219,46.2642],[21.039,46.2491],[21.0611,46.2449],[21.1019,46.2653],[21.1194,46.3012],[21.1735,46.3012],[21.1772,46.3315],[21.1977,46.3501],[21.2068,46.3992],[21.2301,46.4124],[21.2891,46.4057],[21.314,46.4457],[21.2987,46.4717],[21.2728,46.4817],[21.2628,46.5033],[21.2766,46.5386],[21.2926,46.5551],[21.3163,46.5796],[21.3047,46.5942],[21.3152,46.6172],[21.3282,46.6286],[21.3657,46.6353],[21.4066,46.6244],[21.4184,46.6413],[21.4414,46.6515],[21.4651,46.66],[21.5009,46.6566],[21.5364,46.6291],[21.5486,46.6047],[21.561,46.6015],[21.5707,46.6468],[21.6171,46.6465],[21.6489,46.6636],[21.7968,46.6552],[21.8236,46.6627],[21.878,46.678],[21.9052,46.663],[21.8866,46.6325],[21.9504,46.6183],[21.9975,46.625],[22.0236,46.6502],[22.0544,46.6354],[22.0818,46.6354],[22.0913,46.6198],[22.1176,46.6046],[22.1693,46.6004],[22.1664,46.5722],[22.1719,46.5551],[22.1776,46.5374],[22.1992,46.5151],[22.2171,46.5176],[22.2426,46.5051],[22.2728,46.5027],[22.3229,46.5127],[22.3268,46.4835],[22.3527,46.4454],[22.4302,46.3923],[22.4596,46.3857],[22.582,46.3973],[22.6369,46.3905],[22.6766,46.4058]]]]}},{"type":"Feature","properties":{"name":"Caraş-Severin","nuts_id":"RO422","gruppe":"Caraș-Severin + Gorj + Timiș","bestand":253,"dichte":4.3,"signatur":1,"status":"modelliert"},"geometry":{"type":"MultiPolygon","coordinates":[[[[22.6862,45.258],[22.6383,45.216],[22.5958,45.2003],[22.5616,45.1613],[22.5835,45.1379],[22.6477,45.126],[22.6566,45.1082],[22.4963,44.976],[22.5134,44.9582],[22.4896,44.9474],[22.4938,44.9247],[22.4861,44.8853],[22.4268,44.801],[22.4273,44.7802],[22.415,44.7579],[22.381,44.7588],[22.3579,44.7433],[22.3367,44.775],[22.2687,44.7837],[22.2408,44.8069],[22.2097,44.8152],[22.1974,44.7807],[22.2001,44.7591],[22.1839,44.7435],[22.1633,44.7396],[22.155,44.7229],[22.1414,44.6624],[22.1711,44.6458],[22.1759,44.6323],[22.1502,44.5913],[22.1148,44.5949],[22.083,44.6201],[22.0161,44.5992],[22.0124,44.6023],[21.9926,44.6313],[21.918,44.6462],[21.8236,44.6516],[21.8151,44.652],[21.7896,44.6625],[21.7258,44.6545],[21.6863,44.6644],[21.6351,44.6618],[21.6167,44.6767],[21.6121,44.7213],[21.5856,44.7585],[21.5376,44.7719],[21.4073,44.7763],[21.3928,44.7853],[21.379,44.8113],[21.3585,44.8216],[21.3602,44.8505],[21.375,44.8664],[21.4834,44.8691],[21.5582,44.8934],[21.5421,44.932],[21.4318,44.9644],[21.364,45.0188],[21.4502,45.0403],[21.4511,45.0593],[21.479,45.0901],[21.4774,45.1167],[21.524,45.1385],[21.5183,45.1648],[21.4963,45.1743],[21.4792,45.193],[21.5042,45.2037],[21.5486,45.2749],[21.5263,45.3271],[21.4946,45.3461],[21.447,45.3942],[21.4491,45.4071],[21.4827,45.4235],[21.4667,45.4459],[21.4648,45.4736],[21.4952,45.4869],[21.5017,45.4898],[21.5643,45.4971],[21.5738,45.506],[21.5798,45.5423],[21.5993,45.5653],[21.6663,45.5821],[21.7553,45.543],[21.8236,45.5291],[21.8695,45.5359],[21.8771,45.5608],[21.9207,45.5657],[21.9304,45.5589],[21.926,45.5466],[21.9467,45.5094],[22.0362,45.4985],[22.0615,45.5114],[22.0683,45.5333],[22.0481,45.555],[22.0437,45.5879],[22.075,45.5751],[22.1044,45.5928],[22.1326,45.5952],[22.1467,45.612],[22.1537,45.6024],[22.1896,45.6147],[22.2675,45.5865],[22.2873,45.6029],[22.2988,45.6359],[22.3196,45.6596],[22.4265,45.6689],[22.451,45.6593],[22.4729,45.6282],[22.5127,45.5971],[22.5843,45.5818],[22.5972,45.5632],[22.6367,45.5677],[22.64,45.5565],[22.6305,45.5398],[22.6468,45.5382],[22.6736,45.5157],[22.6889,45.4869],[22.7045,45.4574],[22.7094,45.4201],[22.6942,45.396],[22.6606,45.3714],[22.6743,45.3423],[22.6952,45.3261],[22.6943,45.3024],[22.6817,45.2833],[22.6862,45.258]]]]}},{"type":"Feature","properties":{"name":"Hunedoara","nuts_id":"RO423","gruppe":"Hunedoara","bestand":526,"dichte":9.5,"signatur":1,"status":"modelliert"},"geometry":{"type":"MultiPolygon","coordinates":[[[[22.7256,46.3404],[22.7487,46.3512],[22.7735,46.3485],[22.8153,46.3278],[22.8724,46.3367],[22.9298,46.3274],[22.9619,46.2852],[22.9513,46.2661],[22.9646,46.2359],[22.9932,46.2148],[23.0623,46.2095],[23.0924,46.1819],[23.1001,46.1436],[23.0776,46.1467],[23.0577,46.1356],[23.0667,46.1084],[23.0861,46.0996],[23.0838,46.0824],[23.1045,46.048],[23.1567,46.0357],[23.1834,46.0293],[23.2256,46.0357],[23.238,46.0357],[23.2371,45.9886],[23.262,45.9412],[23.3205,45.9154],[23.3266,45.9127],[23.3205,45.9058],[23.3105,45.8943],[23.3205,45.8833],[23.3274,45.8758],[23.331,45.8269],[23.3741,45.7631],[23.3675,45.7131],[23.4165,45.6777],[23.3748,45.6419],[23.3742,45.6307],[23.4167,45.6271],[23.4296,45.5885],[23.4969,45.575],[23.5632,45.5271],[23.593,45.4913],[23.5973,45.4735],[23.593,45.4627],[23.5798,45.4293],[23.593,45.3998],[23.5995,45.3852],[23.593,45.3753],[23.5882,45.368],[23.5906,45.3531],[23.4513,45.3008],[23.414,45.3112],[23.3971,45.3316],[23.3767,45.3354],[23.3417,45.3292],[23.3091,45.3032],[23.2469,45.3049],[23.2024,45.2805],[23.0972,45.2882],[23.0606,45.2668],[23.0154,45.2558],[22.9798,45.2571],[22.9298,45.2771],[22.8686,45.2657],[22.8278,45.2816],[22.7256,45.2546],[22.6862,45.258],[22.6817,45.2833],[22.6943,45.3024],[22.6952,45.3261],[22.6743,45.3423],[22.6606,45.3714],[22.6942,45.396],[22.7094,45.4201],[22.7045,45.4574],[22.6889,45.4869],[22.6736,45.5157],[22.6468,45.5382],[22.6305,45.5398],[22.64,45.5565],[22.6367,45.5677],[22.5972,45.5632],[22.5843,45.5818],[22.5127,45.5971],[22.4729,45.6282],[22.451,45.6593],[22.4265,45.6689],[22.4358,45.6821],[22.4507,45.6829],[22.4649,45.6904],[22.4687,45.6957],[22.468,45.7012],[22.4705,45.7296],[22.5381,45.7642],[22.5467,45.7874],[22.5303,45.8],[22.5018,45.787],[22.4831,45.7883],[22.4736,45.8009],[22.4744,45.835],[22.4052,45.8599],[22.3806,45.8898],[22.4074,45.9073],[22.4166,45.9367],[22.3528,45.9727],[22.3396,45.9838],[22.3422,45.9958],[22.3801,45.9974],[22.4369,46.0168],[22.434,46.0357],[22.4283,46.0735],[22.4079,46.0958],[22.4136,46.1061],[22.4459,46.1187],[22.4637,46.1446],[22.444,46.2121],[22.493,46.2402],[22.5168,46.2259],[22.5756,46.2322],[22.6075,46.2216],[22.6477,46.2305],[22.6583,46.2412],[22.6578,46.2632],[22.6762,46.2933],[22.6812,46.3197],[22.7256,46.3404]]],[[[22.9263,45.2426],[22.9437,45.2662],[22.9521,45.2593],[22.9448,45.2391],[22.9263,45.2426]]]]}},{"type":"Feature","properties":{"name":"Timiş","nuts_id":"RO424","gruppe":"Caraș-Severin + Gorj + Timiș","bestand":253,"dichte":4.3,"signatur":0,"status":"modelliert"},"geometry":{"type":"MultiPolygon","coordinates":[[[[20.6628,45.7941],[20.6543,45.8327],[20.617,45.8597],[20.5831,45.8724],[20.5691,45.9059],[20.5599,45.9041],[20.516,45.8952],[20.4778,45.955],[20.4471,45.969],[20.4032,45.9673],[20.3559,45.9956],[20.3455,46.0357],[20.3422,46.0485],[20.2731,46.101],[20.2643,46.1264],[20.2982,46.1516],[20.3528,46.1672],[20.3691,46.156],[20.4567,46.1437],[20.4884,46.1662],[20.5026,46.1877],[20.5501,46.1759],[20.5599,46.1704],[20.6333,46.1292],[20.6581,46.1483],[20.6846,46.1479],[20.7053,46.1609],[20.7727,46.14],[20.8355,46.0926],[20.9114,46.072],[20.947,46.0407],[21.0643,46.0344],[21.0886,45.9964],[21.1102,45.9819],[21.1707,45.9947],[21.2347,45.9756],[21.2887,46.0164],[21.3354,46.0058],[21.3644,45.9871],[21.4385,46.0258],[21.4424,46.0508],[21.5006,46.0645],[21.5293,46.038],[21.5328,46.0107],[21.6338,45.9722],[21.635,45.9473],[21.6569,45.9368],[21.6719,45.912],[21.6911,45.9207],[21.7344,45.9824],[21.7679,45.9526],[21.7784,45.9197],[21.7975,45.9232],[21.8085,45.9494],[21.8236,45.9621],[21.8529,45.9483],[21.8943,45.9547],[21.9151,45.9638],[21.9295,45.9842],[21.9698,45.9929],[21.9983,45.9704],[22.0699,45.958],[22.1371,45.9252],[22.2006,45.9212],[22.2289,45.9039],[22.245,45.9068],[22.2576,45.9314],[22.3057,45.9356],[22.3196,45.9691],[22.3528,45.9727],[22.4166,45.9367],[22.4074,45.9073],[22.3806,45.8898],[22.4052,45.8599],[22.4744,45.835],[22.4736,45.8009],[22.4831,45.7883],[22.5018,45.787],[22.5303,45.8],[22.5467,45.7874],[22.5381,45.7642],[22.4705,45.7296],[22.468,45.7012],[22.4687,45.6957],[22.4649,45.6904],[22.4507,45.6829],[22.4358,45.6821],[22.4265,45.6689],[22.3196,45.6596],[22.2988,45.6359],[22.2873,45.6029],[22.2675,45.5865],[22.1896,45.6147],[22.1537,45.6024],[22.1467,45.612],[22.1326,45.5952],[22.1044,45.5928],[22.075,45.5751],[22.0437,45.5879],[22.0481,45.555],[22.0683,45.5333],[22.0615,45.5114],[22.0362,45.4985],[21.9467,45.5094],[21.926,45.5466],[21.9304,45.5589],[21.9207,45.5657],[21.8771,45.5608],[21.8695,45.5359],[21.8236,45.5291],[21.7553,45.543],[21.6663,45.5821],[21.5993,45.5653],[21.5798,45.5423],[21.5738,45.506],[21.5643,45.4971],[21.5017,45.4898],[21.4952,45.4869],[21.4648,45.4736],[21.4667,45.4459],[21.4827,45.4235],[21.4491,45.4071],[21.447,45.3942],[21.4946,45.3461],[21.5263,45.3271],[21.5486,45.2749],[21.5042,45.2037],[21.4792,45.193],[21.4427,45.2029],[21.406,45.2254],[21.3593,45.2243],[21.2988,45.2407],[21.2721,45.2326],[21.2183,45.2529],[21.1779,45.3209],[21.161,45.3218],[21.1419,45.3063],[21.1006,45.2984],[21.065,45.3179],[21.0583,45.3299],[21.0166,45.3246],[21.0046,45.3419],[20.9376,45.3869],[20.9195,45.4127],[20.8743,45.4303],[20.8753,45.4491],[20.8608,45.466],[20.7751,45.4869],[20.7731,45.5009],[20.8288,45.5367],[20.8054,45.5767],[20.7936,45.5859],[20.7732,45.5857],[20.7678,45.603],[20.8027,45.6583],[20.802,45.7012],[20.8036,45.7367],[20.818,45.7567],[20.8182,45.7756],[20.7869,45.7832],[20.7706,45.7563],[20.7097,45.7503],[20.6959,45.7588],[20.6821,45.7928],[20.6628,45.7941]]]]}}]}