{"type":"FeatureCollection","name":"nationalparks","crs":{"type":"name","properties":{"name":"urn:ogc:def:crs:OGC:1.3:CRS84"}},"features":[{"type":"Feature","properties":{"name":"Retezat","beschriftet":1},"geometry":{"type":"Point","coordinates":[22.88,45.36]}},{"type":"Feature","properties":{"name":"Piatra Craiului","beschriftet":0},"geometry":{"type":"Point","coordinates":[25.22,45.53]}},{"type":"Feature","properties":{"name":"Bucegi","beschriftet":0},"geometry":{"type":"Point","coordinates":[25.47,45.42]}},{"type":"Feature","properties":{"name":"Domogled","beschriftet":0},"geometry":{"type":"Point","coordinates":[22.6,45.05]}},{"type":"Feature","properties":{"name":"Munții Rodnei","beschriftet":0},"geometry":{"type":"Point","coordinates":[24.7,47.55]}},{"type":"Feature","properties":{"name":"Călimăni","beschriftet":0},"geometry":{"type":"Point","coordinates":[25.25,47.1]}},{"type":"Feature","properties":{"name":"Ceahlău","beschriftet":0},"geometry":{"type":"Point","coordinates":[25.95,46.95]}},{"type":"Feature","properties":{"name":"Apuseni","beschriftet":0},"geometry":{"type":"Point","coordinates":[22.75,46.55]}},{"type":"Feature","properties":{"name":"Vânători-Neamț","beschriftet":0},"geometry":{"type":"Point","coordinates":[26.3,47.2]}},{"type":"Feature","properties":{"name":"Putna-Vrancea","beschriftet":0},"geometry":{"type":"Point","coordinates":[26.5,45.9]}},{"type":"Feature","properties":{"name":"Cheile Nerei","beschriftet":0},"geometry":{"type":"Point","coordinates":[21.85,44.9]}}]}