{"type":"FeatureCollection","name":"staedte","crs":{"type":"name","properties":{"name":"urn:ogc:def:crs:OGC:1.3:CRS84"}},"features":[{"type":"Feature","properties":{"name":"București","name_dt":"Bukarest","rang":1},"geometry":{"type":"Point","coordinates":[26.1,44.43]}},{"type":"Feature","properties":{"name":"Brașov","name_dt":"Kronstadt","rang":2},"geometry":{"type":"Point","coordinates":[25.6,45.653]}},{"type":"Feature","properties":{"name":"Cluj-Napoca","name_dt":"Klausenburg","rang":2},"geometry":{"type":"Point","coordinates":[23.6,46.77]}},{"type":"Feature","properties":{"name":"Sibiu","name_dt":"Hermannstadt","rang":3},"geometry":{"type":"Point","coordinates":[24.15,45.79]}},{"type":"Feature","properties":{"name":"Târgu Mureș","name_dt":"Neumarkt","rang":3},"geometry":{"type":"Point","coordinates":[24.56,46.54]}},{"type":"Feature","properties":{"name":"Bacău","name_dt":"","rang":3},"geometry":{"type":"Point","coordinates":[26.91,46.57]}},{"type":"Feature","properties":{"name":"Bistrița","name_dt":"Bistritz","rang":4},"geometry":{"type":"Point","coordinates":[24.5,47.13]}},{"type":"Feature","properties":{"name":"Miercurea Ciuc","name_dt":"","rang":4},"geometry":{"type":"Point","coordinates":[25.8,46.36]}},{"type":"Feature","properties":{"name":"Sfântu Gheorghe","name_dt":"Sankt Georgen","rang":4},"geometry":{"type":"Point","coordinates":[25.79,45.865]}},{"type":"Feature","properties":{"name":"Zărnești","name_dt":"Zernescht","rang":4},"geometry":{"type":"Point","coordinates":[25.34,45.56]}},{"type":"Feature","properties":{"name":"Petroșani","name_dt":"Petroschen","rang":4},"geometry":{"type":"Point","coordinates":[23.58,45.42]}},{"type":"Feature","properties":{"name":"Baia Mare","name_dt":"Frauenbach","rang":4},"geometry":{"type":"Point","coordinates":[23.58,47.66]}},{"type":"Feature","properties":{"name":"Suceava","name_dt":"","rang":4},"geometry":{"type":"Point","coordinates":[26.26,47.65]}},{"type":"Feature","properties":{"name":"Râmnicu Vâlcea","name_dt":"","rang":4},"geometry":{"type":"Point","coordinates":[24.37,45.1]}},{"type":"Feature","properties":{"name":"Ploiești","name_dt":"","rang":4},"geometry":{"type":"Point","coordinates":[26.02,44.94]}}]}