{
"type": "FeatureCollection",
"name": "SELECT",
"crs": { "type": "name", "properties": { "name": "urn:ogc:def:crs:OGC:1.3:CRS84" } },
"xy_coordinate_resolution": 0.0001,
"features": [
{"type":"Feature","properties":{"name":"Dahme","rang":2},"geometry":{"type":"MultiLineString","coordinates":[[[13.4374,51.8735],[13.4375,51.8736]],[[13.44,51.8766],[13.4399,51.8768]],[[13.5461,51.9055],[13.5512,51.9033],[13.5506,51.9008],[13.5658,51.8947],[13.5755,51.8946],[13.5853,51.8991],[13.5885,51.9042],[13.5858,51.9135],[13.5881,51.919],[13.5989,51.9261],[13.599,51.9323],[13.6066,51.9405],[13.6066,51.9468],[13.6181,51.9551],[13.6146,51.9619],[13.6196,51.9646],[13.6217,51.9713],[13.618,51.9774],[13.631,51.9902],[13.6292,52.005],[13.6588,52.0105],[13.6622,52.0172],[13.6672,52.0189],[13.6912,52.0223],[13.7025,52.0328],[13.7044,52.0436],[13.6959,52.0471],[13.6938,52.0488],[13.6932,52.0488],[13.6911,52.0504],[13.6896,52.0511],[13.6907,52.0569],[13.6976,52.0592],[13.701,52.0689],[13.7223,52.0866],[13.7239,52.09],[13.7205,52.0958],[13.729,52.1],[13.7361,52.0987],[13.7434,52.1059],[13.7576,52.1087],[13.7645,52.1137],[13.7659,52.1178],[13.7606,52.1247],[13.7599,52.1341],[13.7635,52.1407],[13.7593,52.1481],[13.7649,52.1535],[13.7627,52.159],[13.768,52.1657]],[[13.6438,52.3071],[13.6451,52.3208],[13.6418,52.3232],[13.6423,52.335],[13.6362,52.3462],[13.6375,52.3562],[13.6388,52.3601],[13.6406,52.3619],[13.6464,52.3654],[13.6475,52.3715],[13.6509,52.3726],[13.6589,52.3786],[13.6459,52.3853],[13.6452,52.3912],[13.6449,52.3918],[13.644,52.3932],[13.6428,52.3948],[13.6283,52.403],[13.6244,52.4088],[13.5859,52.4146],[13.5741,52.4324],[13.5764,52.4372],[13.5714,52.442],[13.5729,52.4482]],[[13.5737,52.4404],[13.5742,52.4419]],[[13.644,52.3932],[13.6369,52.398]],[[13.6378,52.3513],[13.6417,52.3558],[13.6406,52.3619]],[[13.6549,52.3761],[13.6532,52.3811]],[[13.6907,52.0505],[13.6886,52.0507]],[[13.7371,52.2558],[13.7391,52.2605]],[[13.77,52.233],[13.7724,52.2387],[13.7683,52.242],[13.7619,52.2419]],[[13.7687,52.1662],[13.7688,52.1701],[13.7794,52.181],[13.7716,52.1875],[13.7747,52.1957],[13.7841,52.2046],[13.7809,52.2123]],[[13.7739,52.2182],[13.7713,52.2184]]]}},
{"type":"Feature","properties":{"name":"Elbe","rang":1},"geometry":{"type":"MultiLineString","coordinates":[[[12.0419,52.8403],[12.0378,52.8477],[12.0232,52.8563],[12.0238,52.869],[12.0202,52.873],[11.9715,52.8725],[11.9468,52.8889],[11.8951,52.8937],[11.8725,52.9095],[11.839,52.9089],[11.8269,52.9129],[11.8221,52.9196],[11.8246,52.9266],[11.8454,52.9385],[11.8496,52.9441],[11.8486,52.9499],[11.8398,52.9554],[11.7847,52.9611],[11.7654,52.9814],[11.7448,52.9888],[11.73,52.9883],[11.699,52.9772],[11.6903,52.9787],[11.6837,52.9846],[11.6845,53.0003],[11.6775,53.0085],[11.6674,53.0102],[11.6443,53.0048],[11.626,53.0119],[11.6259,53.0214],[11.642,53.0328],[11.6388,53.0396],[11.6197,53.0419],[11.5887,53.0348],[11.5629,53.0419],[11.5475,53.0527],[11.5267,53.0466],[11.509,53.0473],[11.4948,53.0532],[11.4659,53.074],[11.4495,53.0789],[11.4027,53.0728],[11.3538,53.055],[11.3394,53.0545],[11.3295,53.0594],[11.3106,53.0776],[11.2895,53.0853],[11.2689,53.1003],[11.2676,53.1204],[11.2446,53.1373],[11.2147,53.1444],[11.1948,53.1352],[11.1862,53.1351],[11.1821,53.1378],[11.1733,53.1556]],[[13.2374,51.353],[13.2292,51.3607],[13.2295,51.3644],[13.2514,51.3721],[13.2547,51.3827],[13.2409,51.3945],[13.2182,51.3947],[13.2129,51.3982],[13.2017,51.4172],[13.2035,51.4301],[13.1917,51.438],[13.1933,51.4427],[13.2022,51.4491],[13.2042,51.4564],[13.1829,51.4711],[13.1873,51.4855],[13.1855,51.4898],[13.1754,51.4941],[13.1599,51.4925],[13.1502,51.4887],[13.1468,51.4802],[13.1402,51.4776],[13.1344,51.4794],[13.1246,51.4919],[13.1114,51.4977]]]}},
{"type":"Feature","properties":{"name":"Havel","rang":1},"geometry":{"type":"MultiLineString","coordinates":[[[12.067,52.8254],[12.0476,52.8607],[12.049,52.8717],[12.0458,52.8856],[12.0162,52.8845],[12.0089,52.8774]],[[12.0477,52.8654],[12.0483,52.8736]],[[12.2641,52.668],[12.2387,52.6662],[12.2348,52.6805],[12.2272,52.6822],[12.217,52.6977],[12.1996,52.7096],[12.2073,52.7158],[12.2059,52.7221],[12.2094,52.7347],[12.2196,52.7476],[12.2171,52.7546],[12.2223,52.7608],[12.2201,52.7723],[12.2233,52.7873],[12.2089,52.7964],[12.1895,52.7969],[12.1357,52.8137]],[[12.2034,52.7584],[12.2058,52.7604]],[[12.2142,52.7463],[12.2127,52.7482]],[[12.2641,52.668],[12.2588,52.665],[12.2506,52.6659]],[[12.3163,52.611],[12.3145,52.6142],[12.3219,52.6294],[12.3178,52.6412],[12.3336,52.651],[12.3322,52.6575],[12.32,52.6575],[12.2964,52.6716],[12.2928,52.671],[12.2918,52.6651],[12.2861,52.6623],[12.2702,52.669],[12.2641,52.668]],[[12.423,52.4092],[12.4319,52.425],[12.4202,52.4358],[12.4247,52.4424],[12.4203,52.4503],[12.4308,52.4558],[12.4484,52.4752],[12.4501,52.4888],[12.455,52.4928],[12.4432,52.5026],[12.4186,52.5014],[12.4057,52.4971],[12.3836,52.5152],[12.3512,52.5148],[12.3355,52.5277],[12.3094,52.5278],[12.304,52.5453],[12.3147,52.5514],[12.3107,52.5598],[12.3232,52.5693],[12.3219,52.5804],[12.33,52.5889],[12.3145,52.598]],[[12.4235,52.5017],[12.4156,52.509],[12.4113,52.4994]],[[12.5715,52.4224],[12.5661,52.4237]],[[12.8244,52.4727],[12.8136,52.4746],[12.7814,52.465],[12.7637,52.4577],[12.7588,52.4509],[12.7243,52.4517],[12.6639,52.4405],[12.6494,52.432],[12.6327,52.4314],[12.6053,52.4225],[12.5777,52.4209]],[[12.8755,52.4613],[12.8558,52.4626],[12.8346,52.4712]],[[12.9357,52.3915],[12.9353,52.3933]],[[12.9643,52.3572],[12.96,52.3596]],[[13.0336,53.2198],[13.03,53.2159]],[[13.0557,53.2005],[13.0601,53.2007]],[[13.0874,52.4091],[13.062,52.3925]],[[13.0789,53.2001],[13.0816,53.1954]],[[13.1353,53.1839],[13.1423,53.1822]],[[13.1458,53.1813],[13.1467,53.1814]],[[13.1513,53.1843],[13.1524,53.1853]],[[13.2089,52.5412],[13.2087,52.5369],[13.2003,52.5307],[13.2062,52.5202],[13.1991,52.503]],[[13.2561,52.7398],[13.255,52.728],[13.245,52.7137],[13.2516,52.6965],[13.2477,52.6872],[13.2171,52.6581],[13.2171,52.6282],[13.2113,52.6188]],[[13.2203,53.1677],[13.2245,53.1624],[13.2209,53.1562],[13.2333,53.155],[13.2324,53.1504],[13.2379,53.1499],[13.2312,53.1436],[13.2366,53.1439],[13.2342,53.1409],[13.2389,53.1411],[13.2434,53.1302],[13.2626,53.1311],[13.2763,53.1373],[13.2875,53.1385],[13.2876,53.1362],[13.2938,53.1351],[13.2978,53.1273],[13.3112,53.1214],[13.3155,53.1125],[13.3216,53.1114],[13.3231,53.1012],[13.3346,53.0968],[13.3495,53.0963],[13.352,53.0916],[13.363,53.0876],[13.3616,53.0849],[13.3671,53.0818],[13.3659,53.0786],[13.3506,53.0763],[13.3497,53.0709],[13.3322,53.072],[13.3291,53.0673],[13.3073,53.0618],[13.2997,53.0566],[13.3,53.0526],[13.2952,53.051],[13.313,53.0358],[13.324,53.004],[13.3341,52.9909],[13.3313,52.9836],[13.3431,52.9772]],[[13.3311,52.9839],[13.3316,52.982],[13.3338,52.9818]]]}},
{"type":"Feature","properties":{"name":"Lausitzer Neiße","rang":1},"geometry":{"type":"MultiLineString","coordinates":[[[14.6653,51.7302],[14.665,51.7313]],[[14.6704,51.725],[14.6669,51.7258]]]}},
{"type":"Feature","properties":{"name":"Nuthe","rang":2},"geometry":{"type":"MultiLineString","coordinates":[[[13.1907,52.2558],[13.1561,52.2772],[13.1467,52.29],[13.1401,52.3112],[13.1231,52.3318],[13.1211,52.3452],[13.1254,52.35],[13.1104,52.3702],[13.0698,52.3958]],[[13.2067,52.132],[13.202,52.1492],[13.1942,52.1513],[13.1872,52.1592],[13.2018,52.1715],[13.1963,52.1801],[13.1963,52.1895],[13.1918,52.1948],[13.2065,52.2151],[13.2055,52.2254],[13.2133,52.2341],[13.1909,52.2556]]]}},
{"type":"Feature","properties":{"name":"Schwarze Elster","rang":2},"geometry":{"type":"LineString","coordinates":[[14.2035,51.4671],[14.1962,51.4773],[14.1969,51.4834],[14.1898,51.4879],[14.1499,51.493],[14.1399,51.4881],[14.1137,51.4871],[14.0728,51.4973],[14.0647,51.5018],[14.0601,51.5123],[14.0155,51.5171],[13.9951,51.5119],[13.9529,51.4844],[13.9219,51.4699],[13.8825,51.4626],[13.8463,51.4652],[13.7206,51.4588],[13.6379,51.4633],[13.5972,51.4537],[13.5344,51.4574],[13.5027,51.4533],[13.4748,51.464],[13.4618,51.4788],[13.4356,51.4851],[13.4214,51.4952],[13.4052,51.5156],[13.3892,51.5213],[13.381,51.5324],[13.3672,51.5415],[13.3662,51.5525],[13.3554,51.5696],[13.3333,51.5859],[13.321,51.6008],[13.2878,51.6212],[13.2728,51.6423],[13.2656,51.6639],[13.2518,51.6751],[13.2498,51.684],[13.243,51.6924],[13.2458,51.6962],[13.2291,51.7098],[13.21,51.7165],[13.1823,51.7337],[13.1386,51.75],[13.1203,51.7511],[13.1172,51.7566],[13.1111,51.7567],[13.1082,51.7608],[13.095,51.7615],[13.0655,51.7807],[13.058,51.781],[13.0396,51.7895],[13.0223,51.7929],[12.9863,51.7871],[12.976,51.7899],[12.9587,51.7829],[12.9482,51.7834],[12.9322,51.7901],[12.9202,51.7873],[12.9119,51.7978],[12.8931,51.7965],[12.8673,51.8028],[12.8525,51.8112],[12.8361,51.8096],[12.8322,51.8122],[12.8324,51.8169]]}},
{"type":"Feature","properties":{"name":"Spree","rang":1},"geometry":{"type":"MultiLineString","coordinates":[[[13.4078,52.515],[13.3956,52.5222],[13.3796,52.5192],[13.3712,52.523],[13.3571,52.5173],[13.3426,52.5228],[13.3327,52.5169],[13.3243,52.5249],[13.3162,52.5201],[13.2981,52.5223],[13.2933,52.5307],[13.2516,52.5275],[13.2316,52.5343],[13.2073,52.5356]],[[13.414,52.5147],[13.4127,52.5142],[13.4071,52.5147],[13.4051,52.5162]],[[13.4092,52.5148],[13.4078,52.515]],[[13.4092,52.515],[13.4078,52.515]],[[13.4128,52.5146],[13.4113,52.5146]],[[13.4128,52.5146],[13.4114,52.5148]],[[13.4775,52.4904],[13.4226,52.5126],[13.416,52.5147],[13.414,52.5147],[13.4128,52.5146]],[[13.5747,52.4485],[13.5729,52.4482]],[[13.8975,52.393],[13.8923,52.3898],[13.896,52.3873],[13.8903,52.3816],[13.8853,52.3819],[13.8855,52.3785],[13.8797,52.3813],[13.8806,52.3744],[13.8754,52.3767],[13.8655,52.3702],[13.8548,52.3686],[13.8381,52.356],[13.8182,52.3582],[13.8039,52.3684],[13.7942,52.3694],[13.7951,52.3737],[13.7882,52.3827],[13.7816,52.3827],[13.7647,52.3915],[13.7448,52.3912],[13.7475,52.3964],[13.7442,52.4009],[13.7458,52.4044],[13.734,52.4106],[13.7296,52.4158],[13.7321,52.4194]],[[13.9637,51.8831],[13.9422,51.8907],[13.9385,51.8926],[13.9373,51.8934],[13.9144,51.9204],[13.9157,51.9235],[13.9115,51.9287],[13.9037,51.9313],[13.8937,51.9416],[13.8973,51.9452],[13.8947,51.9478],[13.8959,51.9571],[13.9,51.9613],[13.8952,51.9667],[13.8951,51.9727],[13.8887,51.979],[13.893,51.9832],[13.8921,51.9877],[13.8824,51.9924],[13.8726,52.0129],[13.8839,52.0256],[13.8896,52.0277],[13.8901,52.0293],[13.89,52.0297],[13.89,52.0298],[13.8872,52.0358],[13.8896,52.0368],[13.8897,52.0433],[13.8897,52.0434],[13.8897,52.0439],[13.8893,52.0449],[13.8943,52.0534],[13.8845,52.0641],[13.8775,52.0848]],[[13.8775,52.0849],[13.8788,52.0897],[13.8831,52.0939],[13.888,52.0962]],[[13.8874,52.0957],[13.888,52.0962]],[[13.888,52.0962],[13.9243,52.1177],[13.9393,52.1219],[13.951,52.1183]],[[13.8889,52.041],[13.8891,52.0414]],[[13.889,52.0399],[13.8893,52.0404]],[[13.8894,52.0427],[13.8897,52.0434]],[[13.89,52.0297],[13.8895,52.0305]],[[13.938,51.893],[13.937,51.8939]],[[13.951,52.1183],[13.9531,52.1185]],[[13.951,52.1183],[13.9563,52.117]],[[13.9537,52.1184],[13.9563,52.117]],[[13.9563,52.117],[13.9674,52.1145],[13.9781,52.1192],[13.9938,52.1204],[14.0051,52.1176],[14.0081,52.1108],[14.0273,52.1106],[14.0459,52.1182],[14.0624,52.118]],[[13.9637,51.8827],[13.9637,51.8831]],[[13.964,51.8823],[13.9637,51.8831]],[[13.964,51.8823],[13.9638,51.8826]],[[13.972,51.8681],[13.9727,51.8748],[13.964,51.8823]],[[14.0055,52.1177],[14.006,52.1161]],[[14.0586,51.8446],[14.0378,51.8577],[14.0288,51.8579]],[[14.0475,52.1208],[14.0516,52.123],[14.0527,52.1191]],[[14.0624,52.118],[14.0649,52.1171]],[[14.0624,52.118],[14.0637,52.1179],[14.0649,52.1171]],[[14.0649,52.1171],[14.0658,52.104],[14.0792,52.1028],[14.1061,52.109],[14.1408,52.1009],[14.1643,52.0852],[14.1892,52.0837],[14.1984,52.0914],[14.1978,52.0965],[14.1936,52.0997],[14.2112,52.1071],[14.2048,52.1216],[14.2077,52.1285],[14.2245,52.1427],[14.2216,52.1511],[14.2333,52.1549],[14.2459,52.167],[14.2545,52.1704]],[[14.0955,51.8394],[14.0922,51.8389]],[[14.0966,51.8398],[14.0955,51.8394]],[[14.0959,51.8396],[14.0955,51.8394]],[[14.0966,51.8398],[14.0961,51.8397]],[[14.1186,51.8452],[14.0966,51.8398]],[[14.2049,51.8392],[14.1485,51.8372],[14.1402,51.8424],[14.1188,51.8452]],[[14.2637,51.8459],[14.2341,51.8403],[14.211,51.842]],[[14.2558,52.1724],[14.257,52.1757],[14.2683,52.1808],[14.2657,52.1853],[14.276,52.2033],[14.2761,52.2077],[14.2716,52.2097],[14.2761,52.2138],[14.2723,52.2206],[14.277,52.2241],[14.2638,52.2395],[14.2638,52.2452],[14.2552,52.2497],[14.2612,52.2568],[14.2802,52.2573],[14.2864,52.2606],[14.2701,52.2682],[14.2735,52.2725],[14.2678,52.2762],[14.2702,52.2794],[14.2682,52.2821],[14.2757,52.2838],[14.2819,52.2928],[14.2741,52.297],[14.258,52.2947],[14.2525,52.2997],[14.2424,52.2953],[14.2413,52.2904],[14.235,52.2899]],[[14.2545,52.1704],[14.2558,52.1724]],[[14.2545,52.1704],[14.2543,52.1714],[14.2558,52.1724]],[[14.2637,51.8459],[14.2561,51.8437]],[[14.3766,51.5698],[14.368,51.5789],[14.3668,51.5851],[14.3865,51.5961],[14.3842,51.6051],[14.3912,51.6105],[14.389,51.6183],[14.3932,51.6198],[14.3932,51.6344],[14.3897,51.659],[14.3977,51.666],[14.4067,51.6651],[14.4102,51.6709],[14.4061,51.6852],[14.4012,51.6901],[14.3798,51.6955],[14.3728,51.7015],[14.3773,51.708],[14.3574,51.7159],[14.3514,51.7273],[14.357,51.7365],[14.3437,51.7432],[14.3458,51.7497],[14.342,51.7527],[14.3388,51.7659],[14.3547,51.7683],[14.358,51.7802],[14.3701,51.7849],[14.3588,51.7973],[14.3596,51.8054],[14.3532,51.8179],[14.3546,51.8214],[14.3472,51.8342],[14.3367,51.8426],[14.3366,51.8426],[14.3364,51.8429],[14.3361,51.8432],[14.336,51.8437],[14.3357,51.844],[14.3324,51.8467],[14.3173,51.8473],[14.3092,51.8511],[14.2906,51.845],[14.2822,51.8446],[14.2741,51.8449],[14.2691,51.8461],[14.2656,51.8464],[14.2637,51.8459]],[[14.2714,51.8454],[14.2697,51.846]],[[14.3366,51.8426],[14.3361,51.8432]],[[14.3809,51.5669],[14.3812,51.5728],[14.3715,51.5755]],[[14.4043,51.5107],[14.4065,51.5144],[14.3972,51.5305],[14.386,51.5341],[14.388,51.557],[14.3777,51.5691]]]}}
]
}
