{
"type": "FeatureCollection",
"name": "SELECT",
"crs": { "type": "name", "properties": { "name": "urn:ogc:def:crs:OGC:1.3:CRS84" } },
"xy_coordinate_resolution": 0.0001,
"features": [
{"type":"Feature","properties":{"name":"Königs Wusterhausen","rang":4,"einwohner":38111},"geometry":{"type":"Point","coordinates":[13.6244,52.2995]}},
{"type":"Feature","properties":{"name":"Bad Liebenwerda","rang":4,"einwohner":9486},"geometry":{"type":"Point","coordinates":[13.3927,51.5158]}},
{"type":"Feature","properties":{"name":"Teltow","rang":4,"einwohner":19541},"geometry":{"type":"Point","coordinates":[13.2645,52.4016]}},
{"type":"Feature","properties":{"name":"Schönefeld","rang":4,"einwohner":17017},"geometry":{"type":"Point","coordinates":[13.5048,52.3886]}},
{"type":"Feature","properties":{"name":"Werneuchen","rang":4,"einwohner":7900},"geometry":{"type":"Point","coordinates":[13.7341,52.6335]}},
{"type":"Feature","properties":{"name":"Liebenwalde","rang":4,"einwohner":4670},"geometry":{"type":"Point","coordinates":[13.3944,52.8726]}},
{"type":"Feature","properties":{"name":"Neuruppin","rang":4,"einwohner":31037},"geometry":{"type":"Point","coordinates":[12.8093,52.9244]}},
{"type":"Feature","properties":{"name":"Friesack","rang":4,"einwohner":2904},"geometry":{"type":"Point","coordinates":[12.5783,52.7395]}},
{"type":"Feature","properties":{"name":"Kyritz","rang":4,"einwohner":9152},"geometry":{"type":"Point","coordinates":[12.3967,52.9431]}},
{"type":"Feature","properties":{"name":"Perleberg","rang":4,"einwohner":12046},"geometry":{"type":"Point","coordinates":[11.8628,53.0763]}},
{"type":"Feature","properties":{"name":"Velten","rang":4,"einwohner":11475},"geometry":{"type":"Point","coordinates":[13.1776,52.6882]}},
{"type":"Feature","properties":{"name":"Oranienburg","rang":4,"einwohner":42028},"geometry":{"type":"Point","coordinates":[13.2458,52.7529]}},
{"type":"Feature","properties":{"name":"Falkensee","rang":4,"einwohner":40900},"geometry":{"type":"Point","coordinates":[13.0882,52.5606]}},
{"type":"Feature","properties":{"name":"Hennigsdorf","rang":4,"einwohner":25800},"geometry":{"type":"Point","coordinates":[13.2058,52.6376]}},
{"type":"Feature","properties":{"name":"Bad Belzig","rang":4,"einwohner":11407},"geometry":{"type":"Point","coordinates":[12.5866,52.1406]}},
{"type":"Feature","properties":{"name":"Luckenwalde","rang":4,"einwohner":20185},"geometry":{"type":"Point","coordinates":[13.1742,52.0902]}},
{"type":"Feature","properties":{"name":"Putlitz","rang":4,"einwohner":2664},"geometry":{"type":"Point","coordinates":[12.041,53.2506]}},
{"type":"Feature","properties":{"name":"Dömitz","rang":4,"einwohner":2570},"geometry":{"type":"Point","coordinates":[11.2609,53.1385]}},
{"type":"Feature","properties":{"name":"Ludwigsfelde","rang":4,"einwohner":24168},"geometry":{"type":"Point","coordinates":[13.261,52.3016]}},
{"type":"Feature","properties":{"name":"Altlandsberg","rang":4,"einwohner":8189},"geometry":{"type":"Point","coordinates":[13.7246,52.5615]}},
{"type":"Feature","properties":{"name":"Kremmen","rang":4,"einwohner":7110},"geometry":{"type":"Point","coordinates":[13.0295,52.7605]}},
{"type":"Feature","properties":{"name":"Templin","rang":4,"einwohner":13681},"geometry":{"type":"Point","coordinates":[13.5006,53.1193]}},
{"type":"Feature","properties":{"name":"Trebbin","rang":4,"einwohner":9250},"geometry":{"type":"Point","coordinates":[13.214,52.215]}},
{"type":"Feature","properties":{"name":"Finsterwalde","rang":4,"einwohner":16561},"geometry":{"type":"Point","coordinates":[13.7074,51.6315]}},
{"type":"Feature","properties":{"name":"Doberlug-Kirchhain","rang":4,"einwohner":8759},"geometry":{"type":"Point","coordinates":[13.566,51.622]}},
{"type":"Feature","properties":{"name":"Rheinsberg","rang":4,"einwohner":8120},"geometry":{"type":"Point","coordinates":[12.891,53.0983]}},
{"type":"Feature","properties":{"name":"Teupitz","rang":4,"einwohner":1785},"geometry":{"type":"Point","coordinates":[13.6098,52.136]}},
{"type":"Feature","properties":{"name":"Jüterbog","rang":4,"einwohner":12830},"geometry":{"type":"Point","coordinates":[13.0801,51.9916]}},
{"type":"Feature","properties":{"name":"Elsterwerda","rang":4,"einwohner":8287},"geometry":{"type":"Point","coordinates":[13.5205,51.4615]}},
{"type":"Feature","properties":{"name":"Lychen","rang":4,"einwohner":3114},"geometry":{"type":"Point","coordinates":[13.3165,53.2083]}},
{"type":"Feature","properties":{"name":"Gransee","rang":4,"einwohner":5721},"geometry":{"type":"Point","coordinates":[13.1589,53.0073]}},
{"type":"Feature","properties":{"name":"Ruhland","rang":4,"einwohner":3747},"geometry":{"type":"Point","coordinates":[13.8656,51.4591]}},
{"type":"Feature","properties":{"name":"Schwarzheide","rang":4,"einwohner":5743},"geometry":{"type":"Point","coordinates":[13.8307,51.4858]}},
{"type":"Feature","properties":{"name":"Schönewalde","rang":4,"einwohner":3164},"geometry":{"type":"Point","coordinates":[13.2279,51.8142]}},
{"type":"Feature","properties":{"name":"Sonnewalde","rang":4,"einwohner":3359},"geometry":{"type":"Point","coordinates":[13.6451,51.6951]}},
{"type":"Feature","properties":{"name":"Ortrand","rang":4,"einwohner":2196},"geometry":{"type":"Point","coordinates":[13.7577,51.3761]}},
{"type":"Feature","properties":{"name":"Ahrensfelde","rang":4,"einwohner":15612},"geometry":{"type":"Point","coordinates":[13.5739,52.5782]}},
{"type":"Feature","properties":{"name":"Strausberg","rang":4,"einwohner":26593},"geometry":{"type":"Point","coordinates":[13.8834,52.5814]}},
{"type":"Feature","properties":{"name":"Zehdenick","rang":4,"einwohner":10974},"geometry":{"type":"Point","coordinates":[13.3349,52.9795]}},
{"type":"Feature","properties":{"name":"Lindow (Mark)","rang":4,"einwohner":3200},"geometry":{"type":"Point","coordinates":[12.9872,52.9744]}},
{"type":"Feature","properties":{"name":"Neustadt (Dosse)","rang":4,"einwohner":3403},"geometry":{"type":"Point","coordinates":[12.4405,52.8551]}},
{"type":"Feature","properties":{"name":"Schlieben","rang":4,"einwohner":2422},"geometry":{"type":"Point","coordinates":[13.3848,51.7241]}},
{"type":"Feature","properties":{"name":"Schnackenburg","rang":4,"einwohner":577},"geometry":{"type":"Point","coordinates":[11.5645,53.0365]}},
{"type":"Feature","properties":{"name":"Werder (Havel)","rang":4,"einwohner":null},"geometry":{"type":"Point","coordinates":[12.9329,52.3716]}},
{"type":"Feature","properties":{"name":"Nauen","rang":4,"einwohner":16616},"geometry":{"type":"Point","coordinates":[12.8773,52.6061]}},
{"type":"Feature","properties":{"name":"Wittstock/Dosse","rang":4,"einwohner":14631},"geometry":{"type":"Point","coordinates":[12.4869,53.163]}},
{"type":"Feature","properties":{"name":"Oderberg","rang":4,"einwohner":2107},"geometry":{"type":"Point","coordinates":[14.045,52.8659]}},
{"type":"Feature","properties":{"name":"Hohen Neuendorf","rang":4,"einwohner":25001},"geometry":{"type":"Point","coordinates":[13.2807,52.6733]}},
{"type":"Feature","properties":{"name":"Fürstenberg/Havel","rang":4,"einwohner":6500},"geometry":{"type":"Point","coordinates":[13.1457,53.1852]}},
{"type":"Feature","properties":{"name":"Schöneiche bei Berlin","rang":4,"einwohner":13145},"geometry":{"type":"Point","coordinates":[13.6972,52.4783]}},
{"type":"Feature","properties":{"name":"Lauta","rang":4,"einwohner":8053},"geometry":{"type":"Point","coordinates":[14.095,51.455]}},
{"type":"Feature","properties":{"name":"Biesenthal","rang":4,"einwohner":5600},"geometry":{"type":"Point","coordinates":[13.629,52.7665]}},
{"type":"Feature","properties":{"name":"Friedland","rang":4,"einwohner":3077},"geometry":{"type":"Point","coordinates":[14.2641,52.1054]}},
{"type":"Feature","properties":{"name":"Mühlberg/Elbe","rang":4,"einwohner":3969},"geometry":{"type":"Point","coordinates":[13.2172,51.4344]}},
{"type":"Feature","properties":{"name":"Stahnsdorf","rang":4,"einwohner":12216},"geometry":{"type":"Point","coordinates":[13.2077,52.387]}},
{"type":"Feature","properties":{"name":"Mittenwalde","rang":4,"einwohner":8700},"geometry":{"type":"Point","coordinates":[13.5361,52.2642]}},
{"type":"Feature","properties":{"name":"Fehrbellin","rang":4,"einwohner":9000},"geometry":{"type":"Point","coordinates":[12.7652,52.8142]}},
{"type":"Feature","properties":{"name":"Werben (Elbe)","rang":4,"einwohner":1151},"geometry":{"type":"Point","coordinates":[11.9822,52.8612]}},
{"type":"Feature","properties":{"name":"Wittenberge","rang":4,"einwohner":16925},"geometry":{"type":"Point","coordinates":[11.7507,52.9984]}},
{"type":"Feature","properties":{"name":"Müllrose","rang":4,"einwohner":4463},"geometry":{"type":"Point","coordinates":[14.4181,52.2468]}},
{"type":"Feature","properties":{"name":"Gartz (Oder)","rang":4,"einwohner":2492},"geometry":{"type":"Point","coordinates":[14.3914,53.2086]}},
{"type":"Feature","properties":{"name":"Strasburg (Uckermark)","rang":4,"einwohner":4635},"geometry":{"type":"Point","coordinates":[13.7434,53.5084]}},
{"type":"Feature","properties":{"name":"Wusterhausen/Dosse","rang":4,"einwohner":6400},"geometry":{"type":"Point","coordinates":[12.4618,52.8902]}},
{"type":"Feature","properties":{"name":"Brüssow","rang":4,"einwohner":1800},"geometry":{"type":"Point","coordinates":[14.1267,53.3995]}},
{"type":"Feature","properties":{"name":"Lübben (Spreewald) - Lubin (Błota)","rang":4,"einwohner":14017},"geometry":{"type":"Point","coordinates":[13.8964,51.9419]}},
{"type":"Feature","properties":{"name":"Brandenburg an der Havel","rang":4,"einwohner":74113},"geometry":{"type":"Point","coordinates":[12.5498,52.4108]}},
{"type":"Feature","properties":{"name":"Panketal","rang":4,"einwohner":20131},"geometry":{"type":"Point","coordinates":[13.5412,52.648]}},
{"type":"Feature","properties":{"name":"Treuenbrietzen","rang":4,"einwohner":8001},"geometry":{"type":"Point","coordinates":[12.8735,52.0967]}},
{"type":"Feature","properties":{"name":"Beelitz","rang":4,"einwohner":12000},"geometry":{"type":"Point","coordinates":[12.97,52.2364]}},
{"type":"Feature","properties":{"name":"Uebigau","rang":4,"einwohner":5092},"geometry":{"type":"Point","coordinates":[13.3003,51.5949]}},
{"type":"Feature","properties":{"name":"Wriezen","rang":4,"einwohner":7379},"geometry":{"type":"Point","coordinates":[14.1366,52.7168]}},
{"type":"Feature","properties":{"name":"Brück","rang":4,"einwohner":3945},"geometry":{"type":"Point","coordinates":[12.7584,52.1924]}},
{"type":"Feature","properties":{"name":"Baruth/Mark","rang":4,"einwohner":4171},"geometry":{"type":"Point","coordinates":[13.5019,52.0463]}},
{"type":"Feature","properties":{"name":"Zossen","rang":4,"einwohner":17600},"geometry":{"type":"Point","coordinates":[13.4489,52.2159]}},
{"type":"Feature","properties":{"name":"Karstädt","rang":4,"einwohner":5967},"geometry":{"type":"Point","coordinates":[11.747,53.1581]}},
{"type":"Feature","properties":{"name":"Fürstenwalde/Spree","rang":4,"einwohner":30967},"geometry":{"type":"Point","coordinates":[14.065,52.358]}},
{"type":"Feature","properties":{"name":"Herzberg (Elster)","rang":4,"einwohner":9161},"geometry":{"type":"Point","coordinates":[13.2359,51.6924]}},
{"type":"Feature","properties":{"name":"Meyenburg","rang":4,"einwohner":2065},"geometry":{"type":"Point","coordinates":[12.2426,53.314]}},
{"type":"Feature","properties":{"name":"Bad Wilsnack","rang":4,"einwohner":2533},"geometry":{"type":"Point","coordinates":[11.9449,52.9557]}},
{"type":"Feature","properties":{"name":"Lenzen (Elbe)","rang":4,"einwohner":2071},"geometry":{"type":"Point","coordinates":[11.4749,53.0908]}},
{"type":"Feature","properties":{"name":"Niemegk","rang":4,"einwohner":1999},"geometry":{"type":"Point","coordinates":[12.6893,52.0748]}},
{"type":"Feature","properties":{"name":"Berlin","rang":1,"einwohner":3769962},"geometry":{"type":"Point","coordinates":[13.3951,52.5174]}},
{"type":"Feature","properties":{"name":"Joachimsthal","rang":4,"einwohner":3448},"geometry":{"type":"Point","coordinates":[13.7453,52.9771]}},
{"type":"Feature","properties":{"name":"Wildau","rang":4,"einwohner":10633},"geometry":{"type":"Point","coordinates":[13.6349,52.3214]}},
{"type":"Feature","properties":{"name":"Storkow (Mark)","rang":4,"einwohner":4000},"geometry":{"type":"Point","coordinates":[13.9305,52.2533]}},
{"type":"Feature","properties":{"name":"Ketzin/Havel","rang":4,"einwohner":3942},"geometry":{"type":"Point","coordinates":[12.8444,52.4769]}},
{"type":"Feature","properties":{"name":"Falkenberg/Elster","rang":4,"einwohner":6561},"geometry":{"type":"Point","coordinates":[13.2435,51.5855]}},
{"type":"Feature","properties":{"name":"Dahme/Mark","rang":4,"einwohner":4863},"geometry":{"type":"Point","coordinates":[13.4285,51.8699]}},
{"type":"Feature","properties":{"name":"Rhinow","rang":4,"einwohner":2012},"geometry":{"type":"Point","coordinates":[12.3411,52.7509]}},
{"type":"Feature","properties":{"name":"Bad Freienwalde (Oder)","rang":4,"einwohner":12403},"geometry":{"type":"Point","coordinates":[14.0301,52.7875]}},
{"type":"Feature","properties":{"name":"Luckau","rang":4,"einwohner":9567},"geometry":{"type":"Point","coordinates":[13.715,51.8524]}},
{"type":"Feature","properties":{"name":"Kleinmachnow","rang":4,"einwohner":19777},"geometry":{"type":"Point","coordinates":[13.2237,52.4064]}},
{"type":"Feature","properties":{"name":"Prenzlau","rang":4,"einwohner":18970},"geometry":{"type":"Point","coordinates":[13.8666,53.3167]}},
{"type":"Feature","properties":{"name":"Schwedt","rang":4,"einwohner":null},"geometry":{"type":"Point","coordinates":[14.2841,53.0586]}},
{"type":"Feature","properties":{"name":"Märkisch Buchholz","rang":4,"einwohner":818},"geometry":{"type":"Point","coordinates":[13.7628,52.1102]}},
{"type":"Feature","properties":{"name":"Frankfurt (Oder)","rang":4,"einwohner":61969},"geometry":{"type":"Point","coordinates":[14.5495,52.3412]}},
{"type":"Feature","properties":{"name":"Beeskow","rang":4,"einwohner":7964},"geometry":{"type":"Point","coordinates":[14.2471,52.1722]}},
{"type":"Feature","properties":{"name":"Lieberose","rang":4,"einwohner":1464},"geometry":{"type":"Point","coordinates":[14.2997,51.9866]}},
{"type":"Feature","properties":{"name":"Eisenhüttenstadt","rang":4,"einwohner":30234},"geometry":{"type":"Point","coordinates":[14.6294,52.1449]}},
{"type":"Feature","properties":{"name":"Guben","rang":4,"einwohner":17655},"geometry":{"type":"Point","coordinates":[14.7154,51.9503]}},
{"type":"Feature","properties":{"name":"Spremberg - Grodk","rang":4,"einwohner":21140},"geometry":{"type":"Point","coordinates":[14.3804,51.5715]}},
{"type":"Feature","properties":{"name":"Welzow - Wjelcej","rang":4,"einwohner":3384},"geometry":{"type":"Point","coordinates":[14.1706,51.5838]}},
{"type":"Feature","properties":{"name":"Eberswalde","rang":4,"einwohner":38844},"geometry":{"type":"Point","coordinates":[13.7997,52.8351]}},
{"type":"Feature","properties":{"name":"Peitz - Picnjo","rang":4,"einwohner":4449},"geometry":{"type":"Point","coordinates":[14.411,51.8585]}},
{"type":"Feature","properties":{"name":"Lübbenau/Spreewald - Lubnjow/Błota","rang":4,"einwohner":16109},"geometry":{"type":"Point","coordinates":[13.9689,51.868]}},
{"type":"Feature","properties":{"name":"Cottbus - Chóśebuz","rang":4,"einwohner":98693},"geometry":{"type":"Point","coordinates":[14.3357,51.7567]}},
{"type":"Feature","properties":{"name":"Calau - Kalawa","rang":4,"einwohner":8034},"geometry":{"type":"Point","coordinates":[13.9493,51.7467]}},
{"type":"Feature","properties":{"name":"Forst (Lausitz) - Baršć (Łužyca)","rang":4,"einwohner":19053},"geometry":{"type":"Point","coordinates":[14.6455,51.7439]}},
{"type":"Feature","properties":{"name":"Drebkau - Drjowk","rang":4,"einwohner":5734},"geometry":{"type":"Point","coordinates":[14.2205,51.6577]}},
{"type":"Feature","properties":{"name":"Golßen","rang":4,"einwohner":2923},"geometry":{"type":"Point","coordinates":[13.6045,51.9709]}},
{"type":"Feature","properties":{"name":"Großräschen","rang":4,"einwohner":8863},"geometry":{"type":"Point","coordinates":[14.0123,51.5883]}},
{"type":"Feature","properties":{"name":"Senftenberg - Zły Komorow","rang":4,"einwohner":24987},"geometry":{"type":"Point","coordinates":[14.0047,51.5192]}},
{"type":"Feature","properties":{"name":"Vetschau/Spreewald - Wětošow/Błota","rang":4,"einwohner":8491},"geometry":{"type":"Point","coordinates":[14.0748,51.7827]}},
{"type":"Feature","properties":{"name":"Erkner","rang":4,"einwohner":11641},"geometry":{"type":"Point","coordinates":[13.7543,52.426]}},
{"type":"Feature","properties":{"name":"Müncheberg","rang":4,"einwohner":6722},"geometry":{"type":"Point","coordinates":[14.1405,52.5037]}},
{"type":"Feature","properties":{"name":"Buckow (Märkische Schweiz)","rang":4,"einwohner":1500},"geometry":{"type":"Point","coordinates":[14.0762,52.5672]}},
{"type":"Feature","properties":{"name":"Lebus","rang":4,"einwohner":3144},"geometry":{"type":"Point","coordinates":[14.5338,52.4271]}},
{"type":"Feature","properties":{"name":"Seelow","rang":4,"einwohner":5316},"geometry":{"type":"Point","coordinates":[14.3807,52.5318]}},
{"type":"Feature","properties":{"name":"Potsdam","rang":2,"einwohner":178089},"geometry":{"type":"Point","coordinates":[13.0591,52.4009]}},
{"type":"Feature","properties":{"name":"Pritzwalk","rang":4,"einwohner":11879},"geometry":{"type":"Point","coordinates":[12.1762,53.1493]}},
{"type":"Feature","properties":{"name":"Angermünde","rang":4,"einwohner":13600},"geometry":{"type":"Point","coordinates":[13.9982,53.0173]}},
{"type":"Feature","properties":{"name":"Bernau bei Berlin","rang":4,"einwohner":36222},"geometry":{"type":"Point","coordinates":[13.5881,52.6787]}},
{"type":"Feature","properties":{"name":"Ziesar","rang":4,"einwohner":2510},"geometry":{"type":"Point","coordinates":[12.2899,52.2653]}},
{"type":"Feature","properties":{"name":"Premnitz","rang":4,"einwohner":8414},"geometry":{"type":"Point","coordinates":[12.3395,52.5281]}},
{"type":"Feature","properties":{"name":"Rathenow","rang":4,"einwohner":24387},"geometry":{"type":"Point","coordinates":[12.3382,52.6064]}},
{"type":"Feature","properties":{"name":"Lauchhammer","rang":4,"einwohner":null},"geometry":{"type":"Point","coordinates":[13.7591,51.4831]}}
]
}
