{"type":"FeatureCollection","features":[{"type":"Feature","properties":{"art":"flaeche","name":"Hauptfriedhof Freiburg","osm":"relation/13108791"},"geometry":{"type":"Polygon","coordinates":[[[7.8437438,48.0060808],[7.8432591,48.0056874],[7.8432157,48.0057095],[7.8414376,48.0067003],[7.8415125,48.0067603],[7.8379613,48.0093438],[7.8378866,48.0093981],[7.8378198,48.0094401],[7.8378784,48.0094879],[7.8386992,48.0101633],[7.8399491,48.0111919],[7.8415721,48.0120516],[7.842197,48.0123827],[7.8422435,48.0124073],[7.8423335,48.0124024],[7.8424401,48.012335],[7.8443393,48.0109637],[7.8450711,48.0104294],[7.8464599,48.0094303],[7.8471891,48.0089059],[7.8463519,48.0082264],[7.8459397,48.0078918],[7.8458908,48.0079166],[7.8458362,48.0079465],[7.8456842,48.007822],[7.8456812,48.0078193],[7.8456461,48.0078389],[7.8454998,48.0079144],[7.845299,48.0077464],[7.8453818,48.0077012],[7.845329,48.0076574],[7.8452698,48.0076122],[7.8451828,48.0076594],[7.8449836,48.0075061],[7.8450031,48.0074958],[7.8449622,48.0074612],[7.8449156,48.0074218],[7.8448962,48.007432],[7.8448689,48.0074091],[7.8446915,48.0072811],[7.8446532,48.0072316],[7.8446217,48.0071756],[7.8446068,48.0071115],[7.8446091,48.0070456],[7.8446326,48.0069757],[7.8446827,48.0069068],[7.8447184,48.0068789],[7.8440582,48.0063331],[7.8437438,48.0060808]]]}},{"type":"Feature","properties":{"art":"wasser","osm":"way/29582839"},"geometry":{"type":"Polygon","coordinates":[[[7.8439893,48.009405],[7.8440047,48.0094923],[7.8439694,48.0095758],[7.8439123,48.0096133],[7.8438924,48.0096447],[7.8439027,48.0096804],[7.8439333,48.0097115],[7.844103,48.0097791],[7.844153,48.0097851],[7.844197,48.0097163],[7.8442093,48.009689],[7.8441774,48.0096654],[7.8441465,48.0096482],[7.8441415,48.0096156],[7.8442265,48.0095163],[7.8442844,48.0095289],[7.8442956,48.0095139],[7.8442738,48.0094982],[7.8443001,48.0094813],[7.844396,48.0094659],[7.8444173,48.0094393],[7.8444739,48.0094532],[7.8444598,48.0094832],[7.8445743,48.0094832],[7.8446368,48.0094312],[7.8446355,48.0093695],[7.8445251,48.0093433],[7.8444158,48.0093418],[7.8442642,48.0093287],[7.8441835,48.009304],[7.844099,48.0092985],[7.8440378,48.0093235],[7.8440053,48.009364],[7.8439893,48.009405]]]}},{"type":"Feature","properties":{"art":"bau","name":"Krematorium Freiburg","sorte":"crematorium","osm":"way/29582906"},"geometry":{"type":"Polygon","coordinates":[[[7.8448527,48.0100817],[7.8450507,48.0102328],[7.8451759,48.0101594],[7.8449779,48.0100083],[7.8449161,48.0100445],[7.8448527,48.0100817]]]}},{"type":"Feature","properties":{"art":"bau","name":"Einsegnungshalle","sorte":"funeral_hall","osm":"way/151260267"},"geometry":{"type":"Polygon","coordinates":[[[7.8425285,48.00886],[7.8426517,48.0087932],[7.8426185,48.0087658],[7.8426456,48.0087502],[7.8427103,48.0088024],[7.8427059,48.0088053],[7.8427433,48.0088358],[7.842857,48.0087741],[7.8428182,48.0087417],[7.842814,48.0087442],[7.8427528,48.008693],[7.8427852,48.0086752],[7.8428395,48.0087198],[7.8429266,48.0086705],[7.8429326,48.0086754],[7.8429793,48.00865],[7.8430204,48.0086277],[7.8429968,48.0086083],[7.8430268,48.008592],[7.8430525,48.0085781],[7.8430743,48.0085961],[7.8431068,48.0085784],[7.843131,48.0085984],[7.8431826,48.0085704],[7.8431584,48.0085504],[7.843192,48.0085322],[7.8431701,48.0085142],[7.8431985,48.0084988],[7.8431708,48.0084759],[7.8431989,48.0084607],[7.8431752,48.0084411],[7.8431517,48.0084217],[7.8431235,48.008437],[7.8430998,48.0084174],[7.8430714,48.0084328],[7.8430477,48.0084132],[7.8430169,48.00843],[7.8429921,48.0084096],[7.842938,48.008439],[7.8429627,48.0084594],[7.8429301,48.0084771],[7.8429538,48.0084966],[7.8429281,48.0085106],[7.8428995,48.0085268],[7.8428761,48.008508],[7.8428309,48.0085314],[7.842788,48.0085536],[7.8427933,48.0085573],[7.8426997,48.0086068],[7.8427541,48.0086498],[7.8427232,48.0086675],[7.8426616,48.0086174],[7.842668,48.0086139],[7.8426285,48.0085814],[7.8425116,48.0086447],[7.8425528,48.0086774],[7.8425559,48.0086756],[7.8426187,48.0087266],[7.8425897,48.0087421],[7.8425559,48.0087141],[7.8424327,48.008781],[7.8425285,48.00886]]]}},{"type":"Feature","properties":{"art":"bau","osm":"way/151260268"},"geometry":{"type":"Polygon","coordinates":[[[7.8411878,48.0109554],[7.8413754,48.0110609],[7.8415071,48.0109563],[7.8413201,48.0108496],[7.8411878,48.0109554]]]}},{"type":"Feature","properties":{"art":"bau","osm":"way/151260269"},"geometry":{"type":"Polygon","coordinates":[[[7.8415926,48.01058],[7.8417333,48.0106605],[7.8418164,48.0105951],[7.8416755,48.0105164],[7.8415926,48.01058]]]}},{"type":"Feature","properties":{"art":"bau","osm":"way/151260270"},"geometry":{"type":"Polygon","coordinates":[[[7.8410865,48.0108282],[7.8411617,48.0108712],[7.8413978,48.0106802],[7.8414076,48.0106858],[7.8416193,48.0105119],[7.8415281,48.0104609],[7.8413148,48.0106334],[7.8413229,48.0106395],[7.8410865,48.0108282]]]}},{"type":"Feature","properties":{"art":"bau","osm":"way/151260271"},"geometry":{"type":"Polygon","coordinates":[[[7.8417134,48.0106742],[7.8419017,48.0107807],[7.8420211,48.0106863],[7.8418356,48.0105794],[7.8418164,48.0105951],[7.8417333,48.0106605],[7.8417134,48.0106742]]]}},{"type":"Feature","properties":{"art":"bau","name":"Mitscherlich Kapelle","sorte":"place_of_worship","osm":"way/153667321"},"geometry":{"type":"Polygon","coordinates":[[[7.8447109,48.0085539],[7.8447527,48.0085879],[7.8447528,48.0086045],[7.8447895,48.0086359],[7.8448133,48.008638],[7.8448649,48.0086091],[7.8448666,48.0085934],[7.8448258,48.0085588],[7.8448038,48.0085576],[7.8447658,48.0085246],[7.8447109,48.0085539]]]}},{"type":"Feature","properties":{"art":"bau","osm":"way/307507999"},"geometry":{"type":"Polygon","coordinates":[[[7.8452399,48.0077058],[7.845329,48.0076574],[7.8452698,48.0076122],[7.8451828,48.0076594],[7.8452399,48.0077058]]]}},{"type":"Feature","properties":{"art":"bau","osm":"way/386865261"},"geometry":{"type":"Polygon","coordinates":[[[7.8378198,48.0094401],[7.8378784,48.0094879],[7.8379277,48.0094639],[7.8379314,48.0094208],[7.8378866,48.0093981],[7.8378198,48.0094401]]]}},{"type":"Feature","properties":{"art":"rasen","osm":"way/386865265"},"geometry":{"type":"Polygon","coordinates":[[[7.8447432,48.0076829],[7.8447625,48.0076672],[7.8447753,48.0076488],[7.8447808,48.0076289],[7.8447788,48.0076087],[7.8447694,48.0075894],[7.844753,48.0075723],[7.8447309,48.0075585],[7.8447043,48.0075488],[7.8446749,48.0075438],[7.8446446,48.0075439],[7.8446153,48.007549],[7.8445887,48.0075588],[7.8437814,48.0079978],[7.8437573,48.0080109],[7.8437406,48.0080199],[7.8434433,48.0081816],[7.8434213,48.0081955],[7.8434051,48.0082126],[7.8433959,48.008232],[7.8433941,48.0082522],[7.8433999,48.0082721],[7.8434129,48.0082904],[7.8434323,48.008306],[7.8434568,48.0083178],[7.8434851,48.0083252],[7.8435151,48.0083277],[7.8435452,48.0083251],[7.8435733,48.0083176],[7.8435978,48.0083056],[7.8438903,48.0081465],[7.8439076,48.0081372],[7.8439347,48.0081225],[7.8447432,48.0076829]]]}},{"type":"Feature","properties":{"art":"rasen","osm":"way/386865268"},"geometry":{"type":"Polygon","coordinates":[[[7.8419144,48.0091672],[7.8423262,48.0089361],[7.8422822,48.0089006],[7.8418662,48.009128],[7.8419144,48.0091672]]]}},{"type":"Feature","properties":{"art":"bau","name":"Friedhofsverwaltung","osm":"way/564839512"},"geometry":{"type":"Polygon","coordinates":[[[7.8455311,48.0079057],[7.8457082,48.0080507],[7.8457691,48.0080174],[7.8459454,48.0081617],[7.8460922,48.0080814],[7.8458908,48.0079166],[7.8458362,48.0079465],[7.8456842,48.007822],[7.8455311,48.0079057]]]}},{"type":"Feature","properties":{"art":"weg","osm":"way/29582817"},"geometry":{"type":"LineString","coordinates":[[7.8459616,48.0086397],[7.8460015,48.0086293],[7.8463293,48.0084522],[7.8464648,48.0084126]]}},{"type":"Feature","properties":{"art":"weg","osm":"way/29582819"},"geometry":{"type":"LineString","coordinates":[[7.8437096,48.0090365],[7.8439309,48.0092263],[7.8442275,48.0092267],[7.8443765,48.0092147],[7.8445699,48.0091878],[7.8447969,48.0091307],[7.8448749,48.0090882],[7.8450074,48.0090122],[7.8450417,48.0089854],[7.8451268,48.008919],[7.8453641,48.008966],[7.8455028,48.0089711],[7.8456111,48.0089542],[7.845679,48.008931],[7.8458918,48.0088582],[7.8459826,48.008853]]}},{"type":"Feature","properties":{"art":"weg","osm":"way/29582821"},"geometry":{"type":"LineString","coordinates":[[7.8452432,48.0101496],[7.8449827,48.0099425],[7.8449414,48.0099625],[7.8448695,48.0100018],[7.8447838,48.010048],[7.8447428,48.0100728],[7.8450068,48.010288]]}},{"type":"Feature","properties":{"art":"weg","osm":"way/29582823"},"geometry":{"type":"LineString","coordinates":[[7.8459081,48.0085363],[7.8459616,48.0086397],[7.845976,48.0087469],[7.8459826,48.008853],[7.845984,48.0089258],[7.8459555,48.0090788],[7.8459271,48.0092418],[7.8458876,48.0093674],[7.8458433,48.0094598],[7.8455647,48.0098797],[7.8454874,48.009989]]}},{"type":"Feature","properties":{"art":"weg","osm":"way/29582828"},"geometry":{"type":"LineString","coordinates":[[7.8431833,48.0083058],[7.8431409,48.0082981],[7.8430961,48.0082969],[7.8430093,48.0082981],[7.8429244,48.0083178],[7.8428048,48.0083761],[7.8427105,48.0084284],[7.842461,48.0085666],[7.8423674,48.00864],[7.8423253,48.0087195],[7.842321,48.0087786],[7.8423573,48.0088481],[7.842382,48.0088749],[7.8424266,48.008902],[7.8425051,48.008927],[7.8426098,48.008941],[7.8427086,48.0089328],[7.842854,48.0088857],[7.8430983,48.0087477],[7.8431973,48.0086918],[7.8433001,48.0086295],[7.8433372,48.0085884],[7.8433571,48.0085393],[7.8433555,48.0084971],[7.8433494,48.0084593]]}},{"type":"Feature","properties":{"art":"weg","osm":"way/29582830"},"geometry":{"type":"LineString","coordinates":[[7.8433494,48.0084593],[7.8437122,48.0082735],[7.8438508,48.0082026],[7.8439313,48.0081571],[7.8441454,48.0080361],[7.8444221,48.0078798],[7.8449575,48.0075775],[7.8448772,48.0075045],[7.8447869,48.0074333]]}},{"type":"Feature","properties":{"art":"weg","osm":"way/29582832"},"geometry":{"type":"LineString","coordinates":[[7.8423516,48.0106349],[7.8423571,48.0106594],[7.8423775,48.0106816],[7.8424096,48.0106965],[7.8424478,48.0107014],[7.8424843,48.0106962],[7.842515,48.0106819],[7.842535,48.0106609],[7.8425414,48.0106362],[7.8425344,48.0106139],[7.842516,48.0105946],[7.8424886,48.010581],[7.8424557,48.0105747],[7.8424173,48.0105774],[7.8423838,48.0105902],[7.8423606,48.0106108],[7.8423516,48.0106349]]}},{"type":"Feature","properties":{"art":"weg","osm":"way/29582834"},"geometry":{"type":"LineString","coordinates":[[7.8426098,48.008941],[7.8425546,48.009483],[7.8425194,48.0099571],[7.8424557,48.0105747]]}},{"type":"Feature","properties":{"art":"weg","osm":"way/29582837"},"geometry":{"type":"LineString","coordinates":[[7.8448749,48.0090882],[7.8449775,48.0092439],[7.8449928,48.0093981],[7.8449887,48.0094939],[7.8449176,48.0096546],[7.8448567,48.0097072],[7.8447375,48.00981],[7.8445939,48.0098824],[7.8444195,48.009931],[7.8442121,48.0099862],[7.8438615,48.0101685],[7.8433773,48.0105376],[7.843292,48.0105719],[7.8432648,48.0105829],[7.8430437,48.0106295],[7.8429468,48.0106406],[7.8427,48.0106337],[7.8425921,48.0106307],[7.8425414,48.0106362]]}},{"type":"Feature","properties":{"art":"weg","osm":"way/29582841"},"geometry":{"type":"LineString","coordinates":[[7.8449887,48.0094939],[7.8458433,48.0094598],[7.8460474,48.0094435],[7.8463931,48.0093936],[7.8456808,48.0099073],[7.8454874,48.009989]]}},{"type":"Feature","properties":{"art":"weg","osm":"way/29582844"},"geometry":{"type":"LineString","coordinates":[[7.8448952,48.0103454],[7.8449295,48.0103948],[7.844925,48.0104401],[7.8448904,48.0104771],[7.8444352,48.0108026],[7.8440059,48.0111187],[7.8439148,48.0111609],[7.8437919,48.0112542],[7.8436908,48.0113535],[7.8430151,48.0118354],[7.8422593,48.0123362],[7.8421835,48.0123055],[7.8416166,48.0120072],[7.84147,48.0119222],[7.841209,48.0117852],[7.8400073,48.0111446],[7.839956,48.0110957],[7.8392233,48.0104994],[7.8384031,48.0098331],[7.8383253,48.0097771],[7.8381459,48.0096337],[7.8380849,48.0095577],[7.8380427,48.0094739],[7.8380452,48.00939],[7.8381045,48.0093064],[7.8384058,48.0090961],[7.839152,48.0085464],[7.840207,48.0077834],[7.8404943,48.0075834],[7.8407671,48.0073863],[7.8410147,48.007204],[7.8411058,48.0071416],[7.8412663,48.007018],[7.8414465,48.0068778],[7.841479,48.006858]]}},{"type":"Feature","properties":{"art":"weg","osm":"way/29582849"},"geometry":{"type":"LineString","coordinates":[[7.8385978,48.0094543],[7.8380975,48.0094232],[7.8380452,48.00939],[7.8379613,48.0093438],[7.8378759,48.0092967]]}},{"type":"Feature","properties":{"art":"weg","osm":"way/29582851"},"geometry":{"type":"LineString","coordinates":[[7.8384058,48.0090961],[7.8384277,48.0091129],[7.8384656,48.0091182],[7.8386362,48.0090738],[7.8388402,48.0090496],[7.8391894,48.0090439],[7.8394165,48.0090725],[7.8395625,48.0091029],[7.8397027,48.0091523],[7.839752,48.0091776],[7.8399046,48.009265],[7.8399537,48.0093503],[7.8400093,48.0094667],[7.8400727,48.009574],[7.8400975,48.0096277],[7.8401351,48.0098321],[7.840142,48.0098838],[7.8400862,48.0100366],[7.8399749,48.0101897],[7.8398922,48.0102347],[7.8395344,48.0104166],[7.8392233,48.0104994]]}},{"type":"Feature","properties":{"art":"weg","osm":"way/29582852"},"geometry":{"type":"LineString","coordinates":[[7.8420327,48.007264],[7.8417556,48.007419],[7.841466,48.0075789],[7.8411932,48.0077276],[7.840879,48.0078992],[7.8405645,48.0080713],[7.8402537,48.0082415],[7.8399353,48.0084217],[7.8399192,48.0084308],[7.8395236,48.008655],[7.8394463,48.0087301],[7.8392602,48.0089574],[7.8391894,48.0090439],[7.8390262,48.0094964],[7.8389289,48.0098579],[7.8390357,48.009921],[7.8391987,48.010017],[7.8395581,48.0101607],[7.8398922,48.0102347]]}},{"type":"Feature","properties":{"art":"weg","osm":"way/29582853"},"geometry":{"type":"LineString","coordinates":[[7.8384031,48.0098331],[7.8389289,48.0098579],[7.8393615,48.0097711],[7.8395395,48.0097138],[7.8397366,48.0095937],[7.8398265,48.0095008],[7.8399091,48.0094099],[7.8399537,48.0093503],[7.8400131,48.0092507],[7.8403221,48.0090404],[7.8405367,48.0089388],[7.8409512,48.0088155],[7.8413867,48.0087512],[7.8415065,48.0087523],[7.8423253,48.0087195]]}},{"type":"Feature","properties":{"art":"weg","osm":"way/29582854"},"geometry":{"type":"LineString","coordinates":[[7.8395236,48.008655],[7.839152,48.0085464]]}},{"type":"Feature","properties":{"art":"weg","osm":"way/29582855"},"geometry":{"type":"LineString","coordinates":[[7.844474,48.0099765],[7.8446472,48.0101284],[7.844809,48.0102696],[7.8448952,48.0103454]]}},{"type":"Feature","properties":{"art":"weg","osm":"way/29582860"},"geometry":{"type":"LineString","coordinates":[[7.8416166,48.0120072],[7.8415721,48.0120516]]}},{"type":"Feature","properties":{"art":"weg","osm":"way/29582862"},"geometry":{"type":"LineString","coordinates":[[7.8414216,48.0112567],[7.8412981,48.0114146],[7.8412597,48.0114931],[7.8412275,48.0115864],[7.841209,48.0117852]]}},{"type":"Feature","properties":{"art":"weg","osm":"way/29582866"},"geometry":{"type":"LineString","coordinates":[[7.8433494,48.0084593],[7.8433396,48.0084163],[7.8433078,48.0083788],[7.843264,48.0083454],[7.8431833,48.0083058]]}},{"type":"Feature","properties":{"art":"weg","osm":"way/29582867"},"geometry":{"type":"LineString","coordinates":[[7.8431368,48.0093487],[7.8430077,48.0094056],[7.84287,48.0094461],[7.8426719,48.009475],[7.8425546,48.009483],[7.8422786,48.0094506],[7.842118,48.0094087],[7.8419854,48.0093524],[7.8418192,48.0092586]]}},{"type":"Feature","properties":{"art":"weg","osm":"way/29582868"},"geometry":{"type":"LineString","coordinates":[[7.8417222,48.009174],[7.8416687,48.0092044],[7.8417144,48.0092404],[7.8417569,48.0092739],[7.8418192,48.0092586],[7.8418779,48.0092051],[7.8417998,48.009145],[7.8417222,48.009174]]}},{"type":"Feature","properties":{"art":"weg","osm":"way/29582870"},"geometry":{"type":"LineString","coordinates":[[7.8439309,48.0092263],[7.8439043,48.0093172],[7.8438555,48.0094077],[7.8437653,48.0096063],[7.8435865,48.0097402],[7.8434402,48.0098099],[7.8436173,48.01],[7.8438615,48.0101685]]}},{"type":"Feature","properties":{"art":"weg","osm":"way/29582871"},"geometry":{"type":"LineString","coordinates":[[7.8447869,48.0074333],[7.8442447,48.0077348],[7.8439436,48.0078942],[7.8437441,48.0079998],[7.8436515,48.0080489],[7.8435174,48.0081225],[7.8431833,48.0083058]]}},{"type":"Feature","properties":{"art":"weg","osm":"way/29582872"},"geometry":{"type":"LineString","coordinates":[[7.8448772,48.0075045],[7.8449321,48.0074763],[7.8449422,48.0074711]]}},{"type":"Feature","properties":{"art":"weg","osm":"way/29582873"},"geometry":{"type":"LineString","coordinates":[[7.8447869,48.0074333],[7.8445607,48.0072638],[7.8444874,48.0070943],[7.8445294,48.0069397],[7.844523,48.0068779],[7.8445087,48.0068199],[7.8444667,48.0067716],[7.8443846,48.0066918],[7.8442288,48.0065623],[7.8441021,48.0064644],[7.8440312,48.0064404],[7.8439588,48.006437],[7.8438573,48.0064517],[7.8437985,48.0064589],[7.8437231,48.0064417],[7.8436327,48.0063822],[7.8435729,48.0063273],[7.843553,48.0062666],[7.843595,48.0061867],[7.8436229,48.0060947],[7.8435886,48.0060408],[7.8432371,48.0057485],[7.8432157,48.0057095],[7.8432459,48.0056255],[7.8432154,48.005591]]}},{"type":"Feature","properties":{"art":"weg","osm":"way/29582875"},"geometry":{"type":"LineString","coordinates":[[7.8427426,48.0078451],[7.8426498,48.007765],[7.8420327,48.007264],[7.8415957,48.0068908],[7.8415564,48.006861],[7.8415152,48.0068527],[7.841479,48.006858]]}},{"type":"Feature","properties":{"art":"weg","osm":"way/29582876"},"geometry":{"type":"LineString","coordinates":[[7.8427558,48.0077024],[7.8430463,48.0075431],[7.8433286,48.0073867],[7.843609,48.0072339],[7.8437122,48.0071779],[7.8438905,48.0070765],[7.844174,48.0069226],[7.8444667,48.0067716]]}},{"type":"Feature","properties":{"art":"weg","osm":"way/29582877"},"geometry":{"type":"LineString","coordinates":[[7.8427426,48.0078451],[7.8428518,48.0077842],[7.8431471,48.0076243],[7.8434339,48.0074671],[7.8437123,48.0073165],[7.8438048,48.007259],[7.843949,48.0072091],[7.8440056,48.0071544],[7.844523,48.0068779]]}},{"type":"Feature","properties":{"art":"weg","osm":"way/29582879"},"geometry":{"type":"LineString","coordinates":[[7.8431471,48.0076243],[7.8431734,48.0076524],[7.8434992,48.0079135],[7.8436515,48.0080489]]}},{"type":"Feature","properties":{"art":"weg","osm":"way/29582880"},"geometry":{"type":"LineString","coordinates":[[7.8432371,48.0057485],[7.8429556,48.0059158],[7.8426893,48.0060635],[7.8424003,48.0062269],[7.8421093,48.0063812],[7.8418261,48.0065314],[7.8415652,48.0066679],[7.8415528,48.0066997],[7.8415652,48.0067253],[7.8418343,48.0069435],[7.8421481,48.0071979],[7.8427558,48.0077024]]}},{"type":"Feature","properties":{"art":"weg","osm":"way/29582882"},"geometry":{"type":"LineString","coordinates":[[7.8418261,48.0065314],[7.8421383,48.0067936],[7.8424269,48.0070442],[7.8430463,48.0075431],[7.8431471,48.0076243]]}},{"type":"Feature","properties":{"art":"weg","osm":"way/29582883"},"geometry":{"type":"LineString","coordinates":[[7.8421093,48.0063812],[7.8424233,48.006641],[7.8427189,48.0068879],[7.8433286,48.0073867],[7.8434339,48.0074671],[7.8436075,48.0076211],[7.8439436,48.0078942]]}},{"type":"Feature","properties":{"art":"weg","osm":"way/29582884"},"geometry":{"type":"LineString","coordinates":[[7.8424478,48.0107014],[7.8424045,48.0110955],[7.842377,48.0114178],[7.8423031,48.0122577],[7.8422593,48.0123362],[7.842197,48.0123827],[7.8420924,48.0124773]]}},{"type":"Feature","properties":{"art":"weg","osm":"way/29582887"},"geometry":{"type":"LineString","coordinates":[[7.8424003,48.0062269],[7.8429964,48.0067305],[7.843609,48.0072339]]}},{"type":"Feature","properties":{"art":"weg","osm":"way/29582889"},"geometry":{"type":"LineString","coordinates":[[7.8426893,48.0060635],[7.8432783,48.0065745],[7.8436482,48.0068773],[7.8438905,48.0070765]]}},{"type":"Feature","properties":{"art":"weg","osm":"way/29582890"},"geometry":{"type":"LineString","coordinates":[[7.8429556,48.0059158],[7.8432093,48.0061305],[7.8435546,48.0064227],[7.8439307,48.0067268],[7.844174,48.0069226]]}},{"type":"Feature","properties":{"art":"weg","osm":"way/29582891"},"geometry":{"type":"LineString","coordinates":[[7.842854,48.0088857],[7.8431368,48.0093487],[7.8434402,48.0098099]]}},{"type":"Feature","properties":{"art":"weg","osm":"way/29582892"},"geometry":{"type":"LineString","coordinates":[[7.8444352,48.0108026],[7.8444437,48.0107367],[7.8443925,48.0105877],[7.8442436,48.0103386]]}},{"type":"Feature","properties":{"art":"weg","osm":"way/29582893"},"geometry":{"type":"LineString","coordinates":[[7.8433001,48.0086295],[7.8437532,48.0090046]]}},{"type":"Feature","properties":{"art":"weg","osm":"way/29582895"},"geometry":{"type":"LineString","coordinates":[[7.8417222,48.009174],[7.8415527,48.0089688],[7.8415065,48.0087523],[7.8415788,48.0084944],[7.8417755,48.0083015]]}},{"type":"Feature","properties":{"art":"weg","osm":"way/29582896"},"geometry":{"type":"LineString","coordinates":[[7.8411249,48.0095696],[7.8411638,48.0095917],[7.8412126,48.0096017],[7.8412633,48.0095982],[7.8413078,48.0095816],[7.8413371,48.0095572],[7.8413513,48.0095273],[7.8413483,48.009496],[7.8413286,48.0094676],[7.8412925,48.0094449],[7.8412463,48.0094331],[7.8411967,48.009434],[7.8411515,48.0094475],[7.8411165,48.0094725],[7.841099,48.0095047],[7.841102,48.009539],[7.8411249,48.0095696]]}},{"type":"Feature","properties":{"art":"weg","osm":"way/29582897"},"geometry":{"type":"LineString","coordinates":[[7.8417144,48.0092404],[7.8413286,48.0094676]]}},{"type":"Feature","properties":{"art":"weg","osm":"way/29582898"},"geometry":{"type":"LineString","coordinates":[[7.8411249,48.0095696],[7.8408524,48.0097038],[7.8406709,48.0097585],[7.8404895,48.0097691],[7.8403148,48.0097398],[7.8401992,48.0096934],[7.8400975,48.0096277]]}},{"type":"Feature","properties":{"art":"weg","osm":"way/29582899"},"geometry":{"type":"LineString","coordinates":[[7.8411515,48.0094475],[7.8405367,48.0089388],[7.8402125,48.0086779],[7.8399192,48.0084308]]}},{"type":"Feature","properties":{"art":"weg","osm":"way/29582901"},"geometry":{"type":"LineString","coordinates":[[7.8447375,48.00981],[7.8449414,48.0099625]]}},{"type":"Feature","properties":{"art":"weg","osm":"way/32848061"},"geometry":{"type":"LineString","coordinates":[[7.839956,48.0110957],[7.8400388,48.0110697],[7.8404076,48.0110335],[7.8405754,48.0109971],[7.8408426,48.0108945],[7.8409318,48.0108474],[7.8410048,48.0107806],[7.8411303,48.0106756],[7.8412092,48.0105876],[7.8412701,48.01048],[7.8412859,48.010446],[7.8413389,48.0101694],[7.8413314,48.0099403],[7.841352,48.0097948],[7.8413968,48.0096741],[7.8413078,48.0095816]]}},{"type":"Feature","properties":{"art":"weg","osm":"way/32848062"},"geometry":{"type":"LineString","coordinates":[[7.8412859,48.010446],[7.8411853,48.0104199],[7.8411665,48.0104073],[7.8411591,48.0103885],[7.8411745,48.0102956],[7.8411544,48.0102759],[7.8411128,48.0102736],[7.8410351,48.0103351],[7.840795,48.010218],[7.8410324,48.0100139],[7.8413389,48.0101694],[7.8416964,48.0104367],[7.8421252,48.0105754],[7.8422653,48.0105965],[7.8423606,48.0106108]]}},{"type":"Feature","properties":{"art":"weg","osm":"way/32848064"},"geometry":{"type":"LineString","coordinates":[[7.842377,48.0114178],[7.8421365,48.0114013],[7.8418935,48.0113718],[7.8416365,48.0113242],[7.8414216,48.0112567],[7.8412865,48.0111921],[7.8411081,48.0110912],[7.8409023,48.0109564],[7.8408426,48.0108945],[7.8406142,48.0106075],[7.8403369,48.0104287],[7.8400214,48.0102979],[7.8398922,48.0102347]]}},{"type":"Feature","properties":{"art":"weg","osm":"way/32848065"},"geometry":{"type":"LineString","coordinates":[[7.8413968,48.0096741],[7.8415774,48.0097611],[7.8417945,48.0098452],[7.8419597,48.0098905],[7.8419912,48.0098967],[7.8421408,48.0099264],[7.8423299,48.0099484],[7.8425194,48.0099571],[7.8427557,48.0099502],[7.8430202,48.00992],[7.843217,48.0098766],[7.8434402,48.0098099]]}},{"type":"Feature","properties":{"art":"weg","osm":"way/32848972"},"geometry":{"type":"LineString","coordinates":[[7.8451268,48.008919],[7.8452881,48.008687],[7.8453075,48.0086403],[7.8453911,48.0085953],[7.8454608,48.0085523],[7.8455362,48.0085142],[7.8458539,48.0084267]]}},{"type":"Feature","properties":{"art":"weg","osm":"way/32848973"},"geometry":{"type":"LineString","coordinates":[[7.8420327,48.007264],[7.8421481,48.0071979],[7.8423425,48.0070907],[7.8424269,48.0070442],[7.8427189,48.0068879],[7.8429964,48.0067305],[7.8432783,48.0065745],[7.8435546,48.0064227],[7.8436327,48.0063822]]}},{"type":"Feature","properties":{"art":"weg","osm":"way/32848974"},"geometry":{"type":"LineString","coordinates":[[7.840207,48.0077834],[7.8404311,48.0079595],[7.8405645,48.0080713],[7.8413867,48.0087512]]}},{"type":"Feature","properties":{"art":"weg","osm":"way/32848975"},"geometry":{"type":"LineString","coordinates":[[7.8443866,48.0086536],[7.8437532,48.0090046],[7.8437096,48.0090365],[7.8436495,48.0090641],[7.8431368,48.0093487]]}},{"type":"Feature","properties":{"art":"weg","osm":"way/32848976"},"geometry":{"type":"LineString","coordinates":[[7.8436495,48.0090641],[7.8431973,48.0086918]]}},{"type":"Feature","properties":{"art":"weg","osm":"way/32848977"},"geometry":{"type":"LineString","coordinates":[[7.8428048,48.0083761],[7.8424781,48.0080959],[7.8425279,48.0080542],[7.8425994,48.0080301],[7.8429244,48.0083178]]}},{"type":"Feature","properties":{"art":"weg","osm":"way/32848978"},"geometry":{"type":"LineString","coordinates":[[7.8415788,48.0084944],[7.840879,48.0078992],[7.8404943,48.0075834]]}},{"type":"Feature","properties":{"art":"weg","osm":"way/32848979"},"geometry":{"type":"LineString","coordinates":[[7.8427426,48.0078451],[7.8424571,48.0080021],[7.841892,48.0083211],[7.8417755,48.0083015],[7.8417952,48.0082257],[7.8420769,48.0080752],[7.8423582,48.0079197],[7.8426498,48.007765]]}},{"type":"Feature","properties":{"art":"weg","osm":"way/32848980"},"geometry":{"type":"LineString","coordinates":[[7.841892,48.0083211],[7.842461,48.0085666]]}},{"type":"Feature","properties":{"art":"weg","osm":"way/32848981"},"geometry":{"type":"LineString","coordinates":[[7.8417952,48.0082257],[7.8414906,48.0079737],[7.8411932,48.0077276],[7.8407671,48.0073863]]}},{"type":"Feature","properties":{"art":"weg","osm":"way/32848983"},"geometry":{"type":"LineString","coordinates":[[7.8420769,48.0080752],[7.8417643,48.0078212],[7.841466,48.0075789],[7.841289,48.0074279],[7.8410147,48.007204]]}},{"type":"Feature","properties":{"art":"weg","osm":"way/32848985"},"geometry":{"type":"LineString","coordinates":[[7.8402537,48.0082415],[7.8409512,48.0088155]]}},{"type":"Feature","properties":{"art":"weg","osm":"way/32848987"},"geometry":{"type":"LineString","coordinates":[[7.8425279,48.0080542],[7.8424571,48.0080021],[7.8423582,48.0079197],[7.8417556,48.007419],[7.8415708,48.0072653],[7.8412663,48.007018]]}},{"type":"Feature","properties":{"art":"weg","osm":"way/32848988"},"geometry":{"type":"LineString","coordinates":[[7.8430961,48.0082969],[7.8431734,48.0076524]]}},{"type":"Feature","properties":{"art":"weg","osm":"way/32848989"},"geometry":{"type":"LineString","coordinates":[[7.8433571,48.0085393],[7.8443866,48.0086536]]}},{"type":"Feature","properties":{"art":"weg","osm":"way/32848991"},"geometry":{"type":"LineString","coordinates":[[7.8452069,48.0077803],[7.8452159,48.0080162],[7.8451975,48.0081021],[7.8451712,48.0082252]]}},{"type":"Feature","properties":{"art":"weg","osm":"way/32849594"},"geometry":{"type":"LineString","coordinates":[[7.8438508,48.0082026],[7.8440382,48.0083598],[7.8443866,48.0086536],[7.8448552,48.0090471],[7.8448749,48.0090882]]}},{"type":"Feature","properties":{"art":"weg","osm":"way/32849596"},"geometry":{"type":"LineString","coordinates":[[7.8445607,48.0072638],[7.8443914,48.0072182],[7.8442061,48.007202],[7.8440371,48.0072047],[7.843949,48.0072091]]}},{"type":"Feature","properties":{"art":"weg","osm":"way/32849599"},"geometry":{"type":"LineString","coordinates":[[7.8444221,48.0078798],[7.8445927,48.0080169],[7.8449748,48.0083304]]}},{"type":"Feature","properties":{"art":"weg","osm":"way/32849601"},"geometry":{"type":"LineString","coordinates":[[7.8437123,48.0073165],[7.8440673,48.0075941],[7.8442447,48.0077348]]}},{"type":"Feature","properties":{"art":"weg","osm":"way/32849603"},"geometry":{"type":"LineString","coordinates":[[7.8449748,48.0083304],[7.8451739,48.0085209],[7.8452619,48.0086104],[7.8453075,48.0086403]]}},{"type":"Feature","properties":{"art":"weg","osm":"way/151626723"},"geometry":{"type":"LineString","coordinates":[[7.8445939,48.0098824],[7.8447838,48.010048]]}},{"type":"Feature","properties":{"art":"weg","osm":"way/153667313"},"geometry":{"type":"LineString","coordinates":[[7.8427558,48.0077024],[7.8428518,48.0077842]]}},{"type":"Feature","properties":{"art":"weg","osm":"way/153667318"},"geometry":{"type":"LineString","coordinates":[[7.8432648,48.0105829],[7.8433232,48.0107093],[7.8434167,48.0109303],[7.843519,48.0111404],[7.8436247,48.0112743]]}},{"type":"Feature","properties":{"art":"weg","osm":"way/360083525"},"geometry":{"type":"LineString","coordinates":[[7.8463931,48.0093936],[7.8468253,48.0090688],[7.8468814,48.0089484],[7.8468845,48.008882],[7.8468755,48.0088158],[7.8468449,48.0087329],[7.8467525,48.008643],[7.8466535,48.00857],[7.8464648,48.0084126],[7.8463107,48.0082769],[7.846243,48.0082539],[7.8461868,48.0082657],[7.8459582,48.0083916],[7.8458539,48.0084267]]}},{"type":"Feature","properties":{"art":"mauer","sorte":"wall","osm":"way/386848063"},"geometry":{"type":"LineString","coordinates":[[7.8449483,48.0103368],[7.8450139,48.0103012],[7.8450336,48.0103163],[7.8450627,48.0103232],[7.8451002,48.0103263],[7.8451471,48.0103219],[7.8451828,48.01031],[7.8452128,48.0102974],[7.8452391,48.0102805],[7.8452606,48.010266],[7.8452794,48.0102459],[7.8452907,48.0102277],[7.8452963,48.0102095],[7.8452963,48.0101894],[7.8452926,48.0101694],[7.8452766,48.0101543],[7.8453273,48.0101235]]}},{"type":"Feature","properties":{"art":"mauer","sorte":"wall","osm":"way/386848064"},"geometry":{"type":"LineString","coordinates":[[7.8453019,48.010089],[7.8450824,48.0099126]]}},{"type":"Feature","properties":{"art":"mauer","sorte":"wall","osm":"way/386848065"},"geometry":{"type":"LineString","coordinates":[[7.8450486,48.0098844],[7.8448609,48.0097375]]}},{"type":"Feature","properties":{"art":"mauer","sorte":"retaining_wall","osm":"way/386848066"},"geometry":{"type":"LineString","coordinates":[[7.8450711,48.0104294],[7.8449483,48.0103368],[7.8444696,48.0099393]]}},{"type":"Feature","properties":{"art":"mauer","sorte":"wall","osm":"way/386848067"},"geometry":{"type":"LineString","coordinates":[[7.8412374,48.0096349],[7.8412717,48.0096307],[7.8413042,48.0096221],[7.8413265,48.0096131]]}},{"type":"Feature","properties":{"art":"mauer","sorte":"wall","osm":"way/386848068"},"geometry":{"type":"LineString","coordinates":[[7.8411074,48.0096073],[7.8411362,48.0096205],[7.8411683,48.0096297],[7.8411898,48.0096328]]}},{"type":"Feature","properties":{"art":"mauer","sorte":"wall","osm":"way/386848069"},"geometry":{"type":"LineString","coordinates":[[7.8413506,48.0095999],[7.8413784,48.0095738],[7.8413922,48.0095523],[7.8413995,48.0095295],[7.8413999,48.0095061],[7.8413936,48.0094831],[7.8413807,48.0094614]]}},{"type":"Feature","properties":{"art":"mauer","sorte":"wall","osm":"way/386848070"},"geometry":{"type":"LineString","coordinates":[[7.8413617,48.0094418],[7.8413373,48.009425],[7.8413085,48.0094118],[7.8412765,48.0094026],[7.8412423,48.0093977],[7.8412074,48.0093974],[7.841173,48.0094016],[7.8411405,48.0094102]]}},{"type":"Feature","properties":{"art":"mauer","sorte":"wall","osm":"way/386848071"},"geometry":{"type":"LineString","coordinates":[[7.8411112,48.009423],[7.8410862,48.0094393],[7.8410664,48.0094585],[7.8410526,48.00948],[7.8410453,48.0095028],[7.8410448,48.0095262],[7.8410511,48.0095492],[7.8410641,48.0095709]]}},{"type":"Feature","properties":{"art":"weg","osm":"way/386848174"},"geometry":{"type":"LineString","coordinates":[[7.844474,48.0099765],[7.8444323,48.0100109],[7.8444076,48.0100464],[7.8443853,48.0100891],[7.84438,48.0101366],[7.8443911,48.0101835],[7.8444394,48.0102356],[7.8444894,48.0102712],[7.8445367,48.0102944],[7.8446114,48.0103022],[7.8446959,48.0103],[7.8447556,48.0102893],[7.844809,48.0102696]]}},{"type":"Feature","properties":{"art":"weg","osm":"way/386848175"},"geometry":{"type":"LineString","coordinates":[[7.8397401,48.0089931],[7.8396985,48.0089894],[7.8396649,48.0089725],[7.8396502,48.0089536],[7.8396473,48.0089323],[7.8396567,48.0089118],[7.8396769,48.0088953],[7.8397153,48.0088834],[7.8397575,48.0088857],[7.8397925,48.0089016],[7.8398076,48.0089188],[7.8398128,48.0089383],[7.8398073,48.0089579],[7.8397918,48.0089749],[7.8397684,48.0089871],[7.8397401,48.0089931]]}},{"type":"Feature","properties":{"art":"weg","osm":"way/386848176"},"geometry":{"type":"LineString","coordinates":[[7.8444394,48.0102356],[7.8446472,48.0101284]]}},{"type":"Feature","properties":{"art":"weg","osm":"way/386848177"},"geometry":{"type":"LineString","coordinates":[[7.8402125,48.0086779],[7.8397925,48.0089016]]}},{"type":"Feature","properties":{"art":"weg","osm":"way/386848178"},"geometry":{"type":"LineString","coordinates":[[7.8445367,48.0102944],[7.8445044,48.010381]]}},{"type":"Feature","properties":{"art":"weg","osm":"way/386848179"},"geometry":{"type":"LineString","coordinates":[[7.8397401,48.0089931],[7.839692,48.0091012],[7.8397027,48.0091523]]}},{"type":"Feature","properties":{"art":"weg","osm":"way/386848180"},"geometry":{"type":"LineString","coordinates":[[7.8384656,48.0091182],[7.8386226,48.0094279]]}},{"type":"Feature","properties":{"art":"weg","osm":"way/386848181"},"geometry":{"type":"LineString","coordinates":[[7.8450068,48.010288],[7.8449246,48.0103306]]}},{"type":"Feature","properties":{"art":"weg","osm":"way/386848183"},"geometry":{"type":"LineString","coordinates":[[7.8394463,48.0087301],[7.8395928,48.0088229],[7.8396769,48.0088953]]}},{"type":"Feature","properties":{"art":"weg","osm":"way/386848185"},"geometry":{"type":"LineString","coordinates":[[7.8444195,48.009931],[7.844474,48.0099765]]}},{"type":"Feature","properties":{"art":"weg","osm":"way/386848186"},"geometry":{"type":"LineString","coordinates":[[7.8412126,48.0096017],[7.8412041,48.0096778],[7.8410742,48.0098634]]}},{"type":"Feature","properties":{"art":"weg","osm":"way/386848188"},"geometry":{"type":"LineString","coordinates":[[7.8450439,48.0099101],[7.8449827,48.0099425]]}},{"type":"Feature","properties":{"art":"weg","osm":"way/386848189"},"geometry":{"type":"LineString","coordinates":[[7.8383253,48.0097771],[7.8386135,48.0094889]]}},{"type":"Feature","properties":{"art":"weg","osm":"way/386848190"},"geometry":{"type":"LineString","coordinates":[[7.8446832,48.0101098],[7.8447428,48.0100728]]}},{"type":"Feature","properties":{"art":"weg","osm":"way/386848191"},"geometry":{"type":"LineString","coordinates":[[7.8453382,48.0100953],[7.8450808,48.0098878],[7.8448567,48.0097072]]}},{"type":"Feature","properties":{"art":"weg","osm":"way/386848192"},"geometry":{"type":"LineString","coordinates":[[7.8395625,48.0091029],[7.8396107,48.00907],[7.8396374,48.0090217],[7.8396649,48.0089725]]}},{"type":"Feature","properties":{"art":"weg","osm":"way/386848193"},"geometry":{"type":"LineString","coordinates":[[7.8441454,48.0080361],[7.8444753,48.0083096],[7.8446996,48.0084955]]}},{"type":"Feature","properties":{"art":"weg","osm":"way/386848194"},"geometry":{"type":"LineString","coordinates":[[7.8448952,48.0103454],[7.8447119,48.0103764],[7.844619,48.0103865],[7.8445044,48.010381],[7.8442436,48.0103386],[7.8438615,48.0101685]]}},{"type":"Feature","properties":{"art":"weg","osm":"way/386848195"},"geometry":{"type":"LineString","coordinates":[[7.8430353,48.0110113],[7.8429452,48.0108142],[7.8429565,48.0107816],[7.8429959,48.0107678],[7.8433232,48.0107093]]}},{"type":"Feature","properties":{"art":"weg","osm":"way/386848196"},"geometry":{"type":"LineString","coordinates":[[7.8434167,48.0109303],[7.8431993,48.0109765],[7.8430353,48.0110113],[7.8428608,48.0110452],[7.8426806,48.0110754],[7.8426196,48.0110798],[7.8424045,48.0110955]]}},{"type":"Feature","properties":{"art":"weg","osm":"way/386848197"},"geometry":{"type":"LineString","coordinates":[[7.84147,48.0119222],[7.8415187,48.0118607],[7.841723,48.0117607],[7.8419104,48.0116689],[7.8419759,48.0116275],[7.8420207,48.0115798],[7.8421065,48.011521],[7.8421265,48.0114843],[7.8421365,48.0114013]]}},{"type":"Feature","properties":{"art":"weg","osm":"way/386848198"},"geometry":{"type":"LineString","coordinates":[[7.8440382,48.0083598],[7.8441542,48.0083665],[7.8443036,48.0083615],[7.8443857,48.0083475],[7.8444753,48.0083096],[7.8445519,48.0082631],[7.8445777,48.0082217],[7.8446112,48.0081561],[7.8446056,48.008114],[7.8445927,48.0080169]]}},{"type":"Feature","properties":{"art":"weg","osm":"way/386848199"},"geometry":{"type":"LineString","coordinates":[[7.8387901,48.0094286],[7.8387856,48.0094649],[7.8387809,48.0095026],[7.838639,48.0094962],[7.8386135,48.0094889],[7.8386007,48.009473],[7.8385978,48.0094543],[7.8386062,48.0094388],[7.8386226,48.0094279],[7.8386445,48.009423],[7.8387901,48.0094286]]}},{"type":"Feature","properties":{"art":"weg","osm":"way/386848200"},"geometry":{"type":"LineString","coordinates":[[7.8434992,48.0079135],[7.8434872,48.0078082],[7.8435072,48.0077313],[7.8435411,48.0076749],[7.8436075,48.0076211],[7.8437034,48.0075868],[7.8438504,48.0075678],[7.843951,48.0075764],[7.8440673,48.0075941]]}},{"type":"Feature","properties":{"art":"mauer","sorte":"wall","osm":"way/386865259"},"geometry":{"type":"LineString","coordinates":[[7.8415125,48.0067603],[7.8418902,48.0070832]]}},{"type":"Feature","properties":{"art":"weg","osm":"way/386865270"},"geometry":{"type":"LineString","coordinates":[[7.8433773,48.0105376],[7.8434375,48.0105646],[7.843509,48.0105709],[7.8436359,48.0105923],[7.8437531,48.0106414],[7.8438417,48.0107128],[7.8439099,48.0107855],[7.8439471,48.0108771],[7.8439448,48.0109747],[7.8439148,48.0111609]]}},{"type":"Feature","properties":{"art":"weg","osm":"way/386865272"},"geometry":{"type":"LineString","coordinates":[[7.8417998,48.009145],[7.8423573,48.0088481]]}},{"type":"Feature","properties":{"art":"weg","osm":"way/386865274"},"geometry":{"type":"LineString","coordinates":[[7.8424266,48.008902],[7.8418779,48.0092051]]}},{"type":"Feature","properties":{"art":"weg","osm":"way/386865276"},"geometry":{"type":"LineString","coordinates":[[7.8424233,48.006641],[7.842345,48.0066829],[7.8422029,48.006759],[7.8421383,48.0067936]]}},{"type":"Feature","properties":{"art":"weg","osm":"way/386865278"},"geometry":{"type":"LineString","coordinates":[[7.8442447,48.0077348],[7.8444221,48.0078798]]}},{"type":"Feature","properties":{"art":"weg","osm":"way/386865280"},"geometry":{"type":"LineString","coordinates":[[7.8437122,48.0071779],[7.8438048,48.007259]]}},{"type":"Feature","properties":{"art":"weg","osm":"way/386865283"},"geometry":{"type":"LineString","coordinates":[[7.841289,48.0074279],[7.8414248,48.0073483],[7.8415708,48.0072653]]}},{"type":"Feature","properties":{"art":"weg","osm":"way/386865285"},"geometry":{"type":"LineString","coordinates":[[7.8411058,48.0071416],[7.8411543,48.0071501],[7.841197,48.0071648],[7.8414248,48.0073483]]}},{"type":"Feature","properties":{"art":"weg","osm":"way/386865750"},"geometry":{"type":"LineString","coordinates":[[7.8437441,48.0079998],[7.8437573,48.0080109],[7.8439076,48.0081372],[7.8439313,48.0081571]]}},{"type":"Feature","properties":{"art":"weg","osm":"way/770295502"},"geometry":{"type":"LineString","coordinates":[[7.8453382,48.0100953],[7.8452432,48.0101496],[7.8450068,48.010288]]}},{"type":"Feature","properties":{"art":"weg","osm":"way/770296078"},"geometry":{"type":"LineString","coordinates":[[7.8454874,48.009989],[7.8454439,48.010035],[7.8453382,48.0100953]]}},{"type":"Feature","properties":{"art":"weg","osm":"way/770302247"},"geometry":{"type":"LineString","coordinates":[[7.8449575,48.0075775],[7.8452069,48.0077803],[7.8455173,48.0080399],[7.8456264,48.0081326],[7.845719,48.0082328],[7.8458288,48.0083796],[7.8458539,48.0084267],[7.8459081,48.0085363]]}},{"type":"Feature","properties":{"art":"weg","osm":"way/770601962"},"geometry":{"type":"LineString","coordinates":[[7.8455173,48.0080399],[7.8451712,48.0082252],[7.8449748,48.0083304],[7.8446996,48.0084955],[7.8443866,48.0086536]]}},{"type":"Feature","properties":{"art":"weg","osm":"way/870396982"},"geometry":{"type":"LineString","coordinates":[[7.8437919,48.0112542],[7.8436247,48.0112743],[7.8434511,48.0113274],[7.843293,48.0113572],[7.8429617,48.0113987],[7.8425552,48.0114211],[7.842377,48.0114178]]}},{"type":"Feature","properties":{"art":"weg","osm":"way/870397694"},"geometry":{"type":"LineString","coordinates":[[7.8423571,48.0106594],[7.8422803,48.0106823],[7.8420717,48.0107774],[7.8418859,48.0108825],[7.8416175,48.0110632],[7.8414216,48.0112567]]}},{"type":"Feature","properties":{"art":"weg","osm":"way/1283018055"},"geometry":{"type":"LineString","coordinates":[[7.845984,48.0089258],[7.8460852,48.0089098],[7.8462249,48.008848],[7.8462547,48.008831],[7.8464268,48.0087328],[7.84654,48.008671],[7.8465949,48.0086167],[7.8466535,48.00857]]}},{"type":"Feature","properties":{"art":"hecke","sorte":"hedge","osm":"way/1293542696"},"geometry":{"type":"LineString","coordinates":[[7.8436981,48.0062958],[7.8436106,48.0062255],[7.8437315,48.0061567]]}},{"type":"Feature","properties":{"art":"hecke","sorte":"hedge","osm":"way/1293542697"},"geometry":{"type":"LineString","coordinates":[[7.8439663,48.0063668],[7.8438571,48.0064281],[7.8437737,48.0063649]]}},{"type":"Feature","properties":{"art":"hecke","sorte":"hedge","osm":"way/1293542698"},"geometry":{"type":"LineString","coordinates":[[7.8437832,48.0062726],[7.8437909,48.006253],[7.8437894,48.0062337],[7.8437815,48.0062157],[7.8437645,48.0061988]]}},{"type":"Feature","properties":{"art":"hecke","sorte":"hedge","osm":"way/1293542699"},"geometry":{"type":"LineString","coordinates":[[7.843825,48.0063064],[7.8438532,48.0063029],[7.843882,48.0063044],[7.8439026,48.006315],[7.8439265,48.0063322]]}},{"type":"Feature","properties":{"art":"weg","osm":"way/1293542701"},"geometry":{"type":"LineString","coordinates":[[7.8436758,48.0063603],[7.8437273,48.0063334]]}},{"type":"Feature","properties":{"art":"weg","osm":"way/1293542703"},"geometry":{"type":"LineString","coordinates":[[7.8437378,48.0063285],[7.8438056,48.0062935]]}},{"type":"Feature","properties":{"art":"weg","osm":"way/1293542704"},"geometry":{"type":"LineString","coordinates":[[7.8438056,48.0062935],[7.8437886,48.0062826],[7.8437662,48.0062747],[7.8437419,48.0062715],[7.8437178,48.006273],[7.843679,48.0062407],[7.8437885,48.0061793]]}},{"type":"Feature","properties":{"art":"weg","osm":"way/1293542705"},"geometry":{"type":"LineString","coordinates":[[7.8438056,48.0062935],[7.8438178,48.0063074],[7.8438239,48.0063242],[7.8438229,48.0063397],[7.8438148,48.0063559],[7.8438593,48.0063872],[7.8439656,48.0063253]]}},{"type":"Feature","properties":{"art":"weg","osm":"way/1293542706"},"geometry":{"type":"LineString","coordinates":[[7.8439656,48.0063253],[7.8437885,48.0061793]]}},{"type":"Feature","properties":{"art":"weg","osm":"way/1311033976"},"geometry":{"type":"LineString","coordinates":[[7.8463348,48.0085869],[7.8463713,48.0085637],[7.8463861,48.0085598],[7.8464045,48.0085629],[7.8464256,48.0085759],[7.8464251,48.0085887],[7.8464134,48.0085991],[7.8463763,48.0086205]]}},{"type":"Feature","properties":{"art":"weg","osm":"way/1311033977"},"geometry":{"type":"LineString","coordinates":[[7.8461059,48.0087125],[7.8463348,48.0085869],[7.8463763,48.0086205],[7.8461451,48.0087436]]}},{"type":"Feature","properties":{"art":"weg","osm":"way/1311033978"},"geometry":{"type":"LineString","coordinates":[[7.8460942,48.0087031],[7.8460796,48.0087123],[7.8460662,48.0087304],[7.8460662,48.0087499],[7.8460883,48.0087659],[7.8461199,48.0087704],[7.846147,48.0087641],[7.8461615,48.0087567]]}},{"type":"Feature","properties":{"art":"weg","osm":"way/1311033979"},"geometry":{"type":"LineString","coordinates":[[7.8460015,48.0086293],[7.8460942,48.0087031],[7.8461059,48.0087125],[7.8461451,48.0087436],[7.8461615,48.0087567],[7.8462547,48.008831]]}},{"type":"Feature","properties":{"art":"weg","osm":"way/1311337867"},"geometry":{"type":"LineString","coordinates":[[7.8387856,48.0094649],[7.8390262,48.0094964]]}},{"type":"Feature","properties":{"art":"weg","osm":"way/1311337868"},"geometry":{"type":"LineString","coordinates":[[7.8442047,48.0066976],[7.8441968,48.0067209],[7.8441822,48.0067364],[7.8441667,48.0067426],[7.8441025,48.0067507]]}},{"type":"Feature","properties":{"art":"weg","osm":"way/1311337869"},"geometry":{"type":"LineString","coordinates":[[7.8442467,48.0067345],[7.8442486,48.0067179],[7.8442385,48.0067056],[7.8442047,48.0066976],[7.8441677,48.0066888]]}},{"type":"Feature","properties":{"art":"weg","osm":"way/1311337870"},"geometry":{"type":"LineString","coordinates":[[7.8443846,48.0066918],[7.8442995,48.0067364],[7.8442467,48.0067345],[7.844237,48.0067536],[7.844207,48.0067776],[7.8441692,48.0067812],[7.8441314,48.0067679],[7.8441025,48.0067507],[7.8441011,48.0067157],[7.8440653,48.0067009],[7.8440338,48.0067022],[7.8440025,48.0066868]]}},{"type":"Feature","properties":{"art":"weg","osm":"way/1311337871"},"geometry":{"type":"LineString","coordinates":[[7.8441067,48.006627],[7.8441391,48.0066084],[7.8441638,48.0066278],[7.8441789,48.0066473],[7.8441735,48.0066748],[7.8441677,48.0066888],[7.8441289,48.0066823],[7.8441002,48.0066649]]}},{"type":"Feature","properties":{"art":"weg","osm":"way/1311337872"},"geometry":{"type":"LineString","coordinates":[[7.8440431,48.0066679],[7.8440025,48.0066868]]}},{"type":"Feature","properties":{"art":"weg","osm":"way/1311337873"},"geometry":{"type":"LineString","coordinates":[[7.8440431,48.0066679],[7.8440285,48.0066542],[7.8440272,48.0066374],[7.8440397,48.0066229],[7.844062,48.0066151],[7.844087,48.0066167],[7.8441067,48.006627],[7.844115,48.0066429],[7.8441092,48.0066592],[7.8441002,48.0066649],[7.844091,48.0066708],[7.8440664,48.0066741],[7.8440431,48.0066679]]}},{"type":"Feature","properties":{"art":"weg","osm":"way/1311337874"},"geometry":{"type":"LineString","coordinates":[[7.8439787,48.0066087],[7.8439899,48.0066009],[7.844016,48.0066061],[7.8440397,48.0066229]]}},{"type":"Feature","properties":{"art":"weg","osm":"way/1311337875"},"geometry":{"type":"LineString","coordinates":[[7.8442288,48.0065623],[7.8441391,48.0066084],[7.8441062,48.0065824],[7.8440407,48.0065636],[7.8440121,48.0065464],[7.8439792,48.006538],[7.8439554,48.0065406],[7.843937,48.0065571],[7.8439356,48.0065899],[7.8439443,48.0066003],[7.8439787,48.0066087],[7.8439782,48.0066443],[7.8439889,48.0066664],[7.8440025,48.0066868],[7.8439307,48.0067268]]}},{"type":"Feature","properties":{"art":"weg","osm":"way/1312586898"},"geometry":{"type":"LineString","coordinates":[[7.8439175,48.0068766],[7.843849,48.0069128],[7.8437833,48.0068619],[7.84385,48.0068238]]}},{"type":"Feature","properties":{"art":"weg","osm":"way/1312586899"},"geometry":{"type":"LineString","coordinates":[[7.8438089,48.0067917],[7.84385,48.0068238],[7.8439175,48.0068766],[7.8440002,48.0069413],[7.8440515,48.006914]]}},{"type":"Feature","properties":{"art":"weg","osm":"way/1312586900"},"geometry":{"type":"LineString","coordinates":[[7.8436482,48.0068773],[7.8438089,48.0067917],[7.8439307,48.0067268]]}},{"type":"Feature","properties":{"art":"weg","osm":"way/1312586901"},"geometry":{"type":"LineString","coordinates":[[7.8426196,48.0110798],[7.8426283,48.0111335],[7.8426324,48.0111593],[7.8426364,48.0111841],[7.8426402,48.0112076],[7.842644,48.0112313],[7.8426479,48.0112556],[7.842652,48.0112791]]}},{"type":"Feature","properties":{"art":"weg","osm":"way/1312586902"},"geometry":{"type":"LineString","coordinates":[[7.8431993,48.0109765],[7.8432908,48.0111659]]}},{"type":"Feature","properties":{"art":"weg","osm":"way/1312586903"},"geometry":{"type":"LineString","coordinates":[[7.8414906,48.0079737],[7.8417643,48.0078212]]}},{"type":"Feature","properties":{"art":"weg","osm":"way/1312586904"},"geometry":{"type":"LineString","coordinates":[[7.8397134,48.0083639],[7.8398006,48.0083128],[7.8404311,48.0079595]]}},{"type":"Feature","properties":{"art":"weg","osm":"way/1312586905"},"geometry":{"type":"LineString","coordinates":[[7.8399353,48.0084217],[7.8398006,48.0083128]]}},{"type":"Feature","properties":{"art":"weg","osm":"way/1312586906"},"geometry":{"type":"LineString","coordinates":[[7.8426236,48.0118536],[7.8428295,48.0117127],[7.8430876,48.0115261]]}},{"type":"Feature","properties":{"art":"weg","osm":"way/1312586907"},"geometry":{"type":"LineString","coordinates":[[7.8426055,48.0117867],[7.8427635,48.011673],[7.8429656,48.0115252]]}},{"type":"Feature","properties":{"art":"weg","osm":"way/1312586908"},"geometry":{"type":"LineString","coordinates":[[7.8425827,48.0117136],[7.842697,48.0116329],[7.8428181,48.0115436]]}},{"type":"Feature","properties":{"art":"weg","osm":"way/1312586909"},"geometry":{"type":"LineString","coordinates":[[7.8425552,48.0114211],[7.842572,48.0115369],[7.8425934,48.0115705],[7.842697,48.0116329],[7.8427635,48.011673],[7.8428295,48.0117127],[7.8430151,48.0118354]]}},{"type":"Feature","properties":{"art":"hecke","sorte":"hedge","osm":"way/1312695791"},"geometry":{"type":"LineString","coordinates":[[7.8437214,48.0063158],[7.8437409,48.0063046],[7.8437644,48.0062864]]}},{"type":"Feature","properties":{"art":"hecke","sorte":"hedge","osm":"way/1312695792"},"geometry":{"type":"LineString","coordinates":[[7.843752,48.006334],[7.8437708,48.0063237],[7.8437987,48.0063138]]}},{"type":"Feature","properties":{"art":"weg","osm":"way/1317110073"},"geometry":{"type":"LineString","coordinates":[[7.8419912,48.0098967],[7.841947,48.0100574],[7.8419524,48.0100924],[7.8420281,48.0101767],[7.8420764,48.0102382],[7.8421153,48.010301],[7.8421797,48.0103535],[7.8422327,48.0104095],[7.8422642,48.0104611],[7.8422729,48.0105186],[7.8422653,48.0105965]]}},{"type":"Feature","properties":{"art":"weg","osm":"way/1317110074"},"geometry":{"type":"LineString","coordinates":[[7.8401351,48.0098321],[7.8401745,48.0097937],[7.8402407,48.009761],[7.8403148,48.0097398]]}},{"type":"Feature","properties":{"art":"weg","osm":"way/1317110075"},"geometry":{"type":"LineString","coordinates":[[7.8425699,48.0111376],[7.8426283,48.0111335],[7.8427497,48.0111251]]}},{"type":"Feature","properties":{"art":"weg","osm":"way/1317110076"},"geometry":{"type":"LineString","coordinates":[[7.8425666,48.0111636],[7.8426324,48.0111593],[7.8427698,48.0111502]]}},{"type":"Feature","properties":{"art":"weg","osm":"way/1317110077"},"geometry":{"type":"LineString","coordinates":[[7.8425706,48.0111888],[7.8426364,48.0111841],[7.8427859,48.0111735]]}},{"type":"Feature","properties":{"art":"weg","osm":"way/1317110078"},"geometry":{"type":"LineString","coordinates":[[7.8425679,48.011213],[7.8426402,48.0112076],[7.8427959,48.0111959]]}},{"type":"Feature","properties":{"art":"weg","osm":"way/1317110079"},"geometry":{"type":"LineString","coordinates":[[7.8425659,48.0112381],[7.842644,48.0112313],[7.842808,48.011217]]}},{"type":"Feature","properties":{"art":"weg","osm":"way/1317110080"},"geometry":{"type":"LineString","coordinates":[[7.8425686,48.0112628],[7.8426479,48.0112556],[7.8428254,48.0112394]]}},{"type":"Feature","properties":{"art":"weg","osm":"way/1317110081"},"geometry":{"type":"LineString","coordinates":[[7.842572,48.0112879],[7.842652,48.0112791],[7.8428348,48.0112592]]}},{"type":"Feature","properties":{"art":"hecke","sorte":"hedge","osm":"way/1317110082"},"geometry":{"type":"LineString","coordinates":[[7.845903,48.0087326],[7.8458208,48.0087449],[7.8457957,48.008654],[7.8458859,48.0086433]]}},{"type":"Feature","properties":{"art":"hecke","sorte":"hedge","osm":"way/1317110083"},"geometry":{"type":"LineString","coordinates":[[7.84608,48.0086647],[7.846337,48.0085287],[7.8463906,48.0085134],[7.8464477,48.0085164],[7.8464843,48.0085416],[7.8464934,48.0085745],[7.8464831,48.0086096],[7.84645,48.0086364],[7.8462011,48.0087678]]}},{"type":"Feature","properties":{"art":"weg","osm":"way/1317110085"},"geometry":{"type":"LineString","coordinates":[[7.8418343,48.0069435],[7.8420362,48.0068302],[7.8423425,48.0070907]]}},{"type":"Feature","properties":{"art":"weg","osm":"way/1317110086"},"geometry":{"type":"LineString","coordinates":[[7.8422029,48.006759],[7.8424108,48.0069242],[7.842549,48.0068493],[7.842345,48.0066829]]}},{"type":"Feature","properties":{"art":"weg","osm":"way/1317110087"},"geometry":{"type":"LineString","coordinates":[[7.8430446,48.0060982],[7.8431368,48.0061717],[7.8432227,48.0062427]]}},{"type":"Feature","properties":{"art":"weg","osm":"way/1317110088"},"geometry":{"type":"LineString","coordinates":[[7.8430012,48.0061074],[7.8431025,48.0061912],[7.8431953,48.0062618]]}},{"type":"Feature","properties":{"art":"weg","osm":"way/1317110089"},"geometry":{"type":"LineString","coordinates":[[7.8429806,48.0061364],[7.843069,48.0062103],[7.8431599,48.0062824]]}},{"type":"Feature","properties":{"art":"weg","osm":"way/1317110090"},"geometry":{"type":"LineString","coordinates":[[7.8429418,48.006154],[7.8430344,48.00623],[7.8431245,48.0063015]]}},{"type":"Feature","properties":{"art":"weg","osm":"way/1317110091"},"geometry":{"type":"LineString","coordinates":[[7.8429121,48.0061708],[7.843008,48.0062449],[7.8430948,48.006316]]}},{"type":"Feature","properties":{"art":"weg","osm":"way/1317110092"},"geometry":{"type":"LineString","coordinates":[[7.8432093,48.0061305],[7.8431368,48.0061717],[7.8431025,48.0061912],[7.843069,48.0062103],[7.8430344,48.00623],[7.843008,48.0062449]]}},{"type":"Feature","properties":{"art":"weg","osm":"way/1317400088"},"geometry":{"type":"LineString","coordinates":[[7.8446056,48.008114],[7.8447203,48.0082415],[7.8448144,48.0083179],[7.8447003,48.0083892],[7.8446127,48.0083156],[7.8447203,48.0082415]]}},{"type":"Feature","properties":{"art":"weg","osm":"way/1335815856"},"geometry":{"type":"LineString","coordinates":[[7.8436173,48.01],[7.8435255,48.0100426],[7.8433719,48.0101503],[7.8432472,48.0102346],[7.8432211,48.0102826],[7.8431634,48.0103405],[7.8431851,48.0104339],[7.843292,48.0105719]]}},{"type":"Feature","properties":{"art":"weg","osm":"way/1354182686"},"geometry":{"type":"LineString","coordinates":[[7.8437122,48.0082735],[7.8435174,48.0081225]]}},{"type":"Feature","properties":{"art":"weg","osm":"way/1377708280"},"geometry":{"type":"LineString","coordinates":[[7.8428309,48.0085314],[7.8427105,48.0084284]]}},{"type":"Feature","properties":{"art":"weg","osm":"way/1377708281"},"geometry":{"type":"LineString","coordinates":[[7.8429793,48.00865],[7.8430983,48.0087477]]}},{"type":"Feature","properties":{"art":"weg","osm":"way/1434177248"},"geometry":{"type":"LineString","coordinates":[[7.8395255,48.009013],[7.8395625,48.0091029]]}},{"type":"Feature","properties":{"art":"weg","osm":"way/1434177249"},"geometry":{"type":"LineString","coordinates":[[7.839539,48.0089601],[7.8395429,48.0088851],[7.8395507,48.0088491]]}},{"type":"Feature","properties":{"art":"weg","osm":"way/1434177250"},"geometry":{"type":"LineString","coordinates":[[7.8395928,48.0088229],[7.8395507,48.0088491],[7.8395042,48.0088795],[7.8394784,48.0089129],[7.8394734,48.0089463]]}},{"type":"Feature","properties":{"art":"weg","osm":"way/1434177251"},"geometry":{"type":"LineString","coordinates":[[7.8392602,48.0089574],[7.8393714,48.0089493],[7.8394734,48.0089463],[7.8394728,48.0089819],[7.8394818,48.0090048],[7.8395014,48.0090138],[7.8395255,48.009013],[7.8395367,48.0089999],[7.839539,48.0089601],[7.8396502,48.0089536]]}},{"type":"Feature","properties":{"art":"weg","osm":"way/1434177252"},"geometry":{"type":"LineString","coordinates":[[7.8431851,48.0104339],[7.8430105,48.0104716],[7.842719,48.0104922],[7.8427,48.0106337]]}},{"type":"Feature","properties":{"art":"denkmal","name":"Germania","sorte":"memorial","osm":"node/1663044364"},"geometry":{"type":"Point","coordinates":[7.8417733,48.009212]}},{"type":"Feature","properties":{"art":"denkmal","name":"Grab- und Ehrenmal 27. November 1944","sorte":"memorial","osm":"node/1976788818"},"geometry":{"type":"Point","coordinates":[7.843743,48.008118]}},{"type":"Feature","properties":{"art":"moebel","osm":"node/3902041157"},"geometry":{"type":"Point","coordinates":[7.8446733,48.0074264]}},{"type":"Feature","properties":{"art":"moebel","osm":"node/3902041190"},"geometry":{"type":"Point","coordinates":[7.8449742,48.007663]}},{"type":"Feature","properties":{"art":"moebel","osm":"node/3902041225"},"geometry":{"type":"Point","coordinates":[7.8432797,48.0079364]}},{"type":"Feature","properties":{"art":"moebel","osm":"node/3902041442"},"geometry":{"type":"Point","coordinates":[7.8412507,48.0092787]}},{"type":"Feature","properties":{"art":"moebel","osm":"node/3902041506"},"geometry":{"type":"Point","coordinates":[7.8408459,48.0094849]}},{"type":"Feature","properties":{"art":"moebel","osm":"node/3902041526"},"geometry":{"type":"Point","coordinates":[7.8415643,48.0095361]}},{"type":"Feature","properties":{"art":"moebel","osm":"node/3902041567"},"geometry":{"type":"Point","coordinates":[7.8411741,48.0097496]}},{"type":"Feature","properties":{"art":"baum","osm":"node/3902041696"},"geometry":{"type":"Point","coordinates":[7.8395414,48.0105919]}},{"type":"Feature","properties":{"art":"baum","osm":"node/3902041697"},"geometry":{"type":"Point","coordinates":[7.8399024,48.0105919]}},{"type":"Feature","properties":{"art":"baum","osm":"node/3902041706"},"geometry":{"type":"Point","coordinates":[7.8402713,48.0106256]}},{"type":"Feature","properties":{"art":"baum","osm":"node/3902041712"},"geometry":{"type":"Point","coordinates":[7.8396343,48.01067]}},{"type":"Feature","properties":{"art":"baum","osm":"node/3902041718"},"geometry":{"type":"Point","coordinates":[7.8402394,48.0107055]}},{"type":"Feature","properties":{"art":"baum","osm":"node/3902041723"},"geometry":{"type":"Point","coordinates":[7.8397113,48.0107286]}},{"type":"Feature","properties":{"art":"baum","osm":"node/3902041726"},"geometry":{"type":"Point","coordinates":[7.8404199,48.0107499]}},{"type":"Feature","properties":{"art":"baum","osm":"node/3902041732"},"geometry":{"type":"Point","coordinates":[7.8399767,48.0107801]}},{"type":"Feature","properties":{"art":"baum","osm":"node/3902041737"},"geometry":{"type":"Point","coordinates":[7.8398042,48.010844]}},{"type":"Feature","properties":{"art":"baum","osm":"node/3902041740"},"geometry":{"type":"Point","coordinates":[7.8398864,48.0108902]}},{"type":"Feature","properties":{"art":"baum","osm":"node/3902041747"},"geometry":{"type":"Point","coordinates":[7.8399899,48.0109186]}},{"type":"Feature","properties":{"art":"baum","osm":"node/3902041750"},"geometry":{"type":"Point","coordinates":[7.8401439,48.0109292]}},{"type":"Feature","properties":{"art":"baum","osm":"node/3902041754"},"geometry":{"type":"Point","coordinates":[7.8403429,48.0109434]}},{"type":"Feature","properties":{"art":"baum","osm":"node/3902041791"},"geometry":{"type":"Point","coordinates":[7.8414072,48.0114601]}},{"type":"Feature","properties":{"art":"baum","osm":"node/3902041793"},"geometry":{"type":"Point","coordinates":[7.8415266,48.0114743]}},{"type":"Feature","properties":{"art":"baum","osm":"node/3902041797"},"geometry":{"type":"Point","coordinates":[7.8416275,48.0115116]}},{"type":"Feature","properties":{"art":"baum","osm":"node/3902041798"},"geometry":{"type":"Point","coordinates":[7.8417735,48.0115294]}},{"type":"Feature","properties":{"art":"baum","osm":"node/3902041801"},"geometry":{"type":"Point","coordinates":[7.8413462,48.0115631]}},{"type":"Feature","properties":{"art":"baum","osm":"node/3902041803"},"geometry":{"type":"Point","coordinates":[7.8415665,48.0115862]}},{"type":"Feature","properties":{"art":"baum","osm":"node/3902041804"},"geometry":{"type":"Point","coordinates":[7.8417443,48.0116306]}},{"type":"Feature","properties":{"art":"moebel","osm":"node/3902041807"},"geometry":{"type":"Point","coordinates":[7.8420288,48.0116781]}},{"type":"Feature","properties":{"art":"baum","osm":"node/3902041808"},"geometry":{"type":"Point","coordinates":[7.8413488,48.0116909]}},{"type":"Feature","properties":{"art":"baum","osm":"node/3902041809"},"geometry":{"type":"Point","coordinates":[7.8415983,48.0117087]}},{"type":"Feature","properties":{"art":"baum","osm":"node/3902041812"},"geometry":{"type":"Point","coordinates":[7.8414178,48.0117762]}},{"type":"Feature","properties":{"art":"moebel","sorte":"bench","osm":"node/3902221161"},"geometry":{"type":"Point","coordinates":[7.8438628,48.0080256]}},{"type":"Feature","properties":{"art":"moebel","sorte":"bench","osm":"node/3902221162"},"geometry":{"type":"Point","coordinates":[7.8439116,48.0080656]}},{"type":"Feature","properties":{"art":"denkmal","name":"Vertriebenenkreuz","sorte":"memorial","osm":"node/5315573976"},"geometry":{"type":"Point","coordinates":[7.8423365,48.0114441]}},{"type":"Feature","properties":{"art":"moebel","sorte":"bench","osm":"node/11991153222"},"geometry":{"type":"Point","coordinates":[7.8437055,48.0062083]}},{"type":"Feature","properties":{"art":"moebel","sorte":"bench","osm":"node/11991153223"},"geometry":{"type":"Point","coordinates":[7.8439121,48.0063737]}},{"type":"Feature","properties":{"art":"baum","osm":"node/12140944030"},"geometry":{"type":"Point","coordinates":[7.8454486,48.007905]}},{"type":"Feature","properties":{"art":"baum","osm":"node/12140944031"},"geometry":{"type":"Point","coordinates":[7.8453722,48.0078327]}},{"type":"Feature","properties":{"art":"baum","osm":"node/12140944032"},"geometry":{"type":"Point","coordinates":[7.8452803,48.0077659]}},{"type":"Feature","properties":{"art":"baum","osm":"node/12189818134"},"geometry":{"type":"Point","coordinates":[7.8385419,48.009398]}},{"type":"Feature","properties":{"art":"baum","osm":"node/12189818135"},"geometry":{"type":"Point","coordinates":[7.8385198,48.0094715]}},{"type":"Feature","properties":{"art":"baum","osm":"node/12189818136"},"geometry":{"type":"Point","coordinates":[7.840915,48.010065]}},{"type":"Feature","properties":{"art":"baum","osm":"node/12189818137"},"geometry":{"type":"Point","coordinates":[7.8408533,48.0099197]}},{"type":"Feature","properties":{"art":"baum","osm":"node/12189818138"},"geometry":{"type":"Point","coordinates":[7.8399193,48.0099071]}},{"type":"Feature","properties":{"art":"baum","osm":"node/12189818139"},"geometry":{"type":"Point","coordinates":[7.8399441,48.0097044]}},{"type":"Feature","properties":{"art":"baum","osm":"node/12189818151"},"geometry":{"type":"Point","coordinates":[7.842008,48.0099569]}},{"type":"Feature","properties":{"art":"baum","osm":"node/12189818152"},"geometry":{"type":"Point","coordinates":[7.8419121,48.0099376]}},{"type":"Feature","properties":{"art":"baum","osm":"node/12189818153"},"geometry":{"type":"Point","coordinates":[7.8420214,48.0100785]}},{"type":"Feature","properties":{"art":"baum","osm":"node/12189818154"},"geometry":{"type":"Point","coordinates":[7.8414287,48.0118764]}},{"type":"Feature","properties":{"art":"baum","osm":"node/12189818155"},"geometry":{"type":"Point","coordinates":[7.8412724,48.0117311]}},{"type":"Feature","properties":{"art":"baum","osm":"node/12189818156"},"geometry":{"type":"Point","coordinates":[7.8412691,48.0116566]}},{"type":"Feature","properties":{"art":"baum","osm":"node/12189818157"},"geometry":{"type":"Point","coordinates":[7.8412832,48.0115615]}},{"type":"Feature","properties":{"art":"baum","osm":"node/12189818158"},"geometry":{"type":"Point","coordinates":[7.841312,48.0114907]}},{"type":"Feature","properties":{"art":"baum","osm":"node/12189818159"},"geometry":{"type":"Point","coordinates":[7.8413636,48.0114122]}},{"type":"Feature","properties":{"art":"baum","osm":"node/12189818160"},"geometry":{"type":"Point","coordinates":[7.8414099,48.0113381]}},{"type":"Feature","properties":{"art":"baum","osm":"node/12189818195"},"geometry":{"type":"Point","coordinates":[7.8420737,48.0122178]}},{"type":"Feature","properties":{"art":"baum","osm":"node/12189818196"},"geometry":{"type":"Point","coordinates":[7.8419121,48.0121285]}},{"type":"Feature","properties":{"art":"baum","osm":"node/12189818197"},"geometry":{"type":"Point","coordinates":[7.8417391,48.0120388]}},{"type":"Feature","properties":{"art":"baum","osm":"node/12189818198"},"geometry":{"type":"Point","coordinates":[7.8415755,48.0119491]}},{"type":"Feature","properties":{"art":"baum","osm":"node/12189818199"},"geometry":{"type":"Point","coordinates":[7.8422809,48.012103]}},{"type":"Feature","properties":{"art":"baum","osm":"node/12189818200"},"geometry":{"type":"Point","coordinates":[7.8423708,48.0118926]}},{"type":"Feature","properties":{"art":"baum","osm":"node/12189821201"},"geometry":{"type":"Point","coordinates":[7.842525,48.0117028]}},{"type":"Feature","properties":{"art":"baum","osm":"node/12189821202"},"geometry":{"type":"Point","coordinates":[7.8427416,48.0118571]}},{"type":"Feature","properties":{"art":"baum","osm":"node/12189821203"},"geometry":{"type":"Point","coordinates":[7.8426202,48.0118966]}},{"type":"Feature","properties":{"art":"baum","osm":"node/12189821204"},"geometry":{"type":"Point","coordinates":[7.842865,48.011889]}},{"type":"Feature","properties":{"art":"baum","osm":"node/12189821205"},"geometry":{"type":"Point","coordinates":[7.8427617,48.0119675]}},{"type":"Feature","properties":{"art":"baum","osm":"node/12189821206"},"geometry":{"type":"Point","coordinates":[7.8426484,48.0120491]}},{"type":"Feature","properties":{"art":"baum","osm":"node/12189821207"},"geometry":{"type":"Point","coordinates":[7.8430071,48.0117854]}},{"type":"Feature","properties":{"art":"baum","osm":"node/12189821208"},"geometry":{"type":"Point","coordinates":[7.8431164,48.0117154]}},{"type":"Feature","properties":{"art":"baum","osm":"node/12189821209"},"geometry":{"type":"Point","coordinates":[7.8432351,48.0116338]}},{"type":"Feature","properties":{"art":"baum","osm":"node/12189821210"},"geometry":{"type":"Point","coordinates":[7.8433558,48.0115458]}},{"type":"Feature","properties":{"art":"baum","osm":"node/12189821211"},"geometry":{"type":"Point","coordinates":[7.8434752,48.0114655]}},{"type":"Feature","properties":{"art":"baum","osm":"node/12189821212"},"geometry":{"type":"Point","coordinates":[7.8410163,48.0109972]}},{"type":"Feature","properties":{"art":"baum","osm":"node/12189821213"},"geometry":{"type":"Point","coordinates":[7.8411095,48.0110519]}},{"type":"Feature","properties":{"art":"baum","osm":"node/12189821214"},"geometry":{"type":"Point","coordinates":[7.8413127,48.0111704]}},{"type":"Feature","properties":{"art":"baum","osm":"node/12189821215"},"geometry":{"type":"Point","coordinates":[7.8411993,48.0111111]}},{"type":"Feature","properties":{"art":"baum","osm":"node/12189821216"},"geometry":{"type":"Point","coordinates":[7.8421053,48.0107926]}},{"type":"Feature","properties":{"art":"baum","osm":"node/12189821217"},"geometry":{"type":"Point","coordinates":[7.8419825,48.0108608]}},{"type":"Feature","properties":{"art":"baum","osm":"node/12189821218"},"geometry":{"type":"Point","coordinates":[7.8418377,48.0109461]}},{"type":"Feature","properties":{"art":"baum","osm":"node/12189821219"},"geometry":{"type":"Point","coordinates":[7.8417257,48.0110214]}},{"type":"Feature","properties":{"art":"baum","osm":"node/12189821220"},"geometry":{"type":"Point","coordinates":[7.8415406,48.0111865]}},{"type":"Feature","properties":{"art":"baum","osm":"node/12189821221"},"geometry":{"type":"Point","coordinates":[7.8416339,48.0111089]}},{"type":"Feature","properties":{"art":"baum","osm":"node/12189821222"},"geometry":{"type":"Point","coordinates":[7.8422467,48.0106706]}},{"type":"Feature","properties":{"art":"baum","osm":"node/12189821223"},"geometry":{"type":"Point","coordinates":[7.8421073,48.0107352]}},{"type":"Feature","properties":{"art":"baum","osm":"node/12189821224"},"geometry":{"type":"Point","coordinates":[7.8419658,48.0107994]}},{"type":"Feature","properties":{"art":"baum","osm":"node/12189821225"},"geometry":{"type":"Point","coordinates":[7.8418639,48.0108644]}},{"type":"Feature","properties":{"art":"baum","osm":"node/12189821226"},"geometry":{"type":"Point","coordinates":[7.8417378,48.0109456]}},{"type":"Feature","properties":{"art":"baum","osm":"node/12189821267"},"geometry":{"type":"Point","coordinates":[7.8394613,48.0083554]}},{"type":"Feature","properties":{"art":"baum","osm":"node/12189821268"},"geometry":{"type":"Point","coordinates":[7.8397865,48.0081201]}},{"type":"Feature","properties":{"art":"baum","osm":"node/12189821269"},"geometry":{"type":"Point","coordinates":[7.83971,48.0081692]}},{"type":"Feature","properties":{"art":"baum","osm":"node/12189821270"},"geometry":{"type":"Point","coordinates":[7.8396343,48.0082287]}},{"type":"Feature","properties":{"art":"baum","osm":"node/12189821271"},"geometry":{"type":"Point","coordinates":[7.839533,48.0082995]}},{"type":"Feature","properties":{"art":"baum","osm":"node/12189821272"},"geometry":{"type":"Point","coordinates":[7.8398616,48.0080647]}},{"type":"Feature","properties":{"art":"baum","osm":"node/12189821273"},"geometry":{"type":"Point","coordinates":[7.8399535,48.0080005]}},{"type":"Feature","properties":{"art":"baum","osm":"node/12189821274"},"geometry":{"type":"Point","coordinates":[7.8402123,48.0078224]}},{"type":"Feature","properties":{"art":"baum","osm":"node/12189821275"},"geometry":{"type":"Point","coordinates":[7.8401043,48.0078893]}},{"type":"Feature","properties":{"art":"baum","osm":"node/12189821276"},"geometry":{"type":"Point","coordinates":[7.8400118,48.0079575]}},{"type":"Feature","properties":{"art":"baum","osm":"node/12189821277"},"geometry":{"type":"Point","coordinates":[7.8402626,48.0077847]}},{"type":"Feature","properties":{"art":"baum","osm":"node/12189821278"},"geometry":{"type":"Point","coordinates":[7.8403236,48.0077332]}},{"type":"Feature","properties":{"art":"baum","osm":"node/12189821279"},"geometry":{"type":"Point","coordinates":[7.8403799,48.0076959]}},{"type":"Feature","properties":{"art":"baum","osm":"node/12189821280"},"geometry":{"type":"Point","coordinates":[7.840451,48.007643]}},{"type":"Feature","properties":{"art":"baum","osm":"node/12189821281"},"geometry":{"type":"Point","coordinates":[7.8405341,48.0075882]}},{"type":"Feature","properties":{"art":"baum","osm":"node/12189821282"},"geometry":{"type":"Point","coordinates":[7.8406388,48.0075106]}},{"type":"Feature","properties":{"art":"baum","osm":"node/12189821283"},"geometry":{"type":"Point","coordinates":[7.8408513,48.0073626]}},{"type":"Feature","properties":{"art":"baum","osm":"node/12189821284"},"geometry":{"type":"Point","coordinates":[7.8409345,48.0073007]}},{"type":"Feature","properties":{"art":"baum","osm":"node/12189821285"},"geometry":{"type":"Point","coordinates":[7.8407561,48.0074294]}},{"type":"Feature","properties":{"art":"baum","osm":"node/12189821286"},"geometry":{"type":"Point","coordinates":[7.8410739,48.0071894]}},{"type":"Feature","properties":{"art":"baum","osm":"node/12189821287"},"geometry":{"type":"Point","coordinates":[7.8411464,48.0071356]}},{"type":"Feature","properties":{"art":"baum","osm":"node/12189821288"},"geometry":{"type":"Point","coordinates":[7.8412389,48.0070661]}},{"type":"Feature","properties":{"art":"baum","osm":"node/12189821289"},"geometry":{"type":"Point","coordinates":[7.84132,48.0070091]}},{"type":"Feature","properties":{"art":"baum","osm":"node/12189821290"},"geometry":{"type":"Point","coordinates":[7.8413992,48.0069481]}},{"type":"Feature","properties":{"art":"baum","osm":"node/12189821291"},"geometry":{"type":"Point","coordinates":[7.841489,48.0068906]}},{"type":"Feature","properties":{"art":"baum","osm":"node/12189821292"},"geometry":{"type":"Point","coordinates":[7.8431077,48.0066448]}},{"type":"Feature","properties":{"art":"baum","osm":"node/12189821293"},"geometry":{"type":"Point","coordinates":[7.8432231,48.0065838]}},{"type":"Feature","properties":{"art":"baum","osm":"node/12189821294"},"geometry":{"type":"Point","coordinates":[7.8433116,48.006529]}},{"type":"Feature","properties":{"art":"baum","osm":"node/12189821295"},"geometry":{"type":"Point","coordinates":[7.8444287,48.0068709]}},{"type":"Feature","properties":{"art":"baum","osm":"node/12189821296"},"geometry":{"type":"Point","coordinates":[7.844475,48.006962]}},{"type":"Feature","properties":{"art":"baum","osm":"node/12189821299"},"geometry":{"type":"Point","coordinates":[7.8440727,48.0067273]}},{"type":"Feature","properties":{"art":"baum","osm":"node/12189821300"},"geometry":{"type":"Point","coordinates":[7.8437327,48.0064707]}},{"type":"Feature","properties":{"art":"baum","osm":"node/12189821301"},"geometry":{"type":"Point","coordinates":[7.8440224,48.0064685]}},{"type":"Feature","properties":{"art":"baum","osm":"node/12189821302"},"geometry":{"type":"Point","coordinates":[7.8441471,48.006538]}},{"type":"Feature","properties":{"art":"baum","osm":"node/12189821303"},"geometry":{"type":"Point","coordinates":[7.8439137,48.0064766]}},{"type":"Feature","properties":{"art":"baum","osm":"node/12189821306"},"geometry":{"type":"Point","coordinates":[7.8401788,48.0097367]}},{"type":"Feature","properties":{"art":"baum","osm":"node/12189821307"},"geometry":{"type":"Point","coordinates":[7.8416654,48.0067139]}},{"type":"Feature","properties":{"art":"baum","osm":"node/12189821308"},"geometry":{"type":"Point","coordinates":[7.8422548,48.0073204]}},{"type":"Feature","properties":{"art":"baum","osm":"node/12189821309"},"geometry":{"type":"Point","coordinates":[7.8419222,48.0071369]}},{"type":"Feature","properties":{"art":"baum","osm":"node/12189821310"},"geometry":{"type":"Point","coordinates":[7.8420141,48.0072105]}},{"type":"Feature","properties":{"art":"baum","osm":"node/12189821311"},"geometry":{"type":"Point","coordinates":[7.8420804,48.0071778]}},{"type":"Feature","properties":{"art":"baum","osm":"node/12189821312"},"geometry":{"type":"Point","coordinates":[7.8419664,48.0071701]}},{"type":"Feature","properties":{"art":"baum","osm":"node/12189821313"},"geometry":{"type":"Point","coordinates":[7.8419866,48.0071046]}},{"type":"Feature","properties":{"art":"baum","osm":"node/12189821314"},"geometry":{"type":"Point","coordinates":[7.8420328,48.0071351]}},{"type":"Feature","properties":{"art":"baum","osm":"node/12189821315"},"geometry":{"type":"Point","coordinates":[7.8422112,48.0072863]}},{"type":"Feature","properties":{"art":"baum","osm":"node/12189821316"},"geometry":{"type":"Point","coordinates":[7.8421669,48.0072504]}},{"type":"Feature","properties":{"art":"baum","osm":"node/12189821317"},"geometry":{"type":"Point","coordinates":[7.8421911,48.0073612]}},{"type":"Feature","properties":{"art":"baum","osm":"node/12189821318"},"geometry":{"type":"Point","coordinates":[7.8421455,48.0073218]}},{"type":"Feature","properties":{"art":"baum","osm":"node/12189821319"},"geometry":{"type":"Point","coordinates":[7.8421026,48.0072872]}},{"type":"Feature","properties":{"art":"baum","osm":"node/12189821320"},"geometry":{"type":"Point","coordinates":[7.846313,48.0093369]}},{"type":"Feature","properties":{"art":"baum","osm":"node/12189821321"},"geometry":{"type":"Point","coordinates":[7.8461346,48.0088332]}},{"type":"Feature","properties":{"art":"baum","osm":"node/12189821322"},"geometry":{"type":"Point","coordinates":[7.8466167,48.0086627]}},{"type":"Feature","properties":{"art":"baum","osm":"node/12189821323"},"geometry":{"type":"Point","coordinates":[7.845578,48.0092064]}},{"type":"Feature","properties":{"art":"baum","osm":"node/12189821324"},"geometry":{"type":"Point","coordinates":[7.8423668,48.0119639]}},{"type":"Feature","properties":{"art":"baum","osm":"node/12189821325"},"geometry":{"type":"Point","coordinates":[7.8423755,48.0118186]}},{"type":"Feature","properties":{"art":"baum","osm":"node/12189821326"},"geometry":{"type":"Point","coordinates":[7.8422823,48.0120245]}},{"type":"Feature","properties":{"art":"baum","osm":"node/12189821327"},"geometry":{"type":"Point","coordinates":[7.8422897,48.0119648]}},{"type":"Feature","properties":{"art":"baum","osm":"node/12189821328"},"geometry":{"type":"Point","coordinates":[7.842297,48.0118948]}},{"type":"Feature","properties":{"art":"baum","osm":"node/12189821329"},"geometry":{"type":"Point","coordinates":[7.8422984,48.0118284]}},{"type":"Feature","properties":{"art":"baum","osm":"node/12189821330"},"geometry":{"type":"Point","coordinates":[7.8423064,48.0117553]}},{"type":"Feature","properties":{"art":"baum","osm":"node/12189821331"},"geometry":{"type":"Point","coordinates":[7.8423198,48.0116773]}},{"type":"Feature","properties":{"art":"baum","osm":"node/12189821332"},"geometry":{"type":"Point","coordinates":[7.8423265,48.0116068]}},{"type":"Feature","properties":{"art":"baum","osm":"node/12189821333"},"geometry":{"type":"Point","coordinates":[7.8423265,48.0115292]}},{"type":"Feature","properties":{"art":"baum","osm":"node/12189821334"},"geometry":{"type":"Point","coordinates":[7.8420845,48.0114328]}},{"type":"Feature","properties":{"art":"baum","osm":"node/12189821335"},"geometry":{"type":"Point","coordinates":[7.8419718,48.0114144]}},{"type":"Feature","properties":{"art":"baum","osm":"node/12189821336"},"geometry":{"type":"Point","coordinates":[7.8417633,48.0113816]}},{"type":"Feature","properties":{"art":"baum","osm":"node/12189821337"},"geometry":{"type":"Point","coordinates":[7.8416399,48.0113565]}},{"type":"Feature","properties":{"art":"baum","osm":"node/12189821338"},"geometry":{"type":"Point","coordinates":[7.8415185,48.0113238]}},{"type":"Feature","properties":{"art":"baum","osm":"node/12189821339"},"geometry":{"type":"Point","coordinates":[7.8421938,48.0113816]}},{"type":"Feature","properties":{"art":"baum","osm":"node/12189821340"},"geometry":{"type":"Point","coordinates":[7.842065,48.01137]}},{"type":"Feature","properties":{"art":"baum","osm":"node/12189821341"},"geometry":{"type":"Point","coordinates":[7.8418981,48.0113489]}},{"type":"Feature","properties":{"art":"baum","osm":"node/12189821342"},"geometry":{"type":"Point","coordinates":[7.8417405,48.0113251]}},{"type":"Feature","properties":{"art":"baum","osm":"node/12189821343"},"geometry":{"type":"Point","coordinates":[7.8416178,48.0112951]}},{"type":"Feature","properties":{"art":"baum","osm":"node/12189821344"},"geometry":{"type":"Point","coordinates":[7.8425183,48.0114]}},{"type":"Feature","properties":{"art":"baum","osm":"node/12189821345"},"geometry":{"type":"Point","coordinates":[7.8426055,48.0113996]}},{"type":"Feature","properties":{"art":"baum","osm":"node/12189821346"},"geometry":{"type":"Point","coordinates":[7.8427027,48.0113956]}},{"type":"Feature","properties":{"art":"baum","osm":"node/12189821347"},"geometry":{"type":"Point","coordinates":[7.8427872,48.0113902]}},{"type":"Feature","properties":{"art":"baum","osm":"node/12189821348"},"geometry":{"type":"Point","coordinates":[7.8428911,48.0113803]}},{"type":"Feature","properties":{"art":"baum","osm":"node/12189821349"},"geometry":{"type":"Point","coordinates":[7.8429971,48.0113713]}},{"type":"Feature","properties":{"art":"baum","osm":"node/12189821350"},"geometry":{"type":"Point","coordinates":[7.8430963,48.011361]}},{"type":"Feature","properties":{"art":"baum","osm":"node/12189821351"},"geometry":{"type":"Point","coordinates":[7.8431969,48.011348]}},{"type":"Feature","properties":{"art":"baum","osm":"node/12189821352"},"geometry":{"type":"Point","coordinates":[7.8432861,48.0113328]}},{"type":"Feature","properties":{"art":"baum","osm":"node/12189821353"},"geometry":{"type":"Point","coordinates":[7.8433887,48.0113139]}},{"type":"Feature","properties":{"art":"baum","osm":"node/12189821354"},"geometry":{"type":"Point","coordinates":[7.8434779,48.0112951]}},{"type":"Feature","properties":{"art":"baum","osm":"node/12189821355"},"geometry":{"type":"Point","coordinates":[7.8435597,48.0112708]}},{"type":"Feature","properties":{"art":"moebel","sorte":"bench","osm":"node/12192847068"},"geometry":{"type":"Point","coordinates":[7.8447926,48.0082713]}},{"type":"Feature","properties":{"art":"denkmal","sorte":"memorial","osm":"node/12531753725"},"geometry":{"type":"Point","coordinates":[7.8435038,48.0082603]}},{"type":"Feature","properties":{"art":"baum","osm":"node/13181453663"},"geometry":{"type":"Point","coordinates":[7.8435003,48.0085259]}},{"type":"Feature","properties":{"art":"baum","osm":"node/13181453664"},"geometry":{"type":"Point","coordinates":[7.8434942,48.0085732]}},{"type":"Feature","properties":{"art":"baum","osm":"node/13181453665"},"geometry":{"type":"Point","coordinates":[7.8434594,48.0086343]}},{"type":"Feature","properties":{"art":"baum","osm":"node/13181453666"},"geometry":{"type":"Point","coordinates":[7.843428,48.0086703]}},{"type":"Feature","properties":{"art":"baum","osm":"node/13181453667"},"geometry":{"type":"Point","coordinates":[7.8424736,48.0090051]}},{"type":"Feature","properties":{"art":"baum","osm":"node/13181453668"},"geometry":{"type":"Point","coordinates":[7.8423839,48.0089635]}},{"type":"Feature","properties":{"art":"baum","osm":"node/13181453669"},"geometry":{"type":"Point","coordinates":[7.8425616,48.009025]}},{"type":"Feature","properties":{"art":"baum","osm":"node/13181453670"},"geometry":{"type":"Point","coordinates":[7.8426372,48.0090164]}},{"type":"Feature","properties":{"art":"baum","osm":"node/13181453671"},"geometry":{"type":"Point","coordinates":[7.8428664,48.0089826]}},{"type":"Feature","properties":{"art":"baum","osm":"node/13181453672"},"geometry":{"type":"Point","coordinates":[7.8428003,48.0090063]}},{"type":"Feature","properties":{"art":"baum","osm":"node/13181453673"},"geometry":{"type":"Point","coordinates":[7.842714,48.0090198]}},{"type":"Feature","properties":{"art":"baum","osm":"node/13181453674"},"geometry":{"type":"Point","coordinates":[7.8432431,48.0087877]}},{"type":"Feature","properties":{"art":"baum","osm":"node/13181453675"},"geometry":{"type":"Point","coordinates":[7.8431489,48.0088409]}},{"type":"Feature","properties":{"art":"baum","osm":"node/13181453676"},"geometry":{"type":"Point","coordinates":[7.8430727,48.0088799]}},{"type":"Feature","properties":{"art":"baum","osm":"node/13181453677"},"geometry":{"type":"Point","coordinates":[7.8429976,48.0089181]}},{"type":"Feature","properties":{"art":"baum","osm":"node/13181453678"},"geometry":{"type":"Point","coordinates":[7.8429259,48.0089571]}},{"type":"Feature","properties":{"art":"baum","osm":"node/13181453679"},"geometry":{"type":"Point","coordinates":[7.8422057,48.008692]}},{"type":"Feature","properties":{"art":"baum","osm":"node/13181453680"},"geometry":{"type":"Point","coordinates":[7.8422303,48.0086354]}},{"type":"Feature","properties":{"art":"baum","osm":"node/13181453681"},"geometry":{"type":"Point","coordinates":[7.8422712,48.0085807]}},{"type":"Feature","properties":{"art":"baum","osm":"node/13181453682"},"geometry":{"type":"Point","coordinates":[7.842334,48.0085402]}},{"type":"Feature","properties":{"art":"baum","osm":"node/13181453683"},"geometry":{"type":"Point","coordinates":[7.8423833,48.0085087]}},{"type":"Feature","properties":{"art":"baum","osm":"node/13181453684"},"geometry":{"type":"Point","coordinates":[7.8424652,48.0084644]}},{"type":"Feature","properties":{"art":"baum","osm":"node/13181453685"},"geometry":{"type":"Point","coordinates":[7.842529,48.0084337]}},{"type":"Feature","properties":{"art":"baum","osm":"node/13181453686"},"geometry":{"type":"Point","coordinates":[7.8426176,48.0083804]}},{"type":"Feature","properties":{"art":"baum","osm":"node/13181453687"},"geometry":{"type":"Point","coordinates":[7.8427039,48.0083324]}},{"type":"Feature","properties":{"art":"baum","osm":"node/13181453688"},"geometry":{"type":"Point","coordinates":[7.8435356,48.0084247]}},{"type":"Feature","properties":{"art":"baum","osm":"node/13181453689"},"geometry":{"type":"Point","coordinates":[7.8436399,48.0083632]}},{"type":"Feature","properties":{"art":"baum","osm":"node/13181453690"},"geometry":{"type":"Point","coordinates":[7.8437363,48.0083115]}},{"type":"Feature","properties":{"art":"baum","osm":"node/13181453691"},"geometry":{"type":"Point","coordinates":[7.8438405,48.008259]}},{"type":"Feature","properties":{"art":"baum","osm":"node/13181453692"},"geometry":{"type":"Point","coordinates":[7.8439812,48.0081832]}},{"type":"Feature","properties":{"art":"baum","osm":"node/13181453693"},"geometry":{"type":"Point","coordinates":[7.8441,48.008118]}},{"type":"Feature","properties":{"art":"baum","osm":"node/13181453694"},"geometry":{"type":"Point","coordinates":[7.8441891,48.0080617]}},{"type":"Feature","properties":{"art":"baum","osm":"node/13181453695"},"geometry":{"type":"Point","coordinates":[7.8443024,48.0080025]}},{"type":"Feature","properties":{"art":"baum","osm":"node/13181453696"},"geometry":{"type":"Point","coordinates":[7.844429,48.0079432]}},{"type":"Feature","properties":{"art":"baum","osm":"node/13181453697"},"geometry":{"type":"Point","coordinates":[7.8445478,48.0078675]}},{"type":"Feature","properties":{"art":"baum","osm":"node/13181453698"},"geometry":{"type":"Point","coordinates":[7.8446543,48.0078067]}},{"type":"Feature","properties":{"art":"baum","osm":"node/13181453699"},"geometry":{"type":"Point","coordinates":[7.8447597,48.0077438]}},{"type":"Feature","properties":{"art":"baum","osm":"node/13181453700"},"geometry":{"type":"Point","coordinates":[7.8448606,48.0076808]}},{"type":"Feature","properties":{"art":"baum","osm":"node/13181462101"},"geometry":{"type":"Point","coordinates":[7.8428754,48.0082387]}},{"type":"Feature","properties":{"art":"baum","osm":"node/13181462102"},"geometry":{"type":"Point","coordinates":[7.8429685,48.0082147]}},{"type":"Feature","properties":{"art":"baum","osm":"node/13181462103"},"geometry":{"type":"Point","coordinates":[7.8430693,48.008214]}},{"type":"Feature","properties":{"art":"baum","osm":"node/13181462104"},"geometry":{"type":"Point","coordinates":[7.8431243,48.0082132]}},{"type":"Feature","properties":{"art":"baum","osm":"node/13181462105"},"geometry":{"type":"Point","coordinates":[7.8432756,48.0082215]}},{"type":"Feature","properties":{"art":"baum","osm":"node/13181462106"},"geometry":{"type":"Point","coordinates":[7.8433877,48.008157]}},{"type":"Feature","properties":{"art":"baum","osm":"node/13181462107"},"geometry":{"type":"Point","coordinates":[7.8434818,48.008106]}},{"type":"Feature","properties":{"art":"baum","osm":"node/13181462108"},"geometry":{"type":"Point","coordinates":[7.8435827,48.008046]}},{"type":"Feature","properties":{"art":"baum","osm":"node/13181462109"},"geometry":{"type":"Point","coordinates":[7.8437116,48.0079755]}},{"type":"Feature","properties":{"art":"baum","osm":"node/13181462110"},"geometry":{"type":"Point","coordinates":[7.8438293,48.007914]}},{"type":"Feature","properties":{"art":"baum","osm":"node/13181462111"},"geometry":{"type":"Point","coordinates":[7.8439336,48.007854]}},{"type":"Feature","properties":{"art":"baum","osm":"node/13181462112"},"geometry":{"type":"Point","coordinates":[7.8440423,48.007794]}},{"type":"Feature","properties":{"art":"baum","osm":"node/13181462113"},"geometry":{"type":"Point","coordinates":[7.8441667,48.0077273]}},{"type":"Feature","properties":{"art":"baum","osm":"node/13181462114"},"geometry":{"type":"Point","coordinates":[7.84429,48.0076605]}},{"type":"Feature","properties":{"art":"baum","osm":"node/13181462115"},"geometry":{"type":"Point","coordinates":[7.844392,48.0076013]}},{"type":"Feature","properties":{"art":"baum","osm":"node/13181462116"},"geometry":{"type":"Point","coordinates":[7.8445064,48.0075428]}},{"type":"Feature","properties":{"art":"baum","osm":"node/13181462117"},"geometry":{"type":"Point","coordinates":[7.8446084,48.0074948]}},{"type":"Feature","properties":{"art":"baum","osm":"node/13255953092"},"geometry":{"type":"Point","coordinates":[7.8416479,48.0120567]}},{"type":"Feature","properties":{"art":"baum","osm":"node/13255963654"},"geometry":{"type":"Point","coordinates":[7.8413073,48.0118844]}},{"type":"Feature","properties":{"art":"baum","osm":"node/13255976645"},"geometry":{"type":"Point","coordinates":[7.8417643,48.0121203]}},{"type":"Feature","properties":{"art":"baum","osm":"node/13255980496"},"geometry":{"type":"Point","coordinates":[7.8423568,48.0120282]}},{"type":"Feature","properties":{"art":"baum","osm":"node/13255992045"},"geometry":{"type":"Point","coordinates":[7.84211,48.0123055]}},{"type":"Feature","properties":{"art":"baum","osm":"node/13255993500"},"geometry":{"type":"Point","coordinates":[7.8423895,48.0116093]}},{"type":"Feature","properties":{"art":"baum","osm":"node/13255994641"},"geometry":{"type":"Point","coordinates":[7.8423777,48.0117541]}},{"type":"Feature","properties":{"art":"baum","osm":"node/13255997634"},"geometry":{"type":"Point","coordinates":[7.8414839,48.0119665]}},{"type":"Feature","properties":{"art":"baum","osm":"node/13255997788"},"geometry":{"type":"Point","coordinates":[7.84234,48.0121063]}},{"type":"Feature","properties":{"art":"baum","osm":"node/13255999172"},"geometry":{"type":"Point","coordinates":[7.8422739,48.0121778]}},{"type":"Feature","properties":{"art":"baum","osm":"node/13255999638"},"geometry":{"type":"Point","coordinates":[7.8423847,48.0116829]}},{"type":"Feature","properties":{"art":"baum","osm":"node/13256000842"},"geometry":{"type":"Point","coordinates":[7.8419622,48.0122184]}},{"type":"Feature","properties":{"art":"baum","osm":"node/13256010346"},"geometry":{"type":"Point","coordinates":[7.8423495,48.0106864]}},{"type":"Feature","properties":{"art":"baum","osm":"node/13256010415"},"geometry":{"type":"Point","coordinates":[7.8423307,48.0121786]}},{"type":"Feature","properties":{"art":"baum","osm":"node/13256011814"},"geometry":{"type":"Point","coordinates":[7.8412075,48.0118237]}},{"type":"Feature","properties":{"art":"baum","osm":"node/13256011815"},"geometry":{"type":"Point","coordinates":[7.8414403,48.0111671]}},{"type":"Feature","properties":{"art":"moebel","sorte":"bench","osm":"node/13304941253"},"geometry":{"type":"Point","coordinates":[7.8449998,48.0076909]}},{"type":"Feature","properties":{"art":"moebel","sorte":"bench","osm":"node/13304958870"},"geometry":{"type":"Point","coordinates":[7.8449397,48.0076953]}},{"type":"Feature","properties":{"art":"baum","osm":"node/13304962120"},"geometry":{"type":"Point","coordinates":[7.8392826,48.008489]}},{"type":"Feature","properties":{"art":"baum","osm":"node/13304965999"},"geometry":{"type":"Point","coordinates":[7.8393459,48.0084455]}},{"type":"Feature","properties":{"art":"moebel","sorte":"bench","osm":"node/13304966084"},"geometry":{"type":"Point","coordinates":[7.8446224,48.0074235]}},{"type":"Feature","properties":{"art":"moebel","osm":"node/13304967296"},"geometry":{"type":"Point","coordinates":[7.8422549,48.0073692]}},{"type":"Feature","properties":{"art":"baum","osm":"node/13304980592"},"geometry":{"type":"Point","coordinates":[7.8392099,48.008537]}},{"type":"Feature","properties":{"art":"moebel","osm":"node/13304982205"},"geometry":{"type":"Point","coordinates":[7.8419308,48.0070968]}}]}